date,time,Power,solar_azimuth,solar_zenith,solar_elevation,solar_time,is_day,shortwave_radiation,shortwave_radiation_instant,direct_radiation,direct_radiation_instant,diffuse_radiation,diffuse_radiation_instant,direct_normal_irradiance,direct_normal_irradiance_instant,terrestrial_radiation,terrestrial_radiation_instant,uv_index_clear_sky,uv_index,temperature_2m,dewpoint_2m,relativehumidity_2m,surface_pressure,windspeed_10m,winddirection_10m,cloudcover,cloudcover_low,cloudcover_mid,cloudcover_high,visibility,precipitation_probability,precipitation,rain,showers,snowfall,snow_depth,weathercode,cloud_radiation,pvsim,Lag_24,Lag_25,Lag_48,Lag_72
2023-04-25,11:00:00,144.06009315907656,193.61278251886037,46.823163418552994,43.176836581447006,12.676881351980011,1,691.0,685.2,519.4,515.0,171.6,170.1,752.5,752.5,933.5,925.6,4.95,4.95,20.6,9.5,49,999.8,19.1,164,12,0,40,0,24140.0,10,0.0,0.0,0.0,0.0,0.0,0,51500.0,1655.944238018084,0.0,0.0,0.0,0.0
2023-04-28,05:00:00,351.64715443574977,91.501277974843,72.71106468126077,17.288935318739238,6.684249599577455,1,177.0,225.8,81.6,104.1,95.4,121.7,350.5,350.5,314.5,401.3,0.85,0.85,3.0,-0.6,77,1011.2,8.6,183,19,55,0,0,24140.0,0,0.0,0.0,0.0,0.0,0.0,0,4684.5,154.66917449035057,29.82264652254314,29.82264652254314,29.82264652254314,29.82264652254314
2023-04-28,06:00:00,223.5278363036126,104.84278774809398,65.15550320599718,24.844496794002826,7.684353138852691,1,324.0,378.5,198.0,231.3,126.0,147.2,550.6,550.6,485.6,567.4,1.7,1.7,4.6,-0.0,72,1011.3,8.6,187,6,76,0,0,24140.0,0,0.0,0.0,0.0,0.0,0.0,0,5551.200000000001,453.9167392848506,33.47551587704421,33.47551587704421,33.47551587704421,33.47551587704421
2023-04-29,09:00:00,1799.4472399816873,153.6147845206776,47.25543279855947,42.74456720144053,10.687055082608586,1,586.0,610.2,397.9,414.3,188.1,195.9,610.5,610.5,879.6,916.0,4.35,4.35,8.8,3.0,67,1012.4,11.2,253,5,41,59,12,24140.0,0,0.0,0.0,0.0,0.0,0.0,0,24443.7,1346.2516389252737,61.66909576654956,61.66909576654956,61.66909576654956,61.66909576654956
2023-04-29,10:00:00,143.32433444130098,173.57632797823533,45.083184013062535,44.916815986937465,11.687151663558769,1,731.0,742.4,569.7,578.6,161.3,163.8,819.6,819.6,938.2,952.9,4.85,4.85,10.0,-0.6,48,1012.5,9.7,269,9,1,47,0,24140.0,0,0.0,0.0,0.0,0.0,0.0,0,57281.4,1750.6308176674945,301.3464182507593,301.3464182507593,301.3464182507593,301.3464182507593
2023-05-01,02:00:00,20.24336720144261,52.76827578540109,93.29155970515592,-3.2915597051559238,3.6908073389895377,0,0.0,0.0,0.0,0.0,0.0,0.0,0.0,0.0,0.0,0.0,0.0,0.0,0.7,-0.3,93,1011.5,10.4,206,7,43,0,0,24140.0,0,0.0,0.0,0.0,0.0,0.0,0,0.0,0.0,0.0,0.0,0.0,0.0
2023-05-01,03:00:00,23.707280109178257,65.69391380687922,86.72921946866782,3.2707805313321785,4.690893496538101,1,7.0,19.2,0.2,0.6,6.8,18.6,3.5,7.1,27.9,76.6,0.05,0.05,0.6,-0.4,93,1011.0,10.4,199,14,39,0,0,24140.0,0,0.0,0.0,0.0,0.0,0.0,0,36.6,7.949971362722305,22.71871571475931,22.71871571475931,22.71871571475931,22.71871571475931
2023-05-01,04:00:00,27.05433156541379,78.3329218594349,79.46837581206864,10.53162418793136,5.690979396629897,1,87.0,133.2,31.8,48.7,55.2,84.6,249.8,266.6,160.7,246.1,0.35,0.35,1.4,-0.1,90,1010.8,11.2,202,4,35,0,0,24140.0,0,0.0,0.0,0.0,0.0,0.0,0,3165.5,100.76294932405104,26.590758494515715,26.590758494515715,26.590758494515715,26.590758494515715
2023-05-01,05:00:00,275.0449909490462,91.07677800788856,71.86871648565949,18.13128351434051,6.691065039118314,1,210.0,264.4,109.5,137.9,100.5,126.5,443.4,443.4,333.0,419.3,0.9,0.9,3.1,0.5,83,1010.8,12.6,221,3,4,38,0,24140.0,0,0.0,0.0,0.0,0.0,0.0,0,13238.4,160.10532295400532,30.43456973570049,30.43456973570049,30.43456973570049,30.43456973570049
2023-05-01,06:00:00,590.3881625801632,104.41410764062309,64.3059072000288,25.6940927999712,7.691150423859138,1,349.0,405.3,221.2,256.9,127.8,148.4,592.9,592.9,503.1,584.3,1.75,1.75,5.1,1.0,75,1011.2,12.6,251,8,10,34,0,24140.0,0,0.0,0.0,0.0,0.0,0.0,0,23121.0,462.2939957533711,31.83184283157745,31.83184283157745,31.83184283157745,31.83184283157745
2023-05-01,07:00:00,1595.49031107927,118.91522699575056,57.20985777404773,32.79014222595227,8.69123555070587,1,482.0,533.7,340.0,376.4,142.0,157.2,695.3,695.3,659.3,729.9,2.7,2.7,7.4,-0.6,57,1011.3,10.8,262,0,28,29,0,24140.0,2,0.0,0.0,0.0,0.0,0.0,0,27100.8,902.7454256778012,41.353346419320864,41.353346419320864,41.353346419320864,41.353346419320864
2023-05-01,08:00:00,1434.283341884629,135.16050625548056,51.10897650715163,38.89102349284837,9.691320419513945,1,600.0,641.9,449.9,481.3,150.1,160.6,766.8,766.8,791.0,846.3,3.65,3.5,9.6,0.7,54,1011.4,10.4,263,2,20,46,0,24140.0,4,0.0,0.0,0.0,0.0,0.0,0,38504.0,1293.22750400931,416.3283741310069,416.3283741310069,416.3283741310069,416.3283741310069
2023-05-03,03:00:00,24.91480730683317,65.45393393080518,86.17673612627561,3.8232638737243865,4.694723712547714,1,10.0,26.2,0.7,1.9,9.3,24.3,10.2,21.4,34.2,89.4,0.05,0.05,2.4,0.9,90,1014.5,8.3,239,5,22,41,0,24140.0,0,0.0,0.0,0.0,0.0,0.0,0,148.2,15.42446005051963,24.13579488286948,24.13579488286948,24.13579488286948,24.13579488286948
2023-05-03,13:00:00,1709.7121484550264,231.70456532194427,52.70699686058765,37.29300313941236,14.695445621172269,1,661.0,622.8,504.0,474.9,157.0,147.9,783.9,783.9,865.9,815.9,4.2,4.2,12.1,-1.1,40,1017.2,16.9,272,18,4,42,0,24140.0,15,0.0,0.0,0.0,0.0,0.0,0,45590.4,1391.0464802158458,28.773378414177166,28.773378414177166,28.773378414177166,28.773378414177166
2023-05-03,14:00:00,786.2349670850314,247.25761192377263,59.26562609727881,30.734373902721185,15.695516356242114,1,576.0,525.3,429.3,391.5,146.7,133.8,766.0,766.0,754.7,688.2,3.4,3.4,10.7,-0.5,46,1017.3,15.8,269,7,0,0,0,24140.0,8,0.0,0.0,0.0,0.0,0.0,0,39150.0,1054.3228902185328,26.83458893730422,26.83458893730422,26.83458893730422,26.83458893730422
2023-05-03,15:00:00,200.24079339450296,261.25352703026766,66.59141431570959,23.40858568429041,16.695586826160223,1,451.0,393.3,313.1,273.0,137.9,120.3,687.3,687.3,613.4,535.0,2.45,2.45,10.5,0.7,51,1017.6,14.4,265,0,3,36,0,24140.0,0,0.0,0.0,0.0,0.0,0.0,0,26481.0,594.269968249714,26.90715247404528,26.90715247404528,26.90715247404528,26.90715247404528
2023-05-03,16:00:00,39.02198317922647,274.2963471847929,74.19645042721864,15.803549572781366,17.695657030812278,1,308.0,250.0,186.8,151.6,121.2,98.4,556.8,556.8,451.7,366.7,1.5,1.5,10.1,1.7,56,1017.9,13.7,260,0,2,49,4,24140.0,0,0.0,0.0,0.0,0.0,0.0,0,14856.8,137.34047267342496,25.73497659069352,25.73497659069352,25.73497659069352,25.73497659069352
2023-05-03,17:00:00,21.57320717415196,286.9327968372695,81.67714350556447,8.322856494435527,18.6957269700845,1,170.0,118.0,81.3,56.4,88.7,61.6,389.9,389.9,280.7,194.9,0.75,0.75,9.7,2.3,60,1018.0,12.2,260,0,0,99,90,24140.0,0,0.0,0.0,0.0,0.0,0.0,0,5640.0,62.89741921453889,22.43698437807709,22.43698437807709,22.43698437807709,22.43698437807709
2023-05-03,18:00:00,16.79172708225352,299.6144966868409,88.66909115152193,1.3309088484780685,19.695796643865584,1,57.0,15.9,17.7,4.9,39.3,10.9,162.9,56.5,112.0,31.2,0.2,0.2,7.7,2.2,68,1018.1,14.0,253,1,0,77,11,24140.0,0,0.0,0.0,0.0,0.0,0.0,0,490.00000000000006,0.0,0.0,0.0,0.0,0.0
2023-05-04,03:00:00,23.81147823329481,65.33393119976135,85.90776334625971,4.092236653740281,4.696411743327387,1,8.0,20.6,0.1,0.2,7.9,20.4,0.9,1.9,37.2,95.7,0.05,0.05,2.2,-6.2,54,1021.8,18.4,343,19,33,0,0,24140.0,68,0.0,0.0,0.0,0.0,0.0,0,13.4,10.135783441413157,24.91480730683317,24.91480730683317,24.91480730683317,24.91480730683317
2023-05-04,04:00:00,27.5005398152738,77.93241870804815,78.66325600920626,11.336743990793735,5.696478756111302,1,100.0,147.4,38.8,57.2,61.2,90.2,289.7,291.2,179.3,264.3,0.4,0.4,2.1,-6.3,54,1022.2,16.2,344,1,0,0,0,24140.0,45,0.0,0.0,0.0,0.0,0.0,0,5720.0,108.31945008099297,30.240307740460707,30.240307740460707,30.240307740460707,30.240307740460707
2023-05-04,05:00:00,235.31182429631997,90.6509115819572,71.06945905472057,18.930540945279432,6.696545502199979,1,231.0,287.5,126.4,157.3,104.6,130.2,485.2,485.2,350.7,436.4,1.0,1.0,2.6,-7.1,49,1022.5,14.8,346,0,0,0,0,24140.0,23,0.0,0.0,0.0,0.0,0.0,0,15730.000000000002,165.63505139817246,265.5003064837089,265.5003064837089,265.5003064837089,265.5003064837089
2023-05-04,06:00:00,772.0659353488039,103.9813147647556,63.49980669666984,26.50019330333016,7.696611981488422,1,373.0,430.9,243.4,281.3,129.6,149.7,630.7,630.7,519.7,600.4,1.9,1.9,3.0,-7.5,46,1023.0,13.7,336,0,0,0,0,24140.0,0,0.0,0.0,0.0,0.0,0.0,0,28130.0,472.0990859338012,816.0503242462747,816.0503242462747,816.0503242462747,816.0503242462747
2023-05-04,07:00:00,1361.254076261697,118.50525749581782,56.38390732331405,33.61609267668595,8.696678193870817,1,511.0,564.1,369.4,407.8,141.6,156.3,736.9,736.9,674.9,745.0,2.85,2.85,3.9,-6.4,47,1023.1,14.0,321,4,0,0,0,24140.0,0,0.0,0.0,0.0,0.0,0.0,0,40780.0,945.0683340449868,1462.3472104972443,1462.3472104972443,1462.3472104972443,1462.3472104972443
2023-05-04,08:00:00,1882.9259637499952,134.8245365336284,50.2538071888395,39.7461928111605,9.696744139242352,1,635.0,678.2,487.3,520.5,147.7,157.7,814.3,814.3,805.7,860.5,3.75,3.75,4.4,-6.5,45,1023.3,14.0,313,4,4,58,0,24140.0,0,0.0,0.0,0.0,0.0,0.0,0,49968.0,1378.8778032031864,1365.0160194030598,1365.0160194030598,1365.0160194030598,1365.0160194030598
2023-05-04,09:00:00,1017.66124159577,153.31535559558168,45.76061706160704,44.23938293839296,10.696809817499313,1,731.0,760.0,578.9,601.9,152.1,158.1,862.9,862.9,903.2,939.0,4.5,4.5,5.5,-7.7,38,1023.7,11.9,310,5,16,97,0,24140.0,0,0.0,0.0,0.0,0.0,0.0,0,50559.6,1689.399754355289,1811.0182603685464,1811.0182603685464,1811.0182603685464,1811.0182603685464
2023-05-04,15:00:00,223.28674386355044,261.4413341439999,66.35541026668115,23.64458973331885,16.697198271857047,1,394.0,344.1,245.5,214.4,148.5,129.7,534.6,534.6,618.1,539.8,2.45,2.4,6.3,-6.0,41,1023.5,16.9,269,17,61,0,0,24140.0,6,0.0,0.0,0.0,0.0,0.0,0,8361.6,517.1122998411013,200.24079339450296,200.24079339450296,200.24079339450296,200.24079339450296
2023-05-04,16:00:00,59.32217799917468,274.4765255261401,73.96146735706334,16.038532642936662,17.697262077438655,1,282.0,229.6,158.4,129.0,123.6,100.6,466.9,466.9,456.7,371.9,1.5,1.5,6.2,-6.1,41,1023.3,16.9,272,16,0,0,0,24140.0,4,0.0,0.0,0.0,0.0,0.0,0,12900.0,136.72911254198016,39.02198317922647,39.02198317922647,39.02198317922647,39.02198317922647
2023-05-05,02:00:00,19.33025888687258,52.36432868177146,92.17506895482852,-2.1750689548285327,3.697885381949186,0,0.0,0.0,0.0,0.0,0.0,0.0,0.0,0.0,0.0,0.0,0.0,0.0,2.0,-5.4,58,1025.0,14.0,358,15,63,1,0,24140.0,0,0.0,0.0,0.0,0.0,0.0,0,0.0,0.0,20.04986593136404,20.04986593136404,20.04986593136404,20.04986593136404
2023-05-05,03:00:00,23.955368322568763,65.21395604245053,85.6437492492518,4.356250750748209,4.697946234968526,1,15.0,38.0,2.2,5.6,12.8,32.4,29.9,64.5,40.2,101.9,0.05,0.05,1.9,-5.3,59,1025.0,14.4,354,8,14,0,0,24140.0,0,0.0,0.0,0.0,0.0,0.0,0,481.6,26.356014664253085,23.81147823329481,23.81147823329481,23.81147823329481,23.81147823329481
2023-05-05,04:00:00,25.3465679351444,77.79903002665792,78.40476209467461,11.595237905325396,5.698006819001459,1,98.0,142.8,36.1,52.6,61.9,90.2,262.0,262.0,185.3,270.1,0.4,0.4,2.0,-7.1,51,1025.3,14.8,350,9,0,0,0,24140.0,0,0.0,0.0,0.0,0.0,0.0,0,5260.0,109.36721495712716,27.5005398152738,27.5005398152738,27.5005398152738,27.5005398152738
2023-05-05,14:00:00,327.119217037952,247.63276505287985,58.78288645435424,31.21711354564576,15.698597845001109,1,585.0,534.2,437.8,399.8,147.2,134.4,771.4,771.4,763.6,697.3,3.4,3.4,5.6,-8.4,36,1027.4,13.0,346,12,62,6,0,24140.0,0,0.0,0.0,0.0,0.0,0.0,0,15192.4,1067.5481917503375,296.6170384142993,296.6170384142993,296.6170384142993,296.6170384142993
2023-05-05,16:00:00,107.07708106212304,274.6526651376749,73.72918503172491,16.270814968275086,17.698712813338567,1,289.0,236.0,164.9,134.6,124.1,101.4,480.4,480.4,461.7,377.0,1.5,1.5,5.7,-6.2,42,1027.5,9.4,341,8,75,21,0,24140.0,0,0.0,0.0,0.0,0.0,0.0,0,3365.0,134.1028262418495,59.32217799917468,59.32217799917468,59.32217799917468,59.32217799917468
2023-05-05,17:00:00,37.48488936718432,287.2666218003518,81.2015424804496,8.798457519550393,18.69876989233165,1,187.0,132.1,94.7,66.9,92.3,65.2,437.5,437.5,291.3,205.8,0.75,0.75,5.2,-6.1,44,1027.4,7.2,316,0,34,21,0,24140.0,0,0.0,0.0,0.0,0.0,0.0,0,4415.400000000001,69.3848440236972,32.100443144931305,32.100443144931305,32.100443144931305,32.100443144931305
2023-05-05,18:00:00,20.401049217023967,299.9186911182824,88.17689347441409,1.82310652558591,19.69882670109479,1,66.0,22.9,22.3,7.7,43.7,15.2,197.8,88.7,123.2,42.8,0.25,0.25,4.4,-6.0,47,1027.6,6.1,279,0,1,0,0,24140.0,0,0.0,0.0,0.0,0.0,0.0,0,762.3000000000001,3.893621908414685,20.874682062833333,20.874682062833333,20.874682062833333,20.874682062833333
2023-05-06,02:00:00,20.07040116827994,52.26286509383748,91.90825744008173,-1.908257440081719,3.699271433790534,0,0.0,0.0,0.0,0.0,0.0,0.0,0.0,0.0,0.0,0.0,0.0,0.0,-0.4,-3.6,79,1027.9,4.7,218,8,0,0,0,24140.0,0,0.0,0.0,0.0,0.0,0.0,0,0.0,0.0,19.33025888687258,19.33025888687258,19.33025888687258,19.33025888687258
2023-05-06,03:00:00,23.487554858833168,65.0940389167564,85.3847758640406,4.61522413595939,4.699325806748158,1,16.0,40.1,2.4,5.9,13.6,34.2,30.8,67.8,43.1,107.9,0.05,0.05,-0.8,-4.2,78,1028.1,4.3,227,2,0,0,0,24140.0,0,0.0,0.0,0.0,0.0,0.0,0,590.0,29.341685832459817,23.955368322568763,23.955368322568763,23.955368322568763,23.955368322568763
2023-05-06,04:00:00,25.052929464270854,77.66576060081445,78.15134366997948,11.848656330020512,5.699379908656935,1,108.0,155.8,43.2,62.3,64.8,93.5,303.7,303.7,191.2,275.9,0.4,0.4,0.1,-4.2,73,1028.1,3.2,236,0,0,0,0,24140.0,0,0.0,0.0,0.0,0.0,0.0,0,6230.0,113.83762135617204,25.3465679351444,25.3465679351444,25.3465679351444,25.3465679351444
2023-05-06,05:00:00,205.4927351662183,90.36677392153928,70.56168941573202,19.43831058426797,6.699433739437783,1,232.0,286.8,125.6,155.3,106.4,131.5,466.9,466.9,361.9,447.3,1.05,1.05,2.8,-3.8,62,1028.1,4.7,326,0,0,0,0,24140.0,0,0.0,0.0,0.0,0.0,0.0,0,15530.000000000002,167.49875820680947,192.0814522837753,192.0814522837753,192.0814522837753,192.0814522837753
2023-05-06,06:00:00,451.7756942282919,103.69108355659964,62.98771186405584,27.01228813594416,7.699487299013636,1,370.0,426.1,238.9,275.1,131.1,151.0,605.9,605.9,530.2,610.6,1.9,1.9,4.6,-5.2,49,1028.2,9.7,5,0,0,0,0,24140.0,0,0.0,0.0,0.0,0.0,0.0,0,27510.000000000004,448.7380050953003,152.02958950169548,152.02958950169548,152.02958950169548,152.02958950169548
2023-05-06,07:00:00,1651.0675132580957,118.2277330718814,55.85867138849255,34.14132861150745,8.699540587306638,1,509.0,560.9,365.6,402.9,143.4,158.1,718.0,718.0,684.7,754.6,2.9,2.9,6.2,-4.3,47,1028.6,10.1,0,1,35,41,0,24140.0,0,0.0,0.0,0.0,0.0,0.0,0,26188.5,900.5498263264086,253.0920697734381,253.0920697734381,253.0920697734381,253.0920697734381
2023-05-06,08:00:00,1881.6656781316344,134.5928894255159,49.70878940377515,40.29121059622485,9.699593604239492,1,627.0,669.0,476.0,507.9,151.0,161.1,785.5,785.5,814.9,869.5,3.8,3.8,6.6,-4.8,44,1029.0,11.2,354,11,27,37,0,24140.0,0,0.0,0.0,0.0,0.0,0.0,0,37076.7,1307.5015807278885,484.5497287760501,484.5497287760501,484.5497287760501,484.5497287760501
2023-05-06,09:00:00,2399.0674708146257,153.1797448644265,45.19606066535868,44.80393933464132,10.699646349737426,1,715.0,742.9,557.1,578.8,157.9,164.1,821.5,821.5,912.0,947.6,4.55,4.55,7.6,-4.2,43,1029.3,11.9,346,11,0,13,0,24140.0,0,0.0,0.0,0.0,0.0,0.0,0,57879.99999999999,1601.3221654713564,214.4985387747161,214.4985387747161,214.4985387747161,214.4985387747161
2023-05-06,10:00:00,2421.443495974873,173.6616008456098,43.00214451951304,46.99785548048696,11.699698823723368,1,776.0,787.4,615.1,624.1,160.9,163.3,853.4,853.4,969.3,983.4,5.0,5.0,7.8,-5.0,40,1029.4,12.6,344,12,3,1,0,24140.0,0,0.0,0.0,0.0,0.0,0.0,0,60537.7,1792.016590647301,271.7220580523012,271.7220580523012,271.7220580523012,271.7220580523012
2023-05-06,11:00:00,1890.408650717049,194.68406060423865,43.54714425200695,46.45285574799305,12.69975102612231,1,793.0,786.4,631.8,626.5,161.2,159.9,864.4,864.4,982.9,974.7,5.15,5.15,8.3,-5.9,36,1029.0,11.9,344,5,0,20,0,24140.0,0,0.0,0.0,0.0,0.0,0.0,0,62650.0,1818.8913941071064,699.1116751523255,699.1116751523255,699.1116751523255,699.1116751523255
2023-05-06,12:00:00,1360.6975090135554,214.5291380805716,46.71863816878538,43.28136183121462,13.699802956860765,1,767.0,742.8,609.3,590.1,157.7,152.7,860.8,860.8,952.0,922.0,4.9,4.9,8.9,-5.4,36,1028.4,12.2,347,4,18,83,0,24140.0,0,0.0,0.0,0.0,0.0,0.0,0,48388.2,1702.469619646338,430.4636668643756,430.4636668643756,430.4636668643756,430.4636668643756
2023-05-06,13:00:00,1277.0204843359063,232.2318025765186,51.95075891973397,38.04924108026603,14.699854615864902,1,698.0,658.5,545.5,514.6,152.5,143.9,834.9,834.9,878.6,828.9,4.3,4.3,8.5,-5.7,36,1028.2,11.5,348,3,0,0,0,24140.0,0,0.0,0.0,0.0,0.0,0.0,0,51460.0,1440.4107152568974,1256.897722001893,1256.897722001893,1256.897722001893,1256.897722001893
2023-05-06,14:00:00,961.4241903107428,247.814389942734,58.54608559531568,31.453914404684323,15.69990600306006,1,597.0,545.6,450.6,411.8,146.4,133.8,789.1,789.1,767.9,701.8,3.45,3.45,8.6,-4.9,38,1028.1,11.5,337,2,0,0,0,24140.0,0,0.0,0.0,0.0,0.0,0.0,0,41180.0,1059.4712314601604,327.119217037952,327.119217037952,327.119217037952,327.119217037952
2023-05-06,15:00:00,207.70021757802652,261.80488602666054,65.89183961238902,24.10816038761097,16.699957118375025,1,468.0,409.8,329.2,288.3,138.8,121.5,705.7,705.7,627.3,549.3,2.5,2.5,8.5,-4.7,39,1027.9,11.5,330,2,0,0,0,24140.0,0,0.0,0.0,0.0,0.0,0.0,0,28830.0,592.031897514948,259.1978830611003,259.1978830611003,259.1978830611003,259.1978830611003
2023-05-06,16:00:00,57.09742980147698,274.8246953656271,73.49966396038728,16.500336039612716,17.700007961737757,1,327.0,267.7,203.6,166.7,123.4,101.0,586.9,586.9,466.5,382.0,1.55,1.55,8.2,-3.3,44,1027.9,11.2,319,0,0,0,0,24140.0,0,0.0,0.0,0.0,0.0,0.0,0,16670.0,128.489583411245,107.07708106212304,107.07708106212304,107.07708106212304,107.07708106212304
2023-05-06,17:00:00,36.97095107362868,287.427390486852,80.96791325715091,9.03208674284908,18.7000585330754,1,186.0,132.5,93.1,66.3,92.9,66.2,422.1,422.1,296.5,211.1,0.8,0.8,7.4,-4.7,42,1027.8,10.4,309,0,0,0,0,24140.0,0,0.0,0.0,0.0,0.0,0.0,0,6630.0,70.25394748504942,37.48488936718432,37.48488936718432,37.48488936718432,37.48488936718432
2023-05-06,18:00:00,21.6754545669542,300.0646859787556,87.93521660125319,2.064783398746814,19.700108832318517,1,67.0,25.2,22.0,8.3,45.0,16.9,192.3,95.2,128.8,48.5,0.25,0.25,6.2,-3.5,50,1027.8,7.6,312,1,0,0,0,24140.0,0,0.0,0.0,0.0,0.0,0.0,0,830.0000000000001,5.860264117849257,20.401049217023967,20.401049217023967,20.401049217023967,20.401049217023967
2023-05-07,05:00:00,235.91642288365128,90.22477870021712,70.31556412941922,19.68443587058079,6.70064414696426,1,230.0,283.4,122.7,151.2,107.3,132.2,449.1,449.1,367.3,452.6,1.1,1.05,3.6,-4.2,57,1029.1,4.7,163,3,0,0,0,24140.0,0,0.0,0.0,0.0,0.0,0.0,0,15119.999999999998,168.30521225793277,205.4927351662183,205.4927351662183,205.4927351662183,205.4927351662183
2023-05-07,06:00:00,599.975870606947,103.5456136424168,62.73949772492554,27.26050227507445,7.70069117576024,1,377.0,433.5,245.4,282.2,131.6,151.3,616.4,616.4,535.3,615.5,1.95,1.95,6.0,-6.6,40,1029.0,6.1,160,0,0,0,0,24140.0,0,0.0,0.0,0.0,0.0,0.0,0,28220.0,443.6896464955431,451.7756942282919,451.7756942282919,451.7756942282919,451.7756942282919
2023-05-07,07:00:00,1477.4624746991287,118.08785710117635,55.60392307003002,34.39607692996998,8.700737931594972,1,510.0,561.6,365.8,402.7,144.2,158.8,713.1,713.1,689.5,759.2,2.95,2.95,7.2,-6.2,38,1029.2,5.0,202,0,0,0,0,24140.0,0,0.0,0.0,0.0,0.0,0.0,0,40270.0,876.2287249166545,1651.0675132580957,1651.0675132580957,1651.0675132580957,1651.0675132580957
2023-05-07,08:00:00,1801.499887870723,134.47486561277347,49.44407177064058,40.55592822935942,9.700784414405565,1,624.0,665.5,471.1,502.4,152.9,163.0,772.9,772.9,819.4,873.9,3.9,3.9,9.6,-5.1,35,1029.6,5.0,245,0,0,0,0,24140.0,0,0.0,0.0,0.0,0.0,0.0,0,50240.0,1242.2579188872844,1881.6656781316344,1881.6656781316344,1881.6656781316344,1881.6656781316344
2023-05-07,09:00:00,1970.2102418724053,153.10852213358078,44.92129541838226,45.07870458161774,10.700830624131148,1,711.0,738.6,550.5,571.8,160.5,166.7,807.6,807.6,916.2,951.7,4.65,4.65,10.6,-5.0,33,1029.5,5.8,307,1,5,0,0,24140.0,0,0.0,0.0,0.0,0.0,0.0,0,54320.99999999999,1516.2601665411453,2399.0674708146257,2399.0674708146257,2399.0674708146257,2399.0674708146257
2023-05-07,10:00:00,761.172530872151,173.66240755178677,42.72299125525712,47.277008744742886,11.700876560710048,1,766.0,777.1,600.6,609.3,165.4,167.8,829.4,829.4,973.3,987.5,5.1,5.1,10.6,-4.3,35,1029.6,12.2,345,4,31,0,0,24140.0,0,0.0,0.0,0.0,0.0,0.0,0,42041.7,1724.153791869833,2421.443495974873,2421.443495974873,2421.443495974873,2421.443495974873
2023-05-07,11:00:00,2100.956173943401,194.76305469941445,43.273521739165055,46.72647826083495,12.700922224081204,1,784.0,777.5,618.7,613.6,165.3,163.9,842.7,842.7,986.9,978.7,5.25,5.25,10.4,-4.5,35,1029.4,13.7,341,10,19,6,0,24140.0,0,0.0,0.0,0.0,0.0,0.0,0,49701.6,1772.9238212353089,1890.408650717049,1890.408650717049,1890.408650717049,1890.408650717049
2023-05-07,12:00:00,1622.4763152914568,214.666697465113,46.45840736194312,43.54159263805688,13.70096761418605,1,764.0,740.0,604.2,585.3,159.8,154.8,849.6,849.6,956.0,926.0,4.95,4.95,10.7,-4.1,35,1029.3,13.7,331,7,14,0,0,24140.0,0,0.0,0.0,0.0,0.0,0.0,0,50335.8,1672.8331416974906,1360.6975090135554,1360.6975090135554,1360.6975090135554,1360.6975090135554
2023-05-07,13:00:00,1270.9398066599665,232.39978420841143,51.70549338051305,38.29450661948695,14.701012730963786,1,700.0,660.6,546.8,516.0,153.2,144.6,832.6,832.6,882.7,833.0,4.35,4.35,10.7,-4.2,35,1029.0,13.0,331,2,0,0,0,24140.0,0,0.0,0.0,0.0,0.0,0.0,0,51600.0,1420.7752710307543,1277.0204843359063,1277.0204843359063,1277.0204843359063,1277.0204843359063
2023-05-07,14:00:00,897.7609947021349,247.9919172419573,58.31240345106335,31.68759654893665,15.70105757435562,1,596.0,545.0,448.7,410.3,147.3,134.7,781.0,781.0,772.2,706.1,3.55,3.55,10.2,-5.0,34,1028.9,13.3,325,2,0,0,0,24140.0,0,0.0,0.0,0.0,0.0,0.0,0,41030.0,1040.1380856331425,961.4241903107428,961.4241903107428,961.4241903107428,961.4241903107428
2023-05-07,15:00:00,202.8231627794381,261.980463652134,65.66438526952379,24.335614730476216,16.701102144304365,1,471.0,413.0,331.8,290.9,139.2,122.0,705.9,705.9,631.8,554.0,2.55,2.55,10.2,-4.2,36,1028.7,12.2,326,1,0,0,0,24140.0,0,0.0,0.0,0.0,0.0,0.0,0,29090.0,581.856581719063,207.70021757802652,207.70021757802652,207.70021757802652,207.70021757802652
2023-05-07,16:00:00,65.7707866987434,274.99254778880794,73.27296539013898,16.72703460986102,17.701146440752453,1,329.0,270.1,205.0,168.3,124.0,101.8,584.6,584.6,471.3,386.9,1.6,1.6,9.9,-4.2,37,1028.7,10.1,326,15,0,0,1,24140.0,0,0.0,0.0,0.0,0.0,0.0,0,16830.0,123.6099266966201,57.09742980147698,57.09742980147698,57.09742980147698,57.09742980147698
2023-05-08,05:00:00,263.8931698171974,90.08290301569892,70.07471255572969,19.925287444270307,6.7016973817936405,1,221.0,271.5,112.6,138.3,108.4,133.1,406.1,406.1,372.6,457.7,1.15,1.1,6.3,-1.9,56,1028.9,8.3,215,9,0,60,0,24140.0,0,0.0,0.0,0.0,0.0,0.0,0,13830.000000000002,168.22746566165264,235.91642288365128,235.91642288365128,235.91642288365128,235.91642288365128
2023-05-08,07:00:00,1170.424070977341,117.94731574620494,55.35452721497759,34.64547278502241,8.70177803096349,1,505.0,555.6,358.9,394.8,146.1,160.8,694.7,694.7,694.1,763.7,3.05,3.05,9.1,-1.4,48,1029.2,8.3,257,13,0,13,0,24140.0,0,0.0,0.0,0.0,0.0,0.0,0,39480.0,855.3403414387819,1477.4624746991287,1477.4624746991287,1477.4624746991287,1477.4624746991287
2023-05-08,08:00:00,2073.7560307570334,134.35543164495147,49.18466066643071,40.81533933356929,9.701817944063514,1,621.0,662.0,466.1,496.8,154.9,165.2,760.1,760.1,823.8,878.1,4.0,4.0,10.9,-4.0,35,1029.3,8.6,260,11,0,0,1,24140.0,0,0.0,0.0,0.0,0.0,0.0,0,49680.0,1230.684145153329,1801.499887870723,1801.499887870723,1801.499887870723,1801.499887870723
2023-05-08,09:00:00,1120.0947136305192,153.03502914762015,44.65165568827381,45.34834431172619,10.701857582778498,1,709.0,736.3,546.3,567.3,162.7,169.0,797.5,797.5,920.3,955.8,4.75,4.75,11.3,-4.8,32,1029.3,9.4,268,6,0,0,0,24140.0,0,0.0,0.0,0.0,0.0,0.0,0,56729.99999999999,1515.5002729410016,1970.2102418724053,1970.2102418724053,1970.2102418724053,1970.2102418724053
2023-05-08,10:00:00,975.4124975600008,173.66021854188082,42.44863101462629,47.55136898537371,11.701896947060472,1,763.0,774.0,594.8,603.4,168.2,170.6,817.7,817.7,977.3,991.4,5.25,5.25,12.2,-5.3,29,1029.0,10.1,270,10,0,9,0,24140.0,0,0.0,0.0,0.0,0.0,0.0,0,60340.0,1674.826209941124,761.172530872151,761.172530872151,761.172530872151,761.172530872151
2023-05-08,11:00:00,1608.4645531922204,194.8385708111256,43.00426493025132,46.99573506974868,12.70193603686354,1,777.0,770.6,607.7,602.7,169.3,167.9,824.1,824.1,990.8,982.6,5.35,5.35,13.2,-5.0,28,1028.6,10.8,272,6,1,0,0,24140.0,0,0.0,0.0,0.0,0.0,0.0,0,59667.3,1697.9816625277704,2100.956173943401,2100.956173943401,2100.956173943401,2100.956173943401
2023-05-08,12:00:00,2028.3602347925407,214.80043718937864,46.20209320852111,43.79790679147889,13.701974852143364,1,746.0,722.7,579.5,561.4,166.5,161.3,811.0,811.0,959.9,929.9,5.1,5.1,13.6,-3.7,30,1028.0,13.0,273,6,0,0,0,24140.0,0,0.0,0.0,0.0,0.0,0.0,0,56140.0,1586.6563266012986,1622.4763152914568,1622.4763152914568,1622.4763152914568,1622.4763152914568
2023-05-08,13:00:00,1013.4368697025432,232.56370449610017,51.46373070014983,38.53626929985017,14.702013392854807,1,683.0,644.8,524.5,495.2,158.5,149.6,794.7,794.7,886.7,837.1,4.5,4.5,13.5,-3.3,31,1027.8,14.4,280,2,0,0,0,24140.0,0,0.0,0.0,0.0,0.0,0.0,0,49520.0,1353.710761019327,1270.9398066599665,1270.9398066599665,1270.9398066599665,1270.9398066599665
2023-05-08,14:00:00,933.10661666117,248.16525231997295,58.08189533241704,31.918104667582966,15.702051658953316,1,586.0,536.2,435.9,398.9,150.1,137.3,754.4,754.4,776.3,710.4,3.65,3.65,13.3,-4.0,30,1027.6,13.3,289,1,0,0,0,24140.0,0,0.0,0.0,0.0,0.0,0.0,0,39890.0,992.6580342453852,897.7609947021349,897.7609947021349,897.7609947021349,897.7609947021349
2023-05-08,15:00:00,190.02587303969088,262.1518013279418,65.43989429038622,24.560105709613783,16.702089650396907,1,466.0,409.1,325.7,285.9,140.3,123.2,687.7,687.7,636.3,558.5,2.65,2.65,13.0,-3.7,31,1027.3,11.2,303,19,0,0,2,24140.0,0,0.0,0.0,0.0,0.0,0.0,0,28590.0,557.5159451357063,202.8231627794381,202.8231627794381,202.8231627794381,202.8231627794381
2023-05-08,18:00:00,20.77275085272477,300.3442644341647,87.46107797299312,2.5389220270068824,19.70220197636545,1,70.0,29.9,22.3,9.5,47.7,20.4,188.6,109.5,139.6,59.6,0.3,0.3,10.0,-2.7,41,1027.0,3.6,309,15,0,0,51,24140.0,0,0.0,0.0,0.0,0.0,0.0,0,950.0,9.690828520924937,20.93443400843478,20.93443400843478,20.93443400843478,20.93443400843478
2023-05-09,03:00:00,23.617063954994084,64.73498070868654,84.63888865560604,5.361111344393957,4.702524110493016,1,22.0,53.6,4.5,10.9,17.5,42.7,53.9,116.8,51.4,125.3,0.1,0.1,3.1,0.5,83,1025.7,9.7,191,6,0,0,10,24140.0,0,0.0,0.0,0.0,0.0,0.0,0,1090.0,39.71047012515923,23.990900141561763,23.990900141561763,23.990900141561763,23.990900141561763
2023-05-09,04:00:00,26.565431916993088,77.26710385924723,77.4223112624004,12.577688737599605,5.702558527739435,1,116.0,162.9,46.7,65.6,69.3,97.2,301.6,301.6,208.2,292.3,0.5,0.5,4.0,0.9,80,1025.4,8.6,193,2,0,0,0,24140.0,0,0.0,0.0,0.0,0.0,0.0,0,6559.999999999999,117.2278465213615,28.36490326898033,28.36490326898033,28.36490326898033,28.36490326898033
2023-05-09,05:00:00,244.60851018112143,89.94120370985337,69.83920715288232,20.16079284711768,6.702592669787081,1,243.0,297.6,133.6,163.6,109.4,134.0,474.8,474.8,377.8,462.7,1.15,1.15,6.3,1.0,69,1025.4,9.4,202,0,0,0,0,24140.0,0,0.0,0.0,0.0,0.0,0.0,0,16360.0,168.59835172286574,263.8931698171974,263.8931698171974,263.8931698171974,263.8931698171974
2023-05-09,14:00:00,910.9957172703442,248.33430286076248,57.8546171687511,32.1453828312489,15.702887558850133,1,562.0,514.6,404.8,370.7,157.2,143.9,696.5,696.5,780.4,714.6,3.7,3.35,14.8,-0.9,34,1022.6,14.0,284,17,3,10,3,24140.0,0,0.0,0.0,0.0,0.0,0.0,0,35957.9,929.2745989220168,933.10661666117,933.10661666117,933.10661666117,933.10661666117
2023-05-12,02:00:00,20.795272052287007,51.65206336257842,90.41703776126636,-0.4170377612663586,3.7042825320099513,1,0.0,0.0,0.0,0.0,0.0,0.0,0.0,0.0,0.0,0.0,0.0,0.0,7.7,3.0,72,1024.1,5.4,196,9,0,0,0,24140.0,0,0.0,0.0,0.0,0.0,0.0,0,0.0,0.0,20.70176020357162,20.70176020357162,20.70176020357162,20.70176020357162
2023-05-12,07:00:00,1628.0103711899085,117.37983603431522,54.41196319844909,35.588036801550906,8.704353919133883,1,510.0,559.4,360.2,395.1,149.8,164.4,678.8,678.8,711.5,780.5,3.25,3.25,18.3,2.1,34,1024.5,7.6,204,12,0,0,1,24140.0,0,0.0,0.0,0.0,0.0,0.0,0,39510.0,784.274310879849,1638.240210589844,1638.240210589844,1638.240210589844,1638.240210589844
2023-05-12,08:00:00,1975.212074782668,133.8646612114602,48.20168484713638,41.79831515286362,9.70436736851989,1,620.0,659.8,458.9,488.3,161.1,171.4,732.6,732.6,840.0,893.9,4.2,4.2,19.8,3.5,34,1024.6,9.0,211,12,0,0,6,24140.0,0,0.0,0.0,0.0,0.0,0.0,0,48830.0,1128.2393715919031,1653.219735445448,1653.219735445448,1653.219735445448,1653.219735445448
2023-05-12,14:00:00,769.5551467822062,248.8148612249223,57.19273114648965,32.80726885351035,15.704442269738122,1,583.0,534.8,427.4,392.1,155.6,142.8,723.4,723.4,792.2,726.8,3.85,3.8,20.2,3.8,34,1023.9,15.1,270,5,0,0,0,24140.0,0,0.0,0.0,0.0,0.0,0.0,0,39210.0,912.6311639901884,736.2780858874985,736.2780858874985,736.2780858874985,736.2780858874985
2023-05-12,15:00:00,182.02250995667225,262.7932311774554,64.57273347913014,25.427266520869868,16.70445378757596,1,465.0,410.1,320.9,283.0,144.1,127.1,658.8,658.8,653.2,576.0,2.8,2.8,20.0,4.0,35,1023.9,15.1,276,3,0,0,0,24140.0,0,0.0,0.0,0.0,0.0,0.0,0,28300.0,507.29804426276576,233.4963155234287,233.4963155234287,233.4963155234287,233.4963155234287
2023-05-12,16:00:00,58.33412443831004,275.7669126442838,72.18400416277439,17.815995837225614,17.704465029546608,1,334.0,277.5,206.5,171.5,127.5,106.0,560.2,560.2,494.1,410.5,1.8,1.8,19.3,6.4,43,1023.7,13.3,267,4,0,0,0,24140.0,0,0.0,0.0,0.0,0.0,0.0,0,17150.0,122.8916575689061,70.68708426138053,70.68708426138053,70.68708426138053,70.68708426138053
2023-05-12,17:00:00,40.12049324209794,288.30268469956434,79.62883181608487,10.371168183915136,18.704475995668144,1,199.0,147.5,100.0,74.1,99.0,73.4,411.3,411.3,326.0,241.7,0.95,0.95,18.2,7.0,48,1023.7,10.4,262,12,0,0,0,24140.0,0,0.0,0.0,0.0,0.0,0.0,0,7409.999999999999,75.43599254039475,43.37421875193725,43.37421875193725,43.37421875193725,43.37421875193725
2023-05-12,18:00:00,20.18353766247935,300.8527726183865,86.55176653008228,3.4482334699177195,19.70448668596172,1,83.0,41.9,28.6,14.4,54.4,27.5,226.9,165.5,160.2,80.9,0.35,0.35,16.8,4.8,45,1023.9,8.3,252,18,0,0,0,24140.0,0,0.0,0.0,0.0,0.0,0.0,0,1440.0,17.00794250486609,18.61451658282863,18.61451658282863,18.61451658282863,18.61451658282863
2023-05-13,02:00:00,20.283766503384157,51.55023949480754,90.18747617640004,-0.1874761764000575,3.7045622819671866,1,0.0,0.0,0.0,0.0,0.0,0.0,0.0,0.0,0.0,0.0,0.0,0.0,8.0,3.6,74,1024.3,3.6,207,0,0,0,0,24140.0,0,0.0,0.0,0.0,0.0,0.0,0,0.0,0.0,20.795272052287007,20.795272052287007,20.795272052287007,20.795272052287007
2023-05-13,03:00:00,22.72292205609852,64.25936522106201,83.71954194155086,6.280458058449136,4.704570490799271,1,31.0,65.3,7.1,14.9,23.9,50.4,78.0,136.5,69.6,146.7,0.1,0.1,7.2,2.8,74,1024.4,3.6,208,0,0,0,0,24140.0,0,0.0,0.0,0.0,0.0,0.0,0,1490.0,49.39724717856295,22.89642824786024,22.89642824786024,22.89642824786024,22.89642824786024
2023-05-13,04:00:00,25.19833024897544,76.74011414193268,76.52579678920424,13.474203210795755,5.704578424036447,1,127.0,173.3,52.3,71.3,74.7,102.0,306.0,306.0,228.9,312.4,0.55,0.55,8.2,3.0,70,1024.7,5.8,219,0,0,0,0,24140.0,0,0.0,0.0,0.0,0.0,0.0,0,7130.0,121.10199323351227,25.581513488623404,25.581513488623404,25.581513488623404,25.581513488623404
2023-05-13,05:00:00,221.3120564140688,89.37741689096549,68.95200736867909,21.04799263132091,6.704586081704641,1,253.0,306.7,140.0,169.7,113.0,137.0,472.3,472.3,397.3,481.5,1.3,1.3,10.9,3.2,59,1024.8,5.8,245,0,0,0,0,24140.0,0,0.0,0.0,0.0,0.0,0.0,0,16970.0,168.6585719819878,222.3854357025904,222.3854357025904,222.3854357025904,222.3854357025904
2023-05-13,06:00:00,902.3043576554862,102.67183184310734,61.36449293837445,28.635507061625542,7.704593463831911,1,390.0,444.9,254.3,290.1,135.7,154.7,605.3,605.3,563.2,642.5,2.2,2.2,13.2,2.7,49,1025.0,6.1,250,14,0,0,0,24140.0,0,0.0,0.0,0.0,0.0,0.0,0,29010.000000000004,402.0449338349391,759.3947597615397,759.3947597615397,759.3947597615397,759.3947597615397
2023-05-13,09:00:00,1969.3028146764043,152.63416900783682,43.38329231074814,46.61670768925186,10.704613957253368,1,715.0,741.7,545.8,566.1,169.2,175.5,778.8,778.8,939.3,974.3,5.0,5.0,19.7,2.5,32,1025.1,10.8,296,3,0,0,0,24140.0,0,0.0,0.0,0.0,0.0,0.0,0,56610.0,1408.6730853097797,1822.2347737600096,1822.2347737600096,1822.2347737600096,1822.2347737600096
2023-05-13,10:00:00,1381.782205609724,173.60312943397528,41.15165054963221,48.84834945036779,11.70462023750587,1,768.0,778.7,592.4,600.6,175.6,178.1,797.6,797.6,995.6,1009.4,5.5,5.5,20.0,2.3,31,1025.3,12.6,287,0,0,0,0,24140.0,0,0.0,0.0,0.0,0.0,0.0,0,60060.0,1569.4037620913048,1795.63379613548,1795.63379613548,1795.63379613548,1795.63379613548
2023-05-13,11:00:00,2269.7355922012243,195.16113612653777,41.72612015085182,48.27387984914818,12.704626242365215,1,781.0,774.7,603.9,599.0,177.1,175.7,802.4,802.4,1008.8,1000.6,5.65,5.65,20.2,2.0,30,1025.3,13.3,279,0,0,0,0,24140.0,0,0.0,0.0,0.0,0.0,0.0,0,59900.0,1595.2539253112052,2217.582944316995,2217.582944316995,2217.582944316995,2217.582944316995
2023-05-13,12:00:00,2015.2610920717468,215.4082458674617,44.98157112720027,45.01842887279973,13.704631971862913,1,754.0,731.1,581.4,563.8,172.6,167.3,796.8,796.8,978.0,948.3,5.35,5.35,20.0,0.9,28,1024.9,13.3,279,0,0,0,0,24140.0,0,0.0,0.0,0.0,0.0,0.0,0,56379.99999999999,1489.972831725501,1956.6133356594207,1956.6133356594207,1956.6133356594207,1956.6133356594207
2023-05-13,13:00:00,1215.3007072336484,233.3188300352712,50.309512304513,39.690487695487,14.704637426031155,1,688.0,650.6,523.6,495.1,164.4,155.5,775.0,775.0,905.4,856.2,4.75,4.75,20.5,1.4,28,1024.7,13.3,274,0,0,0,0,24140.0,0,0.0,0.0,0.0,0.0,0.0,0,49510.0,1251.7836218015202,1471.9066601016225,1471.9066601016225,1471.9066601016225,1471.9066601016225
2023-05-13,14:00:00,873.3693332684381,248.96590077241524,56.97894472166818,33.02105527833182,15.704642604902295,1,592.0,543.4,437.5,401.6,154.5,141.9,736.6,736.6,796.0,730.7,3.85,3.85,19.4,0.9,29,1024.4,12.6,268,0,0,0,0,24140.0,0,0.0,0.0,0.0,0.0,0.0,0,40160.0,918.464371072075,769.5551467822062,769.5551467822062,769.5551467822062,769.5551467822062
2023-05-13,15:00:00,186.53922424415995,262.94225017901,64.36394268266508,25.636057317334924,16.70464750851082,1,470.0,414.9,325.8,287.6,144.2,127.3,664.5,664.5,657.2,580.1,2.85,2.85,19.4,1.4,30,1024.1,11.2,262,0,0,0,0,24140.0,0,0.0,0.0,0.0,0.0,0.0,0,28760.000000000004,505.3459206979731,182.02250995667225,182.02250995667225,182.02250995667225,182.02250995667225
2023-05-13,16:00:00,55.45142450727424,275.90839469795355,71.97556681592789,18.0244331840721,17.704652136890413,1,339.0,282.3,211.0,175.7,128.0,106.6,567.3,567.3,498.4,415.0,1.85,1.85,19.1,2.9,34,1023.7,10.1,267,0,0,0,0,24140.0,0,0.0,0.0,0.0,0.0,0.0,0,17570.0,123.9466133040319,58.33412443831004,58.33412443831004,58.33412443831004,58.33412443831004
2023-05-13,17:00:00,40.14714626517092,288.43324814425506,79.41675082203278,10.583249177967216,18.70465649007541,1,204.0,152.1,103.9,77.5,100.1,74.6,421.2,421.2,330.6,246.4,0.95,0.95,17.9,2.6,36,1023.6,9.4,255,0,0,0,0,24140.0,0,0.0,0.0,0.0,0.0,0.0,0,7750.0,77.17906378423656,40.12049324209794,40.12049324209794,40.12049324209794,40.12049324209794
2023-05-13,18:00:00,20.167330968822903,300.96916790868033,86.33299930483018,3.6670006951698193,19.704660568102767,1,87.0,45.3,30.8,16.0,56.2,29.3,241.3,184.0,165.2,86.0,0.35,0.35,16.3,4.0,44,1023.6,8.3,238,5,0,0,0,24140.0,0,0.0,0.0,0.0,0.0,0.0,0,1600.0,19.144396734319837,20.18353766247935,20.18353766247935,20.18353766247935,20.18353766247935
2023-05-14,02:00:00,19.86259121291713,51.4485135862685,89.96352341756376,0.0364765824362299,3.7046832919868895,1,0.0,0.0,0.0,0.0,0.0,0.0,0.0,0.0,0.0,0.9,0.0,0.0,7.6,2.1,68,1023.6,8.3,225,0,0,0,0,24140.0,0,0.0,0.0,0.0,0.0,0.0,0,0.0,0.0,20.283766503384157,20.283766503384157,20.283766503384157,20.283766503384157
2023-05-14,03:00:00,22.780867134798623,64.14132909996412,83.50358669439404,6.496413305605949,4.70468489529244,1,34.0,69.0,8.2,16.6,25.8,52.4,88.0,146.3,74.8,151.7,0.15,0.15,7.3,1.7,68,1023.2,7.6,222,0,0,0,0,24140.0,0,0.0,0.0,0.0,0.0,0.0,0,1660.0000000000002,52.20958774877536,22.72292205609852,22.72292205609852,22.72292205609852,22.72292205609852
2023-05-14,04:00:00,25.09569332605201,76.60955436444537,76.31559618512777,13.684403814872224,5.704686223830667,1,130.0,176.4,53.9,73.2,76.1,103.2,309.2,309.2,233.7,317.1,0.6,0.6,8.4,1.3,61,1023.2,7.9,232,0,0,0,0,24140.0,0,0.0,0.0,0.0,0.0,0.0,0,7320.0,122.77116775185922,25.19833024897544,25.19833024897544,25.19833024897544,25.19833024897544
2023-05-14,05:00:00,213.6312412991784,89.23756125516326,68.7442299272791,21.255770072720907,6.704687277643897,1,256.0,309.6,142.1,171.9,113.9,137.7,474.1,474.1,401.7,485.8,1.3,1.3,11.3,1.0,49,1023.3,7.6,244,0,0,0,0,24140.0,0,0.0,0.0,0.0,0.0,0.0,0,17190.0,169.53266585484198,221.3120564140688,221.3120564140688,221.3120564140688,221.3120564140688
2023-05-14,06:00:00,741.5176139293924,102.5267197605869,61.15499531026915,28.84500468973085,7.704688056776524,1,391.0,445.5,254.6,290.0,136.4,155.5,601.1,601.1,567.4,646.5,2.25,2.25,13.8,1.1,42,1023.4,7.6,255,0,0,0,0,24140.0,0,0.0,0.0,0.0,0.0,0.0,0,29000.0,396.9771449032797,902.3043576554862,902.3043576554862,902.3043576554862,902.3043576554862
2023-05-14,07:00:00,1672.1223596797015,117.09397240146332,53.97466843143864,36.02533156856136,8.704688561272663,1,517.0,566.4,366.4,401.4,150.6,165.0,682.4,682.4,719.4,788.1,3.3,3.3,17.1,2.3,37,1023.3,6.8,265,0,0,0,0,24140.0,0,0.0,0.0,0.0,0.0,0.0,0,40140.0,781.8672371183122,1670.0220160672563,1670.0220160672563,1670.0220160672563,1670.0220160672563
2023-05-14,08:00:00,1963.3181988230256,133.61235638956904,47.744058873626905,42.255941126373095,9.7046887911761,1,627.0,666.7,465.1,494.5,161.9,172.2,735.3,735.3,847.4,901.1,4.25,4.25,18.7,2.5,34,1023.2,6.8,258,0,0,0,0,24140.0,0,0.0,0.0,0.0,0.0,0.0,0,49450.0,1120.0199669091942,2003.22432970806,2003.22432970806,2003.22432970806,2003.22432970806
2023-05-14,09:00:00,1908.298567923373,152.54753337497678,43.14615470711398,46.85384529288602,10.704688746532778,1,711.0,737.4,538.7,558.6,172.3,178.7,765.6,765.6,942.7,977.7,5.05,5.05,19.8,2.6,32,1023.2,6.5,289,0,0,0,0,24140.0,0,0.0,0.0,0.0,0.0,0.0,0,55860.0,1364.449724687665,1969.3028146764043,1969.3028146764043,1969.3028146764043,1969.3028146764043
2023-05-14,10:00:00,1827.1181531922643,173.5823148918826,40.90779150155046,49.09220849844954,11.70468842738878,1,761.0,771.6,580.9,588.9,180.1,182.6,779.1,779.1,998.9,1012.7,5.55,5.55,20.4,2.7,31,1023.2,9.7,327,0,0,0,0,24140.0,0,0.0,0.0,0.0,0.0,0.0,0,58890.0,1521.1222917254954,1381.782205609724,1381.782205609724,1381.782205609724,1381.782205609724
2023-05-14,11:00:00,2214.7682894118325,195.2141320717954,41.48464606016267,48.51535393983733,12.704687833790413,1,773.0,766.7,590.9,586.1,182.1,180.6,782.2,782.2,1012.0,1003.9,5.65,5.65,20.7,1.0,27,1022.9,12.6,311,0,0,0,0,24140.0,0,0.0,0.0,0.0,0.0,0.0,0,58610.0,1556.4536038154454,2269.7355922012243,2269.7355922012243,2269.7355922012243,2269.7355922012243
2023-05-14,12:00:00,1941.9974614360217,215.51695337343648,44.75013829143755,45.24986170856245,13.70468696578604,1,747.0,724.4,570.1,552.9,176.9,171.6,778.3,778.3,981.3,951.7,5.4,5.4,21.3,1.0,26,1022.1,11.9,309,0,0,0,0,24140.0,0,0.0,0.0,0.0,0.0,0.0,0,55290.0,1445.793292323651,2015.2610920717468,2015.2610920717468,2015.2610920717468,2015.2610920717468
2023-05-14,13:00:00,1165.170232614581,233.456287026732,50.09000424807287,39.90999575192713,14.704685823423317,1,686.0,648.9,519.4,491.3,166.6,157.6,765.6,765.6,908.9,859.8,4.75,4.75,21.2,1.5,27,1021.8,11.2,313,0,0,0,0,24140.0,0,0.0,0.0,0.0,0.0,0.0,0,49130.0,1224.909690226062,1215.3007072336484,1215.3007072336484,1215.3007072336484,1215.3007072336484
2023-05-14,14:00:00,740.363582405354,249.1122329642764,56.768677394773135,33.231322605226865,15.704684406750976,1,590.0,541.9,433.7,398.3,156.3,143.6,726.6,726.6,799.6,734.4,3.9,3.9,20.7,1.5,28,1021.0,10.8,312,0,0,0,0,24140.0,0,0.0,0.0,0.0,0.0,0.0,0,39830.0,895.854098144327,873.3693332684381,873.3693332684381,873.3693332684381,873.3693332684381
2023-05-14,15:00:00,179.52014231640177,263.086599825916,64.15847356430852,25.841526435691478,16.704682715818464,1,472.0,417.1,327.2,289.1,144.8,128.0,663.0,663.0,661.1,584.2,2.9,2.9,20.8,2.1,29,1020.2,9.4,305,0,0,0,0,24140.0,0,0.0,0.0,0.0,0.0,0.0,0,28910.000000000004,495.7455706152585,186.53922424415995,186.53922424415995,186.53922424415995,186.53922424415995
2023-05-14,16:00:00,59.016017631140606,276.045288035588,71.77040039655077,18.22959960344924,17.704680750675873,1,339.0,282.8,210.1,175.3,128.9,107.5,560.1,560.1,502.6,419.3,1.85,1.85,20.2,2.5,31,1019.9,9.0,300,0,0,0,0,24140.0,0,0.0,0.0,0.0,0.0,0.0,0,17530.0,124.2813480874366,55.45142450727424,55.45142450727424,55.45142450727424,55.45142450727424
2023-05-14,17:00:00,41.18114102655555,288.5593264525979,79.20803003381874,10.791969966181252,18.704678511373483,1,205.0,153.6,104.0,77.9,101.0,75.7,415.8,415.8,335.1,251.1,1.0,1.0,19.3,3.9,36,1019.7,9.4,288,0,0,0,0,24140.0,0,0.0,0.0,0.0,0.0,0.0,0,7790.000000000001,77.99137197369348,40.14714626517092,40.14714626517092,40.14714626517092,40.14714626517092
2023-05-14,18:00:00,19.22275130516336,301.08121904347104,86.1178092853737,3.882190714626305,19.704675997963705,1,89.0,47.6,31.5,16.9,57.5,30.8,243.5,193.4,170.0,91.0,0.4,0.4,17.9,4.8,42,1020.0,5.0,279,0,0,0,0,24140.0,0,0.0,0.0,0.0,0.0,0.0,0,1689.9999999999998,20.43385121251149,20.167330968822903,20.167330968822903,20.167330968822903,20.167330968822903
2023-05-15,02:00:00,18.9098962128708,51.34693047996908,89.74524481133086,0.2547551886691325,3.704646030095692,1,0.0,0.0,0.0,0.0,0.0,0.0,0.0,0.0,0.0,6.1,0.0,0.0,9.1,1.2,58,1018.0,7.2,129,7,0,0,0,24140.0,0,0.0,0.0,0.0,0.0,0.0,0,0.0,0.0,19.86259121291713,19.86259121291713,19.86259121291713,19.86259121291713
2023-05-15,03:00:00,22.044811360917404,64.02374422540596,83.29331076472303,6.706689235276976,4.704641052139482,1,35.0,68.7,8.0,15.7,27.0,53.0,84.6,134.5,79.7,156.5,0.15,0.15,9.7,0.3,52,1017.6,7.6,102,15,0,0,0,24140.0,0,0.0,0.0,0.0,0.0,0.0,0,1570.0,52.47054299807425,22.780867134798623,22.780867134798623,22.780867134798623,22.780867134798623
2023-05-18,07:00:00,1270.5749930697389,116.52152766668796,53.170545946158725,36.82945405384128,8.70346751226564,1,493.0,538.9,330.8,361.6,162.2,177.3,603.2,603.2,733.5,801.8,3.35,3.35,11.1,1.6,52,1018.5,17.6,261,11,35,0,0,24140.0,2,0.0,0.0,0.0,0.0,0.0,0,23504.0,751.7439895265885,241.15818719329272,241.15818719329272,241.15818719329272,241.15818719329272
2023-05-18,08:00:00,2197.2292494509984,133.09709113850184,46.89930049302029,43.10069950697971,9.703441691638044,1,653.0,693.4,493.6,524.2,159.4,169.2,767.2,767.2,860.6,913.9,4.3,4.3,12.4,1.4,47,1019.3,19.1,261,0,21,0,0,24140.0,1,0.0,0.0,0.0,0.0,0.0,0,41411.8,1204.7908585345251,719.7364085558161,719.7364085558161,719.7364085558161,719.7364085558161
2023-05-18,09:00:00,1995.4158267885864,152.18104394192548,42.25526285740665,47.74473714259335,10.703415603951605,1,746.0,773.1,579.6,600.7,166.4,172.4,811.5,811.5,955.3,990.0,5.05,5.05,12.5,0.8,45,1020.3,20.2,264,0,9,0,0,24140.0,0,0.0,0.0,0.0,0.0,0.0,0,54663.7,1511.0380571148846,513.4475178617141,513.4475178617141,513.4475178617141,513.4475178617141
2023-05-18,10:00:00,2456.9669784657626,173.4674635304391,39.98678215977903,50.01321784022097,11.703389249316638,1,792.0,802.8,616.8,625.2,175.2,177.6,815.9,815.9,1011.0,1024.8,5.55,5.55,12.6,0.6,44,1021.1,20.5,267,0,1,0,0,24140.0,0,0.0,0.0,0.0,0.0,0.0,0,61894.8,1662.10371376612,367.9468511263029,367.9468511263029,367.9468511263029,367.9468511263029
2023-05-18,11:00:00,2340.4963145743423,195.38568970830715,40.56841254229327,49.43158745770673,12.703362627844127,1,811.0,804.6,636.3,631.3,174.7,173.3,831.1,831.1,1024.1,1016.0,5.65,5.65,12.5,0.3,43,1021.6,20.9,268,0,0,0,0,24140.0,0,0.0,0.0,0.0,0.0,0.0,0,63129.99999999999,1704.5706019611412,172.31738306596952,172.31738306596952,172.31738306596952,172.31738306596952
2023-05-18,12:00:00,1748.1185272108496,215.90604107350055,43.86885774923224,46.131142250767766,13.70333573964721,1,780.0,756.9,608.5,590.5,171.5,166.4,819.1,819.1,993.6,964.2,5.4,5.4,12.1,0.5,45,1022.1,20.2,268,1,0,0,0,24140.0,0,0.0,0.0,0.0,0.0,0.0,0,59050.0,1580.226867272142,41.591211993216106,41.591211993216106,41.591211993216106,41.591211993216106
2023-05-18,13:00:00,1223.7497261445512,233.95796871176503,49.25178276359706,40.74821723640294,14.70330858483872,1,705.0,667.7,538.8,510.3,166.2,157.4,781.8,781.8,921.7,873.0,4.8,4.8,12.0,2.1,51,1022.9,19.1,269,1,0,0,0,24140.0,0,0.0,0.0,0.0,0.0,0.0,0,51030.0,1306.5530084155366,28.555876880148475,28.555876880148475,28.555876880148475,28.555876880148475
2023-05-18,14:00:00,743.3907922504158,249.6490162729521,55.96400304784034,34.03599695215966,15.703281163530695,1,610.0,561.5,454.3,418.1,155.7,143.3,747.0,747.0,813.3,748.6,3.95,3.95,11.8,2.2,52,1023.3,18.0,268,0,0,0,0,24140.0,0,0.0,0.0,0.0,0.0,0.0,0,41810.0,949.6991952232586,29.86447277924189,29.86447277924189,29.86447277924189,29.86447277924189
2023-05-18,15:00:00,187.21985227457577,263.61610813806533,63.37106680493605,26.628933195063954,16.703253475838824,1,492.0,436.4,347.0,307.9,145.0,128.6,686.9,686.9,675.7,599.4,2.95,2.95,11.4,2.4,54,1023.7,18.0,269,0,0,0,0,24140.0,0,0.0,0.0,0.0,0.0,0.0,0,30790.0,522.6652731242293,27.35850820472032,27.35850820472032,27.35850820472032,27.35850820472032
2023-05-18,16:00:00,59.7817112400776,276.54605311668394,70.98378576697652,19.016214233023472,17.703225521877464,1,355.0,298.4,224.3,188.5,130.7,109.9,578.6,578.6,518.4,435.7,1.95,1.95,10.9,1.9,54,1024.0,17.6,270,0,0,0,0,24140.0,0,0.0,0.0,0.0,0.0,0.0,0,18850.0,136.61144542787912,26.65572371641609,26.65572371641609,26.65572371641609,26.65572371641609
2023-05-18,17:00:00,44.61404380251521,289.01813647212407,78.40819332947045,11.59180667052955,18.7031973017617,1,220.0,167.9,115.3,88.0,104.7,79.9,438.0,438.0,352.1,268.7,1.05,1.05,10.1,2.0,57,1024.0,15.5,268,0,0,0,0,24140.0,0,0.0,0.0,0.0,0.0,0.0,0,8800.0,89.33881834840646,24.02936188050688,24.02936188050688,24.02936188050688,24.02936188050688
2023-05-18,18:00:00,20.52287136186564,301.48559926818075,85.29436010499226,4.70563989500774,19.703168815608745,1,101.0,58.9,37.8,22.0,63.2,36.8,268.7,252.8,188.1,109.7,0.45,0.45,9.2,1.6,59,1024.2,12.6,265,0,0,0,0,24140.0,0,0.0,0.0,0.0,0.0,0.0,0,2200.0,29.107265612739653,21.40755535338904,21.40755535338904,21.40755535338904,21.40755535338904
2023-05-19,02:00:00,21.42606900394563,50.94300625192774,88.9300975797591,1.0699024202408878,3.702931364104304,1,1.0,10.1,0.2,1.5,0.8,8.6,3.4,17.6,2.5,24.8,0.0,0.0,3.6,1.0,83,1027.9,4.3,287,5,0,0,0,24140.0,0,0.0,0.0,0.0,0.0,0.0,0,150.0,0.0,21.443168361507976,21.443168361507976,21.443168361507976,21.443168361507976
2023-05-19,03:00:00,24.17946574711341,63.55907972091334,82.51014268773511,7.489857312264895,4.702900488955072,1,47.0,83.6,12.9,23.0,34.1,60.6,127.7,176.4,97.9,174.2,0.2,0.2,3.8,1.8,87,1027.9,3.2,223,3,0,0,0,24140.0,0,0.0,0.0,0.0,0.0,0.0,0,2300.0,65.20478262343299,24.957259341043347,24.957259341043347,24.957259341043347,24.957259341043347
2023-05-19,04:00:00,26.02474903209234,75.96711990558761,75.35104496401495,14.648955035985058,5.702869348967942,1,148.0,195.9,65.7,86.9,82.3,109.0,343.7,343.7,255.4,338.0,0.65,0.65,5.0,1.3,77,1028.1,2.2,205,0,0,0,0,24140.0,0,0.0,0.0,0.0,0.0,0.0,0,8690.0,132.68625165933537,27.267559118787613,27.267559118787613,27.267559118787613,27.267559118787613
2023-05-19,05:00:00,232.2222212978312,88.54861509189826,67.7922712886919,22.207728711308107,6.702837944266154,1,275.0,329.3,157.6,188.8,117.4,140.5,499.5,499.5,421.9,505.3,1.4,1.4,7.8,0.5,60,1028.1,3.2,51,0,0,0,0,24140.0,0,0.0,0.0,0.0,0.0,0.0,0,18880.0,177.08770682179187,222.35591811056187,222.35591811056187,222.35591811056187,222.35591811056187
2023-05-19,06:00:00,799.1704753333923,101.80843139963312,60.19527506043514,29.80472493956486,7.702806274975065,1,411.0,466.0,273.0,309.5,138.0,156.5,622.7,622.7,586.1,664.5,2.35,2.35,9.4,0.6,54,1028.7,3.6,275,0,0,0,0,24140.0,0,0.0,0.0,0.0,0.0,0.0,0,30950.0,392.6904231616824,545.5820826264273,545.5820826264273,545.5820826264273,545.5820826264273
2023-05-19,07:00:00,1358.277320277166,116.3788501517702,52.98451413565034,37.01548586434966,8.702774341219284,1,541.0,591.0,390.6,426.8,150.4,164.3,708.9,708.9,736.7,804.8,3.35,3.35,11.6,0.1,45,1028.8,4.7,275,0,0,0,0,24140.0,0,0.0,0.0,0.0,0.0,0.0,0,42680.0,797.1989109075784,1270.5749930697389,1270.5749930697389,1270.5749930697389,1270.5749930697389
2023-05-19,08:00:00,2096.961497202601,132.96660708484822,46.70316013200722,43.29683986799278,9.702742143124578,1,653.0,693.2,492.5,522.8,160.5,170.4,762.4,762.4,863.6,916.8,4.35,4.35,13.3,-0.0,40,1029.0,6.8,320,0,13,0,0,24140.0,0,0.0,0.0,0.0,0.0,0.0,0,45483.6,1154.9681793698967,2197.2292494509984,2197.2292494509984,2197.2292494509984,2197.2292494509984
2023-05-19,09:00:00,1692.4249010864396,152.08476312001943,42.047308831922166,47.95269116807784,10.702709680817886,1,736.0,762.6,564.9,585.3,171.1,177.3,788.2,788.2,958.1,992.7,5.1,5.1,13.2,-1.2,37,1029.4,11.5,337,0,2,0,0,24140.0,0,0.0,0.0,0.0,0.0,0.0,0,57359.4,1441.442704502109,1995.4158267885864,1995.4158267885864,1995.4158267885864,1995.4158267885864
2023-05-19,10:00:00,1632.49637297791,173.43089744434178,39.77051639137128,50.229483608628726,11.70267695442533,1,788.0,798.7,609.7,618.0,178.3,180.7,804.1,804.1,1013.8,1027.5,5.6,5.6,14.1,-1.2,35,1029.6,11.5,341,0,0,0,0,24140.0,0,0.0,0.0,0.0,0.0,0.0,0,61800.0,1590.0292363853384,2456.9669784657626,2456.9669784657626,2456.9669784657626,2456.9669784657626
2023-05-19,11:00:00,2235.75577370724,195.41823682164133,40.35213641698946,49.64786358301054,12.702643964074737,1,800.0,793.7,619.7,614.8,180.3,178.9,806.8,806.8,1026.9,1018.8,5.7,5.7,14.4,-0.5,36,1029.7,11.9,337,0,0,0,0,24140.0,0,0.0,0.0,0.0,0.0,0.0,0,61479.99999999999,1611.7467306946735,2340.4963145743423,2340.4963145743423,2340.4963145743423,2340.4963145743423
2023-05-19,12:00:00,1647.0307136635795,215.9914989204993,43.65998378201717,46.34001621798283,13.702610709895565,1,771.0,748.3,594.8,577.3,176.2,171.0,798.0,798.0,996.5,967.1,5.45,5.45,15.6,0.9,37,1029.4,12.2,322,0,0,0,0,24140.0,0,0.0,0.0,0.0,0.0,0.0,0,57729.99999999999,1491.0453644624622,1748.1185272108496,1748.1185272108496,1748.1185272108496,1748.1185272108496
2023-05-19,13:00:00,920.5625013944106,234.07096283303773,49.052490008557726,40.947509991442274,14.702577192016488,1,704.0,667.0,536.1,507.9,167.9,159.1,775.0,775.0,924.7,876.1,4.85,4.85,14.5,0.7,39,1029.3,13.0,321,0,0,0,0,24140.0,0,0.0,0.0,0.0,0.0,0.0,0,50790.0,1261.9586863194922,1223.7497261445512,1223.7497261445512,1223.7497261445512,1223.7497261445512
2023-05-19,14:00:00,834.982540443051,249.770736491498,55.77223953004533,34.22776046995467,15.702543410566877,1,608.0,559.9,450.6,415.0,157.4,144.9,737.8,737.8,816.5,751.9,4.0,4.0,14.7,0.9,39,1029.3,10.8,316,0,0,0,0,24140.0,0,0.0,0.0,0.0,0.0,0.0,0,41500.0,912.6847142880492,743.3907922504158,743.3907922504158,743.3907922504158,743.3907922504158
2023-05-19,15:00:00,208.7216054568576,263.73624017956786,63.183151331456095,26.816848668543905,16.702509365678715,1,489.0,434.2,342.6,304.2,146.4,130.0,674.4,674.4,679.2,603.0,3.0,3.0,15.1,0.9,38,1029.2,9.7,302,0,0,0,0,24140.0,0,0.0,0.0,0.0,0.0,0.0,0,30420.0,499.5498320959114,187.21985227457577,187.21985227457577,187.21985227457577,187.21985227457577
2023-05-19,16:00:00,72.88868711924165,276.6593374081675,70.79598504884912,19.204014951150885,17.702475057482243,1,356.0,299.7,224.6,189.1,131.4,110.6,575.0,575.0,522.2,439.6,1.95,1.95,14.9,1.4,40,1029.0,9.0,297,0,0,0,0,24140.0,0,0.0,0.0,0.0,0.0,0.0,0,18910.0,133.91009087986822,59.7817112400776,59.7817112400776,59.7817112400776,59.7817112400776
2023-05-19,17:00:00,45.56382265002854,289.12132463319216,78.21735993044868,11.782640069551318,18.702440486108376,1,223.0,170.9,117.5,90.0,105.5,80.8,441.0,441.0,356.1,272.9,1.1,1.1,14.3,1.9,43,1029.0,8.6,284,0,0,0,0,24140.0,0,0.0,0.0,0.0,0.0,0.0,0,9000.0,87.99444120767022,44.61404380251521,44.61404380251521,44.61404380251521,44.61404380251521
2023-05-19,18:00:00,20.898548381428085,301.57566616903216,85.09821098824379,4.901789011756203,19.70240565169114,1,104.0,61.7,39.5,23.4,64.5,38.3,274.1,268.4,192.4,114.1,0.45,0.45,13.0,1.9,47,1028.9,7.9,266,0,0,0,0,24140.0,0,0.0,0.0,0.0,0.0,0.0,0,2340.0,29.6099405450314,20.52287136186564,20.52287136186564,20.52287136186564,20.52287136186564
2023-05-20,02:00:00,21.462734512954576,50.84289243780464,88.74108819247637,1.2589118075236316,3.702117523809706,1,1.0,6.4,-0.0,-0.0,1.0,6.4,0.0,0.0,4.6,29.2,0.0,0.0,3.9,1.6,85,1030.4,6.1,201,7,0,0,0,24140.0,0,0.0,0.0,0.0,0.0,0.0,0,-0.0,0.0,21.42606900394563,21.42606900394563,21.42606900394563,21.42606900394563
2023-05-20,10:00:00,1443.2792130203673,173.39123132336408,39.559992665283545,50.440007334716455,11.701812638770074,1,787.0,797.6,606.8,615.0,180.2,182.6,797.8,797.8,1016.4,1030.2,5.65,5.65,17.5,-0.3,30,1030.7,12.2,342,4,0,0,0,24140.0,0,0.0,0.0,0.0,0.0,0.0,0,61500.0,1553.234291243404,1632.49637297791,1632.49637297791,1632.49637297791,1632.49637297791
2023-05-20,11:00:00,2234.7484979739147,195.4465723703368,40.14111810579677,49.85888189420323,12.701773353550488,1,801.0,794.7,619.5,614.7,181.5,180.1,804.1,804.1,1029.5,1021.5,5.75,5.75,17.3,-0.4,30,1030.7,14.0,344,1,0,0,0,24140.0,0,0.0,0.0,0.0,0.0,0.0,0,61470.00000000001,1590.459121490163,2235.75577370724,2235.75577370724,2235.75577370724,2235.75577370724
2023-05-20,12:00:00,1767.483953610113,216.07209570815044,43.45582194958696,46.54417805041304,13.70173380779022,1,773.0,750.3,596.0,578.5,177.0,171.8,797.0,797.0,999.2,970.0,5.5,5.5,17.1,0.7,33,1030.5,13.0,343,1,0,0,0,24140.0,0,0.0,0.0,0.0,0.0,0.0,0,57850.0,1477.341274492893,1647.0307136635795,1647.0307136635795,1647.0307136635795,1647.0307136635795
2023-05-20,13:00:00,1049.598978430531,234.17884418188535,48.85742775435728,41.142572245642725,14.701694001633827,1,710.0,672.8,542.8,514.4,167.2,158.5,781.9,781.9,927.6,879.1,4.9,4.9,17.3,-0.9,29,1030.1,11.2,349,0,0,0,0,24140.0,0,0.0,0.0,0.0,0.0,0.0,0,51440.0,1240.2765842990057,920.5625013944106,920.5625013944106,920.5625013944106,920.5625013944106
2023-05-20,14:00:00,680.3925110344602,249.8873429359228,55.58436261821445,34.41563738178555,15.701653935227451,1,615.0,566.6,458.4,422.3,156.6,144.3,747.3,747.3,819.6,755.2,4.05,4.05,17.1,-0.7,30,1029.2,10.4,344,0,0,0,0,24140.0,0,0.0,0.0,0.0,0.0,0.0,0,42230.0,903.893048102375,834.982540443051,834.982540443051,834.982540443051,834.982540443051
2023-05-20,15:00:00,193.59123671270996,263.85137639218766,62.9989399450914,27.0010600549086,16.70161360871898,1,491.0,436.3,344.1,305.8,146.9,130.5,673.6,673.6,682.6,606.6,3.0,3.0,17.3,0.4,32,1028.7,9.0,336,0,0,0,0,24140.0,0,0.0,0.0,0.0,0.0,0.0,0,30580.0,489.602610767605,208.7216054568576,208.7216054568576,208.7216054568576,208.7216054568576
2023-05-20,16:00:00,63.71023479752606,276.7677874376268,70.61186327878505,19.38813672121496,17.70157302225544,1,360.0,303.6,228.2,192.5,131.8,111.1,580.0,580.0,525.8,443.5,2.0,2.0,17.2,1.2,34,1028.3,8.3,326,0,0,0,0,24140.0,0,0.0,0.0,0.0,0.0,0.0,0,19250.0,132.7931862763665,72.88868711924165,72.88868711924165,72.88868711924165,72.88868711924165
2023-05-20,17:00:00,45.52008847900588,289.2198616464827,78.03032349337346,11.969676506626536,18.7015321759846,1,225.0,173.1,118.7,91.3,106.3,81.8,440.5,440.5,360.1,277.0,1.1,1.1,16.6,1.0,35,1028.3,7.6,317,0,0,0,0,24140.0,0,0.0,0.0,0.0,0.0,0.0,0,9130.0,87.969531007087,45.56382265002854,45.56382265002854,45.56382265002854,45.56382265002854
2023-05-20,18:00:00,22.262570447771044,301.66130256581584,84.90610134312826,5.09389865687175,19.701491070056303,1,106.0,63.9,40.3,24.3,65.7,39.6,273.9,273.9,196.7,118.5,0.45,0.45,15.7,2.1,40,1028.3,5.4,299,0,0,0,0,24140.0,0,0.0,0.0,0.0,0.0,0.0,0,2430.0,30.381400099996004,20.898548381428085,20.898548381428085,20.898548381428085,20.898548381428085
2023-05-21,03:00:00,24.337661287740637,63.331030090958194,82.15404709407906,7.845952905920941,4.701109457904153,1,51.0,87.5,14.3,24.5,36.7,63.0,137.0,179.5,106.2,182.2,0.2,0.2,6.6,0.7,66,1027.0,3.6,183,14,0,0,0,24140.0,0,0.0,0.0,0.0,0.0,0.0,0,2450.0,67.49769876545643,24.37220476553432,24.37220476553432,24.37220476553432,24.37220476553432
2023-05-21,04:00:00,24.926812756193325,75.71632882287108,75.00649284312571,14.99350715687429,5.701065763735991,1,151.0,198.2,66.9,87.8,84.1,110.4,339.6,339.6,263.1,345.4,0.7,0.7,7.9,0.8,61,1027.1,3.2,187,4,0,0,0,24140.0,0,0.0,0.0,0.0,0.0,0.0,0,8780.0,132.70477999036387,26.184605223899904,26.184605223899904,26.184605223899904,26.184605223899904
2023-05-21,05:00:00,226.2233409716321,88.27942315630074,67.45293763701572,22.547062362984278,6.701021811592239,1,278.0,331.8,159.3,190.2,118.7,141.6,496.2,496.2,429.0,512.1,1.45,1.45,10.8,1.1,51,1027.3,4.7,174,5,0,0,0,24140.0,0,0.0,0.0,0.0,0.0,0.0,0,19020.0,175.97030691290206,259.4199343034985,259.4199343034985,259.4199343034985,259.4199343034985
2023-05-21,06:00:00,949.034029116624,101.526295335628,59.85323460836149,30.146765391638507,7.700977601630962,1,412.0,466.3,272.6,308.5,139.4,157.8,614.5,614.5,592.6,670.7,2.4,2.4,14.0,1.6,43,1026.9,4.3,210,0,0,0,0,24140.0,0,0.0,0.0,0.0,0.0,0.0,0,30850.0,374.6326600626867,775.2367756146014,775.2367756146014,775.2367756146014,775.2367756146014
2023-05-21,07:00:00,1590.249371490837,116.09477809575466,52.63078415515879,37.369215844841214,8.7009331340094,1,540.0,589.4,387.5,423.0,152.5,166.4,697.0,697.0,742.7,810.7,3.45,3.45,17.8,3.3,38,1026.8,5.0,237,0,0,0,0,24140.0,0,0.0,0.0,0.0,0.0,0.0,0,42300.0,755.8460218454296,1575.374187346841,1575.374187346841,1575.374187346841,1575.374187346841
2023-05-21,08:00:00,1637.0937297981393,132.70438398833969,46.32933127455391,43.67066872544609,9.70088840888597,1,652.0,691.8,488.8,518.7,163.2,173.1,751.3,751.3,869.2,922.3,4.45,4.45,19.9,5.2,38,1026.6,6.5,291,1,0,0,46,24140.0,0,0.0,0.0,0.0,0.0,0.0,0,51870.00000000001,1094.6036651687475,1654.6832264576278,1654.6832264576278,1654.6832264576278,1654.6832264576278
2023-05-21,09:00:00,1331.0580959687456,151.88716240526728,41.64958929244667,48.35041070755333,10.700843426419787,1,733.0,759.3,558.0,578.0,175.0,181.3,773.6,773.6,963.5,998.0,5.25,5.25,19.7,5.0,38,1026.4,10.1,341,0,0,0,42,24140.0,0,0.0,0.0,0.0,0.0,0.0,0,57800.0,1361.1163480967966,1392.825609346168,1392.825609346168,1392.825609346168,1392.825609346168
2023-05-21,10:00:00,1234.4098469947608,173.34849782092178,39.35528223081346,50.64471776918654,11.700798186770609,1,791.0,801.7,610.8,619.1,180.2,182.6,800.7,800.7,1019.0,1032.8,5.7,5.7,19.8,3.9,35,1026.3,11.9,338,0,0,0,21,24140.0,0,0.0,0.0,0.0,0.0,0.0,0,61910.0,1531.6472322967138,1443.2792130203673,1443.2792130203673,1443.2792130203673,1443.2792130203673
2023-05-21,11:00:00,2052.1687713052797,195.4706694806324,39.93542908608209,50.06457091391791,12.700752690098415,1,804.0,797.8,622.1,617.3,181.9,180.5,805.1,805.1,1032.1,1024.1,5.85,5.55,19.5,4.0,36,1026.0,11.9,339,0,0,0,100,24140.0,0,0.0,0.0,0.0,0.0,0.0,0,61729.99999999999,1557.7653504397913,2234.7484979739147,2234.7484979739147,2234.7484979739147,2234.7484979739147
2023-05-22,08:00:00,1986.396411544447,132.57287857451078,46.15174359455556,43.84825640544444,9.699738180072554,1,643.0,682.1,475.7,504.6,167.3,177.5,728.5,728.5,871.9,924.9,4.45,4.45,20.7,5.1,36,1020.1,9.0,352,5,0,1,0,24140.0,0,0.0,0.0,0.0,0.0,0.0,0,50460.0,1074.4231200048755,1637.0937297981393,1637.0937297981393,1637.0937297981393,1637.0937297981393
2023-05-22,09:00:00,1743.8973554246395,151.78602606468937,41.45994767317695,48.54005232682305,10.699687070874306,1,729.0,755.1,551.0,570.7,178.0,184.3,761.7,761.7,966.0,1000.6,5.25,5.1,21.0,4.9,35,1019.7,12.6,346,3,0,0,0,24140.0,0,0.0,0.0,0.0,0.0,0.0,0,57070.00000000001,1345.337364911543,1331.0580959687456,1331.0580959687456,1331.0580959687456,1331.0580959687456
2023-05-22,10:00:00,1755.1661837985855,173.30273665079292,39.15645481580019,50.84354518419981,11.699635708531222,1,780.0,790.5,593.9,601.9,186.1,188.6,776.3,776.3,1021.5,1035.3,5.7,5.45,19.3,3.9,36,1019.2,11.5,335,5,0,0,5,24140.0,0,0.0,0.0,0.0,0.0,0.0,0,60190.0,1500.2267796601966,1234.4098469947608,1234.4098469947608,1234.4098469947608,1234.4098469947608
2023-05-22,11:00:00,503.951994472121,195.4905075881633,39.73514019525973,50.26485980474028,12.69958409322005,1,791.0,784.9,602.2,597.6,188.8,187.3,777.2,777.2,1034.7,1026.7,5.8,5.7,20.7,4.7,35,1018.7,14.4,350,18,0,47,63,24140.0,0,0.0,0.0,0.0,0.0,0.0,0,59760.0,1522.4500574824328,2052.1687713052797,2052.1687713052797,2052.1687713052797,2052.1687713052797
2023-05-23,06:00:00,767.2039241971152,101.24835427728551,59.53558757924856,30.46441242075144,7.698555579252604,1,357.0,403.5,204.9,231.5,152.1,171.9,456.8,456.8,598.6,676.5,2.4,2.25,15.8,7.3,57,1013.2,6.8,166,9,0,10,0,24140.0,0,0.0,0.0,0.0,0.0,0.0,0,23150.0,338.4870380482562,714.3445049958133,714.3445049958133,714.3445049958133,714.3445049958133
2023-05-23,07:00:00,1260.978855037633,115.81319813573356,52.30177206357977,37.69822793642023,8.698498942730941,1,534.0,582.3,378.1,412.3,155.9,170.0,674.4,674.4,748.3,816.1,3.45,3.4,19.2,8.2,49,1013.0,7.9,189,0,0,62,23,24140.0,4,0.0,0.0,0.0,0.0,0.0,0,41230.0,733.8596290251295,1576.2604061767345,1576.2604061767345,1576.2604061767345,1576.2604061767345
2023-05-23,08:00:00,1574.41646884561,132.44127441237978,45.980436028456,44.019563971544,9.698442057108265,1,643.0,681.9,474.5,503.2,168.5,178.7,724.3,724.3,874.5,927.4,4.4,4.4,21.3,8.2,43,1013.0,7.2,207,4,0,35,4,24140.0,9,0.0,0.0,0.0,0.0,0.0,0,50320.0,1057.0228415681763,1986.396411544447,1986.396411544447,1986.396411544447,1986.396411544447
2023-05-23,17:00:00,47.00695484350049,289.4874048408542,77.4927334165783,12.5072665834217,18.69791890878541,1,205.0,159.4,96.1,74.7,108.9,84.7,345.2,345.2,371.6,288.9,1.15,1.15,20.8,10.6,52,1013.5,7.9,348,15,0,0,0,24140.0,4,0.0,0.0,0.0,0.0,0.0,0,7470.0,90.39163094279964,53.99074045983383,53.99074045983383,53.99074045983383,53.99074045983383
2023-05-24,01:00:00,7.965056926375863,37.45515624907353,93.34574899154032,-3.345748991540328,2.697437078188337,0,0.0,0.0,0.0,0.0,0.0,0.0,0.0,0.0,0.0,0.0,0.0,0.0,11.0,6.3,73,1014.4,6.1,158,0,0,0,0,24140.0,0,0.0,0.0,0.0,0.0,0.0,0,0.0,0.0,0.0,0.0,0.0,0.0
2023-05-24,02:00:00,20.464965405417484,50.44766064395287,88.04568940549058,1.954310594509428,3.697375742153374,1,3.0,11.0,0.0,0.2,3.0,10.8,0.9,2.1,12.3,45.2,0.0,0.0,10.4,6.9,79,1014.3,4.0,211,0,0,0,0,24140.0,0,0.0,0.0,0.0,0.0,0.0,0,20.0,0.0,19.70851558006521,19.70851558006521,19.70851558006521,19.70851558006521
2023-05-24,03:00:00,23.432559750700783,62.99583888615985,81.66528235955607,8.334717640443921,4.697314160772207,1,55.0,90.3,15.1,24.8,39.9,65.5,139.6,171.5,117.6,193.1,0.25,0.25,10.8,6.7,76,1014.8,2.5,182,0,0,0,0,24140.0,0,0.0,0.0,0.0,0.0,0.0,0,2480.0,69.39895076538403,23.126865896360865,23.126865896360865,23.126865896360865,23.126865896360865
2023-05-24,04:00:00,25.45664752519057,75.34872036496009,74.53492406333442,15.46507593666558,5.697252334249125,1,155.0,201.4,68.4,88.9,86.6,112.5,333.8,333.8,273.6,355.5,0.7,0.7,12.5,7.2,70,1014.7,2.9,170,0,0,0,0,24140.0,0,0.0,0.0,0.0,0.0,0.0,0,8890.0,132.13940014999733,27.40065462531177,27.40065462531177,27.40065462531177,27.40065462531177
2023-05-24,05:00:00,212.021855501263,87.88473929324702,66.98932678255042,23.010673217449572,6.697190262787592,1,279.0,331.6,158.3,188.2,120.7,143.4,481.6,481.6,438.7,521.3,1.5,1.5,14.9,6.7,58,1015.0,3.6,217,0,0,0,0,24140.0,0,0.0,0.0,0.0,0.0,0.0,0,18820.0,174.34077255418586,260.41180580294315,260.41180580294315,260.41180580294315,260.41180580294315
2023-05-24,06:00:00,775.1724422079931,101.1112305420617,59.38599224237511,30.61400775762489,7.697127946594727,1,411.0,464.2,269.1,303.9,141.9,160.2,597.1,597.1,601.5,679.3,2.45,2.45,17.6,7.0,50,1015.2,2.2,6,0,0,0,0,24140.0,0,0.0,0.0,0.0,0.0,0.0,0,30390.0,353.18939365967475,767.2039241971152,767.2039241971152,767.2039241971152,767.2039241971152
2023-05-24,07:00:00,1519.9038165897791,115.67364829103455,52.14662579486266,37.85337420513734,8.697065385876325,1,537.0,585.4,380.9,415.3,156.1,170.1,676.9,676.9,751.0,818.6,3.45,3.45,21.1,8.7,45,1015.6,4.3,338,0,0,0,0,24140.0,0,0.0,0.0,0.0,0.0,0.0,0,41530.0,717.5040707031458,1260.978855037633,1260.978855037633,1260.978855037633,1260.978855037633
2023-05-24,08:00:00,641.1940979430226,132.309700170608,45.81545151024881,44.18454848975119,9.69700258083937,1,647.0,686.0,478.7,507.6,168.3,178.4,728.4,728.4,876.9,929.8,4.45,4.45,22.6,8.7,41,1015.5,6.1,334,2,0,0,0,24140.0,0,0.0,0.0,0.0,0.0,0.0,0,50760.0,1044.8805798209423,1574.41646884561,1574.41646884561,1574.41646884561,1574.41646884561
2023-05-24,09:00:00,944.9242817929442,151.57958853272126,41.09939211730337,48.90060788269663,10.69693953169197,1,723.0,748.7,539.9,559.0,183.1,189.6,742.0,742.0,970.8,1005.3,5.2,5.2,23.1,7.2,36,1015.7,7.9,341,15,0,52,0,24140.0,0,0.0,0.0,0.0,0.0,0.0,0,55900.0,1279.9028168927043,522.281067272058,522.281067272058,522.281067272058,522.281067272058
2023-05-24,12:00:00,1305.7015248608802,216.3447692467692,42.68763381428998,47.31236618571002,13.696748921668958,1,754.0,732.4,563.0,546.8,191.0,185.5,744.0,744.0,1009.6,980.6,5.55,3.1,24.3,7.4,34,1015.0,13.3,356,18,0,67,0,24140.0,0,0.0,0.0,0.0,0.0,0.0,0,54679.99999999999,1348.067074343553,313.1319530624926,313.1319530624926,313.1319530624926,313.1319530624926
2023-05-24,13:00:00,1120.208214630249,234.55803221191417,48.120757429764,41.879242570236,14.696684898166954,1,702.0,666.0,526.4,499.4,175.6,166.6,748.1,748.1,938.7,890.6,4.95,1.85,24.2,6.9,33,1014.7,13.0,350,17,0,64,0,24140.0,0,0.0,0.0,0.0,0.0,0.0,0,49940.0,1153.2660643152583,681.6332344478312,681.6332344478312,681.6332344478312,681.6332344478312
2023-05-24,14:00:00,697.2860366843834,250.30158256782957,54.87299363289107,35.12700636710893,15.69662063160165,1,606.0,559.4,442.0,408.0,164.0,151.3,709.2,709.2,831.6,767.6,4.1,3.05,23.9,6.7,33,1014.6,11.5,342,14,0,40,0,24140.0,0,0.0,0.0,0.0,0.0,0.0,0,40800.0,832.3347370070181,702.2607597585152,702.2607597585152,702.2607597585152,702.2607597585152
2023-05-24,15:00:00,276.76717894757803,264.26115375566155,62.30045772829085,27.69954227170916,16.69655612218569,1,479.0,427.0,325.3,290.0,153.7,137.1,623.9,623.9,695.5,620.1,3.1,2.85,23.9,7.5,35,1014.6,7.2,347,2,0,57,0,24140.0,0,0.0,0.0,0.0,0.0,0.0,0,29000.0,443.05944764736506,235.6528179069004,235.6528179069004,235.6528179069004,235.6528179069004
2023-05-24,16:00:00,118.72868399291774,277.152686669681,69.9135633550835,20.0864366449165,17.696491370130857,1,360.0,305.4,225.0,190.9,135.0,114.5,556.0,556.0,539.9,458.1,2.1,1.25,24.0,8.0,36,1014.3,6.5,325,2,0,16,0,24140.0,0,0.0,0.0,0.0,0.0,0.0,0,19090.0,131.3797393812549,109.50748319679646,109.50748319679646,109.50748319679646,109.50748319679646
2023-05-24,17:00:00,77.21901242418424,289.56719134832736,77.32162271241423,12.678377287585771,18.696426375650123,1,230.0,179.4,120.6,94.1,109.4,85.3,428.8,428.8,375.3,292.7,1.2,0.55,23.3,8.5,39,1014.0,4.7,301,1,0,17,0,24140.0,0,0.0,0.0,0.0,0.0,0.0,0,9410.0,88.73866104553221,47.00695484350049,47.00695484350049,47.00695484350049,47.00695484350049
2023-05-24,18:00:00,21.976378387279635,301.9594900819641,84.17959388196964,5.820406118030359,19.69636113895709,1,114.0,72.4,43.9,27.9,70.1,44.5,275.3,275.3,212.9,135.1,0.5,0.5,22.7,9.8,44,1013.8,4.3,244,0,0,0,0,24140.0,0,0.0,0.0,0.0,0.0,0.0,0,2790.0,34.96403113452924,22.286702548949236,22.286702548949236,22.286702548949236,22.286702548949236
2023-05-25,01:00:00,9.301270273634616,37.37349663646084,93.17845824046972,-3.178458240469723,2.6958977191481344,0,0.0,0.0,0.0,0.0,0.0,0.0,0.0,0.0,0.0,0.0,0.0,0.0,12.8,8.2,74,1012.5,9.0,200,3,0,66,47,24140.0,0,0.0,0.0,0.0,0.0,0.0,0,0.0,0.0,7.965056926375863,7.965056926375863,7.965056926375863,7.965056926375863
2023-05-25,14:00:00,557.9590368439119,250.39186878394844,54.70550834100366,35.29449165899634,15.695005876269429,1,558.0,515.3,375.5,346.8,182.5,168.5,600.3,600.3,834.4,770.5,4.15,4.15,19.8,9.7,52,1011.3,19.4,263,17,73,52,0,24140.0,4,0.0,0.0,0.0,0.0,0.0,0,9363.6,781.0886202773631,697.2860366843834,697.2860366843834,697.2860366843834,697.2860366843834
2023-05-25,15:00:00,271.5906185260412,264.35073506360266,62.13576254745726,27.86423745254274,16.69493560363912,1,497.0,443.4,346.7,309.3,150.3,134.1,661.9,661.9,698.6,623.3,3.15,3.15,18.6,7.0,47,1011.4,19.4,263,0,26,0,0,24140.0,0,0.0,0.0,0.0,0.0,0.0,0,22888.2,474.1936618465222,276.76717894757803,276.76717894757803,276.76717894757803,276.76717894757803
2023-05-25,16:00:00,86.52331351585771,277.2365751388967,69.74888721024391,20.2511127897561,17.694865093663786,1,368.0,312.7,233.3,198.2,134.7,114.5,572.7,572.7,543.2,461.6,2.1,2.1,17.8,5.7,45,1011.3,18.0,266,8,2,0,0,24140.0,0,0.0,0.0,0.0,0.0,0.0,0,19423.6,137.9875834230884,118.72868399291774,118.72868399291774,118.72868399291774,118.72868399291774
2023-05-25,17:00:00,59.90876011163842,289.64226890515624,77.15467814219731,12.845321857802688,18.694794346571765,1,236.0,184.6,125.9,98.5,110.1,86.1,443.3,443.3,378.9,296.4,1.2,1.2,16.8,2.4,38,1011.8,23.0,297,17,36,0,1,24140.0,0,0.0,0.0,0.0,0.0,0.0,0,6304.0,94.46440292673836,77.21901242418424,77.21901242418424,77.21901242418424,77.21901242418424
2023-05-26,03:00:00,24.992781066627703,62.77782211090992,81.37013136272643,8.629868637273582,4.694073885980271,1,57.0,91.5,15.4,24.6,41.6,66.8,138.7,164.4,124.5,199.8,0.25,0.2,7.1,1.0,65,1013.3,5.0,194,2,0,0,0,24140.0,0,0.0,0.0,0.0,0.0,0.0,0,2460.0,73.47153372799062,23.071146264620825,23.071146264620825,23.071146264620825,23.071146264620825
2023-05-26,08:00:00,471.1608262127013,132.04717792288372,45.50460790818057,44.49539209181943,9.69370484476915,1,596.0,631.7,405.7,430.0,190.3,201.7,613.7,613.7,881.5,934.3,4.5,4.1,15.3,1.1,38,1011.0,18.7,197,8,7,62,0,24140.0,0,0.0,0.0,0.0,0.0,0.0,0,39990.0,1009.1414421579055,35.75244383636086,35.75244383636086,35.75244383636086,35.75244383636086
2023-05-26,11:00:00,2011.7000991920909,195.5270903383626,38.98937706538964,51.01062293461036,12.693480617749051,1,787.0,781.1,590.2,585.8,196.8,195.3,753.7,753.7,1044.0,1036.2,5.8,5.8,17.1,3.0,39,1011.4,20.5,259,11,28,39,0,24140.0,0,0.0,0.0,0.0,0.0,0.0,0,42177.6,1529.4441920176598,692.3691437037651,692.3691437037651,692.3691437037651,692.3691437037651
2023-05-26,12:00:00,1686.7415103214566,216.4506601301796,42.33355013348153,47.66644986651847,13.6934054097995,1,790.0,767.6,610.8,593.5,179.2,174.1,802.8,802.8,1014.4,985.5,5.55,5.55,16.2,2.2,39,1012.2,24.1,266,0,29,0,0,24140.0,0,0.0,0.0,0.0,0.0,0.0,0,42138.5,1502.4603744235576,692.1155847577554,692.1155847577554,692.1155847577554,692.1155847577554
2023-05-26,13:00:00,1204.6843523408447,234.71550706382789,47.77947000454727,42.22052999545273,14.693329969447918,1,737.0,699.6,571.1,542.1,165.9,157.5,806.8,806.8,943.8,895.9,4.95,4.95,15.6,1.3,38,1012.6,24.8,265,0,47,0,0,24140.0,0,0.0,0.0,0.0,0.0,0.0,0,28731.300000000003,1287.0970064742253,490.4506323054212,490.4506323054212,490.4506323054212,490.4506323054212
2023-05-26,14:00:00,754.5714490907269,250.476769266854,54.5422962012821,35.4577037987179,15.693254296936855,1,638.0,589.4,481.4,444.7,156.6,144.7,766.6,766.6,837.1,773.4,4.1,4.1,14.6,4.3,50,1013.1,25.2,266,1,32,0,0,24140.0,0,0.0,0.0,0.0,0.0,0.0,0,30239.6,929.8125116738884,557.9590368439119,557.9590368439119,557.9590368439119,557.9590368439119
2023-05-27,01:00:00,17.16755702412519,37.21091799742032,92.86272026202388,-2.8627202620238688,2.692406647714343,0,0.0,0.0,0.0,0.0,0.0,0.0,0.0,0.0,0.0,0.0,0.0,0.0,7.4,-0.1,59,1019.5,11.9,293,3,0,0,0,24140.0,0,0.0,0.0,0.0,0.0,0.0,0,0.0,0.0,0.0,0.0,0.0,0.0
2023-05-27,02:00:00,21.86578798294297,50.15852736464095,87.58902361700606,2.4109763829939346,3.6923282084449247,1,5.0,16.0,0.3,0.9,4.7,15.1,4.8,10.1,17.4,55.8,0.0,0.0,6.7,-0.3,61,1019.5,9.4,281,2,0,10,0,24140.0,0,0.0,0.0,0.0,0.0,0.0,0,90.0,2.6815397918794446,20.589920356083702,20.589920356083702,20.589920356083702,20.589920356083702
2023-05-27,04:00:00,25.713381688646717,74.9934312922565,74.1184412976775,15.881558702322495,5.6921706433176045,1,153.0,197.1,64.7,83.3,88.3,113.7,304.8,304.8,283.0,364.5,0.75,0.75,8.5,1.1,60,1019.8,13.0,289,9,0,0,0,17760.0,0,0.0,0.0,0.0,0.0,0.0,0,8330.0,138.80242778020383,29.04799502568566,29.04799502568566,29.04799502568566,29.04799502568566
2023-05-27,05:00:00,227.4039134341239,87.50331221115256,66.58088639926726,23.419113600732747,6.692091517962077,1,287.0,339.8,164.9,195.3,122.1,144.5,491.6,491.6,447.2,529.5,1.5,1.5,10.0,0.6,52,1020.0,13.7,298,18,0,0,0,24140.0,0,0.0,0.0,0.0,0.0,0.0,0,19530.0,182.473041472576,26.834124180146365,26.834124180146365,26.834124180146365,26.834124180146365
2023-05-27,06:00:00,750.4901109292111,100.7086125224292,58.97442981679277,31.025570183207236,7.692012164417148,1,429.0,483.5,288.1,324.8,140.9,158.8,630.3,630.3,609.3,686.7,2.45,2.45,10.8,-1.6,42,1020.6,18.4,299,1,0,0,0,24140.0,0,0.0,0.0,0.0,0.0,0.0,0,32480.0,369.3529316700664,31.290098779660468,31.290098779660468,31.290098779660468,31.290098779660468
2023-05-27,07:00:00,1345.009613685096,115.26149806926476,51.71898384449906,38.281016155500936,8.691932582934866,1,567.0,617.4,416.0,453.0,151.0,164.4,731.4,731.4,758.1,825.5,3.45,3.45,11.7,-0.5,43,1021.2,19.4,300,0,0,0,0,24140.0,0,0.0,0.0,0.0,0.0,0.0,0,45300.0,797.4691998494241,491.1763826821947,491.1763826821947,491.1763826821947,491.1763826821947
2023-05-27,08:00:00,1182.3910729173542,131.91650838485833,45.35881911974298,44.64118088025702,9.69185277376942,1,678.0,718.4,516.7,547.6,161.3,170.9,779.4,779.4,883.7,936.4,4.45,4.45,12.4,-1.5,38,1021.8,19.1,303,0,0,0,0,24140.0,0,0.0,0.0,0.0,0.0,0.0,0,54760.0,1173.5071315398725,471.1608262127013,471.1608262127013,471.1608262127013,471.1608262127013
2023-05-27,09:00:00,793.9538883624662,151.2612291436365,40.60617481496834,49.39382518503166,10.691772737176656,1,776.0,803.3,608.8,630.2,167.2,173.1,830.2,830.2,977.3,1011.7,5.2,5.2,12.8,-2.3,35,1022.2,19.4,294,0,0,0,0,24140.0,0,0.0,0.0,0.0,0.0,0.0,0,63020.00000000001,1483.4118032693475,848.0913987652619,848.0913987652619,848.0913987652619,848.0913987652619
2023-05-27,10:00:00,1496.118804059053,173.03040994749435,38.25288736616519,51.74711263383481,11.691692473412038,1,824.0,835.0,648.1,656.8,175.9,178.2,836.5,836.5,1032.7,1046.5,5.7,5.7,13.2,-2.3,34,1022.6,19.1,287,2,0,0,0,24140.0,0,0.0,0.0,0.0,0.0,0.0,0,65680.0,1634.8261212025411,1824.999006843566,1824.999006843566,1824.999006843566,1824.999006843566
2023-05-27,11:00:00,1836.0624022827385,195.52555905304715,38.81712490515353,51.18287509484647,12.691611982730215,1,818.0,812.0,633.0,628.3,185.0,183.7,806.4,806.4,1046.1,1038.4,5.8,5.8,13.5,-1.7,35,1022.5,17.6,283,8,0,0,0,24140.0,0,0.0,0.0,0.0,0.0,0.0,0,62829.99999999999,1610.2862317408462,2011.7000991920909,2011.7000991920909,2011.7000991920909,2011.7000991920909
2023-05-27,12:00:00,1202.7583375248328,216.4958807031174,42.16424366811943,47.835756331880575,13.691531265389424,1,775.0,753.1,588.4,571.8,186.6,181.3,771.4,771.4,1016.6,987.9,5.6,5.6,14.2,-1.1,35,1022.0,15.5,279,1,0,0,0,24140.0,0,0.0,0.0,0.0,0.0,0.0,0,57179.99999999999,1452.1496932579498,1686.7415103214566,1686.7415103214566,1686.7415103214566,1686.7415103214566
2023-05-27,13:00:00,1170.1352927003277,234.78606996226608,47.615815155660094,42.38418484433991,14.69145032164708,1,738.0,700.7,571.3,542.5,166.7,158.3,804.7,804.7,946.2,898.4,5.0,5.0,14.6,-0.7,35,1022.1,15.8,276,2,0,0,0,24140.0,0,0.0,0.0,0.0,0.0,0.0,0,54250.0,1269.168217045816,1204.6843523408447,1204.6843523408447,1204.6843523408447,1204.6843523408447
2023-05-27,14:00:00,871.226419378298,250.55625349267447,54.38342301117996,35.61657698882004,15.691369151759726,1,644.0,595.2,488.0,451.0,156.0,144.2,774.5,774.5,839.7,776.1,4.15,4.15,14.5,-0.8,35,1021.9,16.2,267,1,0,0,0,24140.0,0,0.0,0.0,0.0,0.0,0.0,0,45100.0,923.7646660666342,754.5714490907269,754.5714490907269,754.5714490907269,754.5714490907269
2023-05-27,15:00:00,237.8615671413294,264.51427417793855,61.818756186902434,28.181243813097566,16.691287755987542,1,527.0,470.8,381.1,340.5,145.9,130.3,721.0,721.0,704.5,629.4,3.15,3.15,14.6,-0.7,35,1021.5,14.4,266,6,0,0,0,24140.0,0,0.0,0.0,0.0,0.0,0.0,0,34050.0,500.61852794369366,263.7445128072441,263.7445128072441,263.7445128072441,263.7445128072441
2023-05-27,17:00:00,47.27175483062451,289.778290833764,76.83358233893041,13.166417661069593,18.691124287825133,1,238.0,187.3,126.5,99.6,111.5,87.7,437.0,437.0,385.8,303.6,1.2,1.2,14.0,-0.5,37,1021.4,12.2,258,13,0,0,0,24140.0,0,0.0,0.0,0.0,0.0,0.0,0,9960.0,98.48178904077842,24.864502757096744,24.864502757096744,24.864502757096744,24.864502757096744
2023-05-27,18:00:00,25.67298572434684,302.13665887064496,83.68087549424358,6.31912450575642,19.69104221595546,1,129.0,84.4,54.6,35.7,74.4,48.7,324.8,324.8,224.1,146.7,0.55,0.55,13.1,-0.2,40,1021.3,10.1,240,8,0,0,0,24140.0,0,0.0,0.0,0.0,0.0,0.0,0,3570.0000000000005,43.36151699613357,19.734390543877147,19.734390543877147,19.734390543877147,19.734390543877147
2023-05-28,01:00:00,17.45918654505633,37.13012722073967,92.71435478484474,-2.714354784844743,2.6904614328417877,0,0.0,0.0,0.0,0.0,0.0,0.0,0.0,0.0,0.0,0.0,0.0,0.0,6.2,-2.9,52,1019.0,12.6,172,7,0,0,0,24140.0,0,0.0,0.0,0.0,0.0,0.0,0,0.0,0.0,17.16755702412519,17.16755702412519,17.16755702412519,17.16755702412519
2023-05-28,02:00:00,21.308510440951817,50.0639039639175,87.44935975959577,2.5506402404042405,3.690377569586644,1,5.0,15.6,0.2,0.6,4.8,15.0,3.1,6.4,19.0,59.0,0.0,0.0,6.3,-2.4,54,1018.5,12.6,176,17,0,0,0,24140.0,0,0.0,0.0,0.0,0.0,0.0,0,60.0,2.563345179227732,21.86578798294297,21.86578798294297,21.86578798294297,21.86578798294297
2023-05-28,04:00:00,25.01025695285294,74.8781499784999,73.9919745285071,16.0080254714929,5.690209175149145,1,157.0,201.7,67.8,87.1,89.2,114.6,316.0,316.0,285.8,367.2,0.8,0.8,8.3,0.8,59,1017.9,17.3,176,4,0,0,0,24140.0,0,0.0,0.0,0.0,0.0,0.0,0,8710.0,140.18096914747926,25.713381688646717,25.713381688646717,25.713381688646717,25.713381688646717
2023-05-28,06:00:00,729.1106355707086,100.57771451959374,58.84971788150389,31.15028211849611,7.690039891924941,1,422.0,475.4,279.3,314.7,142.7,160.7,608.5,608.5,611.6,689.0,2.55,2.5,12.7,0.1,42,1016.4,22.7,189,9,0,0,5,24140.0,0,0.0,0.0,0.0,0.0,0.0,0,31470.0,359.37796838313864,750.4901109292111,750.4901109292111,750.4901109292111,750.4901109292111
2023-05-28,08:00:00,1948.0897451577127,131.78642521503593,45.21949389603829,44.78050610396171,9.68986972206186,1,656.0,695.0,486.6,515.6,169.4,179.4,732.1,732.1,885.7,938.4,4.55,4.55,17.1,1.5,35,1015.7,23.4,197,6,0,17,0,24140.0,0,0.0,0.0,0.0,0.0,0.0,0,51560.0,1104.6691979453406,1182.3910729173542,1182.3910729173542,1182.3910729173542,1182.3910729173542
2023-05-28,10:00:00,1805.6853377675016,172.96772119368993,38.09072746305156,51.90927253694844,11.689698667720345,1,785.0,795.5,592.4,600.3,192.6,195.2,762.8,762.8,1034.7,1048.5,5.85,5.85,18.8,1.7,32,1014.3,22.0,196,0,0,0,0,24140.0,0,0.0,0.0,0.0,0.0,0.0,0,60029.99999999999,1504.2527974956715,1496.118804059053,1496.118804059053,1496.118804059053,1496.118804059053
2023-05-28,15:00:00,84.71855428504318,264.58819362064787,61.66658144478335,28.333418555216653,16.68926717651916,1,505.0,451.5,353.9,316.4,151.1,135.1,666.5,666.5,707.3,632.4,3.2,3.1,19.0,3.5,36,1012.4,20.9,213,10,66,74,0,24140.0,0,0.0,0.0,0.0,0.0,0.0,0,10757.6,469.4666710426876,237.8615671413294,237.8615671413294,237.8615671413294,237.8615671413294
2023-05-29,09:00:00,1341.420451423698,151.0446560964904,40.30966373201802,49.69033626798198,10.687668681603355,1,761.0,787.7,586.7,607.2,174.3,180.5,796.4,796.4,981.1,1015.6,5.25,5.25,15.0,0.8,38,1015.1,13.7,317,5,0,8,0,24140.0,0,0.0,0.0,0.0,0.0,0.0,0,60720.00000000001,1401.7253945695527,1556.5791036442024,1556.5791036442024,1556.5791036442024,1556.5791036442024
2023-05-29,10:00:00,1505.7606923805054,172.90248556505094,37.93488957225979,52.06511042774021,11.687577826478911,1,806.0,816.8,620.9,629.3,185.1,187.5,797.9,797.9,1036.5,1050.4,5.7,5.7,15.6,-2.0,30,1015.2,14.4,300,4,0,14,0,24140.0,0,0.0,0.0,0.0,0.0,0.0,0,62929.99999999999,1541.325275576166,1805.6853377675016,1805.6853377675016,1805.6853377675016,1805.6853377675016
2023-05-29,11:00:00,1660.9824895363374,195.509806134887,38.49011031332444,51.50988968667557,12.687486757476908,1,827.0,821.0,643.0,638.4,184.0,182.7,815.5,815.5,1050.1,1042.5,5.85,5.85,16.2,-0.6,32,1015.6,16.9,280,13,3,25,0,24140.0,0,0.0,0.0,0.0,0.0,0.0,0,61924.8,1589.2783253506311,654.7550110151453,654.7550110151453,654.7550110151453,654.7550110151453
2023-05-29,12:00:00,963.5499755553612,216.5707801147441,41.84143140226643,48.15856859773357,13.687395474885813,1,740.0,719.3,535.1,520.1,204.9,199.2,698.1,698.1,1020.8,992.3,5.6,5.6,16.1,-2.4,28,1015.7,17.3,273,0,1,0,0,24140.0,0,0.0,0.0,0.0,0.0,0.0,0,51489.9,1354.1508974571816,42.1066742209882,42.1066742209882,42.1066742209882,42.1066742209882
2023-05-29,13:00:00,1120.1397542975035,234.9106986086385,47.3028093202722,42.6971906797278,14.687303978991713,1,740.0,703.0,571.8,543.2,168.2,159.8,800.9,800.9,950.8,903.2,5.0,5.0,15.9,-2.1,29,1015.4,18.0,269,0,0,0,0,24140.0,0,0.0,0.0,0.0,0.0,0.0,0,54320.00000000001,1256.0614297873544,122.30435011231071,122.30435011231071,122.30435011231071,122.30435011231071
2023-05-29,14:00:00,629.5958973583636,250.6988737186968,54.07895799520018,35.921042004799816,15.687212270082815,1,645.0,596.6,487.5,450.9,157.5,145.7,768.5,768.5,844.8,781.4,4.15,4.15,15.4,-0.8,33,1015.4,17.6,265,0,0,0,0,24140.0,0,0.0,0.0,0.0,0.0,0.0,0,45090.0,911.3738720099844,172.2296330600953,172.2296330600953,172.2296330600953,172.2296330600953
2023-05-29,16:00:00,83.41973078532321,277.52236903479974,69.13190430959493,20.868095690405067,17.687028214379023,1,359.0,306.6,219.6,187.5,139.4,119.0,526.3,526.3,555.7,474.5,2.15,1.8,14.4,0.3,38,1015.2,15.8,262,18,0,100,55,24140.0,0,0.0,0.0,0.0,0.0,0.0,0,18750.0,146.70333064730409,23.39379755697941,23.39379755697941,23.39379755697941,23.39379755697941
2023-05-30,10:00:00,1798.8962378830129,172.83480075709485,37.78542843999325,52.214571560006746,11.685333809079536,1,762.0,772.2,556.3,563.8,205.7,208.4,713.4,713.4,1038.3,1052.2,5.75,5.75,14.6,3.1,46,1016.6,17.3,317,18,45,0,0,24140.0,56,0.0,0.0,0.0,0.0,0.0,0,31009.0,1456.2351926724536,1505.7606923805054,1505.7606923805054,1505.7606923805054,1505.7606923805054
2023-05-30,12:00:00,1551.7449637786922,216.60044180392447,41.6880565263662,48.31194347363381,13.685141373463091,1,776.0,754.4,585.8,569.5,190.2,184.9,762.6,762.6,1022.8,994.3,5.6,5.6,15.1,2.6,43,1017.5,12.6,327,9,32,0,0,24140.0,6,0.0,0.0,0.0,0.0,0.0,0,38726.0,1415.028930274328,963.5499755553612,963.5499755553612,963.5499755553612,963.5499755553612
2023-05-30,13:00:00,1216.2043436919398,234.9647215864788,47.15358901333339,42.84641098666661,14.68504484617838,1,738.0,701.2,568.1,539.8,169.9,161.5,793.6,793.6,953.0,905.5,5.05,5.05,15.6,2.4,41,1017.4,10.4,329,1,57,49,0,24140.0,4,0.0,0.0,0.0,0.0,0.0,0,23211.4,1225.7462218858898,1120.1397542975035,1120.1397542975035,1120.1397542975035,1120.1397542975035
2023-05-30,14:00:00,680.3305196010608,250.7619715950858,53.93349893075765,36.06650106924236,15.684948112979043,1,644.0,595.9,485.3,449.1,158.7,146.8,762.6,762.6,847.2,784.0,4.2,4.2,15.7,1.8,39,1017.4,10.4,314,0,52,1,0,24140.0,2,0.0,0.0,0.0,0.0,0.0,0,21556.800000000003,891.8720936217967,629.5958973583636,629.5958973583636,629.5958973583636,629.5958973583636
2023-05-30,15:00:00,194.52998056239528,264.72026607068415,61.37523125407484,28.62476874592516,16.68485117417001,1,523.0,468.2,374.3,335.1,148.7,133.1,699.2,699.2,712.7,638.0,3.2,3.2,15.8,3.5,44,1017.9,15.8,278,0,19,0,0,24140.0,0,0.0,0.0,0.0,0.0,0.0,0,27143.1,484.2929075703569,272.5202858823716,272.5202858823716,272.5202858823716,272.5202858823716
2023-05-30,16:00:00,70.4982685234002,277.5813516346074,68.98844418437417,21.011555815625822,17.684754030053796,1,387.0,330.9,251.1,214.7,135.9,116.1,598.6,598.6,558.6,477.5,2.15,2.15,15.5,4.2,47,1018.0,15.1,273,1,0,0,0,24140.0,0,0.0,0.0,0.0,0.0,0.0,0,21470.0,143.34738101163205,83.41973078532321,83.41973078532321,83.41973078532321,83.41973078532321
2023-05-30,17:00:00,45.5239957702159,289.94704947465664,76.38502249249096,13.614977507509035,18.684656680935,1,248.0,196.6,134.7,106.8,113.3,89.8,453.5,453.5,395.4,313.6,1.25,1.25,14.5,4.8,52,1018.2,15.5,260,9,0,0,0,24140.0,0,0.0,0.0,0.0,0.0,0.0,0,10680.0,101.2035136590649,51.03982703818621,51.03982703818621,51.03982703818621,51.03982703818621
2023-05-30,18:00:00,25.489229878460893,302.2743417350094,83.22397806056156,6.7760219394384364,19.68455912711983,1,118.0,79.2,43.2,29.0,74.8,50.2,245.4,245.4,234.4,157.2,0.6,0.6,13.4,3.7,52,1017.7,14.4,254,2,0,5,0,24140.0,0,0.0,0.0,0.0,0.0,0.0,0,2900.0,46.67614301631438,20.63911845221497,20.63911845221497,20.63911845221497,20.63911845221497
2023-05-31,01:00:00,17.252710544464765,36.890553978675946,92.30770978619782,-2.307709786197825,2.6838705455673164,0,0.0,0.0,0.0,0.0,0.0,0.0,0.0,0.0,0.0,0.0,0.0,0.0,6.6,4.4,86,1016.2,8.6,201,0,31,0,0,24140.0,0,0.0,0.0,0.0,0.0,0.0,0,0.0,0.0,0.0,0.0,0.0,0.0
2023-05-31,02:00:00,21.034571875703524,49.78631842117656,87.06846185066911,2.9315381493308967,3.683771365235994,1,7.0,20.5,0.5,1.5,6.5,19.1,8.0,16.7,23.2,67.9,0.05,0.0,6.3,4.4,88,1015.6,10.4,202,0,3,4,1,24140.0,0,0.0,0.0,0.0,0.0,0.0,0,145.5,7.924002563859981,19.05755456999276,19.05755456999276,19.05755456999276,19.05755456999276
2023-05-31,03:00:00,23.61944165389892,62.25639519008127,80.74138030469467,9.25861969530532,4.683671982982563,1,68.0,104.4,20.7,31.8,47.3,72.7,178.3,197.5,139.3,214.0,0.3,0.3,7.3,3.9,79,1014.8,10.4,194,0,0,44,0,24140.0,0,0.0,0.0,0.0,0.0,0.0,0,3180.0,81.35600532984573,22.65760149352409,22.65760149352409,22.65760149352409,22.65760149352409
2023-05-31,04:00:00,24.862003345113948,74.54302904729924,73.64991023202747,16.350089767972534,5.683572399117176,1,171.0,218.2,79.2,101.1,91.8,117.1,359.4,359.4,293.5,374.5,0.8,0.8,8.9,2.9,66,1013.5,17.3,206,0,0,56,0,24140.0,0,0.0,0.0,0.0,0.0,0.0,0,10110.0,142.21892295191452,26.38212350254465,26.38212350254465,26.38212350254465,26.38212350254465
2023-05-31,05:00:00,273.22801417104694,87.02012049629546,66.12305326298839,23.87694673701161,6.683472613950593,1,295.0,347.8,171.4,202.0,123.6,145.8,499.3,499.3,456.8,538.6,1.6,1.55,10.9,3.9,62,1012.5,19.1,218,0,0,33,0,24140.0,0,0.0,0.0,0.0,0.0,0.0,0,20200.0,184.00849922981712,242.09958827400095,242.09958827400095,242.09958827400095,242.09958827400095
2023-05-31,06:00:00,705.256068545794,100.19662465752536,58.513203004490336,31.48679699550966,7.68337262779668,1,426.0,479.1,282.3,317.5,143.7,161.6,608.1,608.1,617.9,695.0,2.55,2.55,13.3,4.4,55,1011.6,19.4,219,0,0,15,0,24140.0,0,0.0,0.0,0.0,0.0,0.0,0,31750.0,348.5482349947844,261.7524456334739,261.7524456334739,261.7524456334739,261.7524456334739
2023-05-31,07:00:00,1267.2333376461877,114.73214691503432,51.237796200295065,38.762203799704935,8.683272440967862,1,552.0,600.4,394.5,429.0,157.5,171.3,685.4,685.4,766.1,833.2,3.6,3.6,15.6,5.5,51,1010.5,20.5,216,0,5,0,4,24140.0,0,0.0,0.0,0.0,0.0,0.0,0,40755.0,739.4711643919733,332.8732967769676,332.8732967769676,332.8732967769676,332.8732967769676
2023-05-31,08:00:00,787.189471527705,131.40119269155852,44.84055473487692,45.15944526512308,9.68317205377716,1,657.0,695.7,485.3,513.9,171.7,181.9,724.8,724.8,891.1,943.7,4.55,4.55,17.6,5.2,44,1009.5,21.2,226,1,20,14,0,24140.0,0,0.0,0.0,0.0,0.0,0.0,0,41112.0,1080.9684056885844,543.467218801889,543.467218801889,543.467218801889,543.467218801889
2023-05-31,10:00:00,671.7870753323106,172.76477153727734,37.64239658191622,52.35760341808378,11.682970679569705,1,750.0,760.1,537.4,544.6,212.6,215.5,687.8,687.8,1040.0,1053.9,5.8,5.8,18.3,7.7,50,1008.1,22.0,271,16,80,42,0,24140.0,0,0.0,0.0,0.0,0.0,0.0,0,10892.0,1408.490605002584,1798.8962378830129,1798.8962378830129,1798.8962378830129,1798.8962378830129
2023-05-31,14:00:00,669.7032433158859,250.8195771431132,53.792644224550905,36.207355775449095,15.682565540678944,1,628.0,581.3,463.5,429.0,164.5,152.3,726.1,726.1,849.5,786.4,4.2,4.2,17.3,4.9,44,1008.0,20.2,269,19,0,37,80,24140.0,0,0.0,0.0,0.0,0.0,0.0,0,42900.0,869.9178951469753,680.3305196010608,680.3305196010608,680.3305196010608,680.3305196010608
2023-05-31,15:00:00,424.165730405,264.7784047244161,61.23619305234405,28.76380694765595,16.682463759787364,1,517.0,463.1,366.2,328.0,150.8,135.1,681.5,681.5,715.2,640.6,3.2,3.2,16.7,4.7,45,1008.0,19.4,278,4,0,0,6,24140.0,0,0.0,0.0,0.0,0.0,0.0,0,32800.0,475.6528963789487,194.52998056239528,194.52998056239528,194.52998056239528,194.52998056239528
2023-05-31,16:00:00,167.77122915116323,277.63534992380124,68.84944012105744,21.150559878942563,17.682361781063793,1,389.0,332.9,252.8,216.3,136.2,116.6,599.3,599.3,561.3,480.4,2.2,2.2,16.1,3.5,43,1008.1,22.0,287,5,0,37,0,24140.0,0,0.0,0.0,0.0,0.0,0.0,0,21630.0,143.8594822827531,70.4982685234002,70.4982685234002,70.4982685234002,70.4982685234002
2023-05-31,17:00:00,51.65959029359824,289.9939337130307,76.24461618388989,13.755383816110111,18.682259604827053,1,256.0,203.5,142.3,113.1,113.7,90.4,475.2,475.2,398.4,316.7,1.25,1.25,15.0,3.5,46,1007.9,19.4,282,0,0,0,2,24140.0,0,0.0,0.0,0.0,0.0,0.0,0,11310.0,101.68150294179978,45.5239957702159,45.5239957702159,45.5239957702159,45.5239957702159
2023-06-01,01:00:00,17.01336966519,36.81186192689264,92.1850850849213,-2.185085084921301,2.6814351238112484,0,0.0,0.0,0.0,0.0,0.0,0.0,0.0,0.0,0.0,0.0,0.0,0.0,8.7,2.1,63,1007.5,17.3,283,0,0,0,0,24140.0,0,0.0,0.0,0.0,0.0,0.0,0,0.0,0.0,17.252710544464765,17.252710544464765,17.252710544464765,17.252710544464765
2023-06-01,02:00:00,20.870822211819075,49.696137215588166,86.95427532409721,3.045724675902794,3.681331184397665,1,8.0,23.1,0.8,2.2,7.2,20.9,12.0,24.9,24.4,70.6,0.05,0.05,8.8,1.5,60,1007.4,16.2,283,0,0,0,0,24140.0,0,0.0,0.0,0.0,0.0,0.0,0,220.00000000000003,9.972884977589192,21.034571875703524,21.034571875703524,21.034571875703524,21.034571875703524
2023-06-01,03:00:00,23.602119010498523,62.156813379275086,80.6345079873014,9.365492012698596,4.681227050691418,1,73.0,111.3,24.0,36.5,49.0,74.8,205.0,224.7,141.9,216.4,0.3,0.3,8.9,0.6,56,1007.5,15.5,285,0,0,0,0,24140.0,0,0.0,0.0,0.0,0.0,0.0,0,3650.0,82.91127270670373,23.61944165389892,23.61944165389892,23.61944165389892,23.61944165389892
2023-06-01,04:00:00,25.046422178699903,74.43520739070128,73.54837445560422,16.45162554439578,5.681122723017704,1,176.0,224.1,83.5,106.3,92.5,117.8,375.4,375.4,295.8,376.7,0.8,0.8,9.5,0.1,52,1007.6,16.6,286,0,23,8,0,24140.0,0,0.0,0.0,0.0,0.0,0.0,0,8185.099999999999,142.31899109592928,24.862003345113948,24.862003345113948,24.862003345113948,24.862003345113948
2023-06-01,05:00:00,35.94352749677331,86.90455524976417,66.0241630775533,23.9758369224467,6.681018201700753,1,307.0,361.7,183.7,216.4,123.3,145.3,532.7,532.7,458.8,540.5,1.6,1.6,10.3,-0.3,48,1007.6,17.6,286,0,24,31,0,24140.0,0,0.0,0.0,0.0,0.0,0.0,0,16446.4,183.9541661836085,273.22801417104694,273.22801417104694,273.22801417104694,273.22801417104694
2023-06-01,06:00:00,295.2749736102859,100.07387005217002,58.41359657930094,31.58640342069906,7.680913487068408,1,445.0,500.3,304.0,341.8,141.0,158.5,652.7,652.7,619.8,696.8,2.55,2.45,11.1,-0.4,45,1007.6,19.1,291,0,26,37,0,24140.0,0,0.0,0.0,0.0,0.0,0.0,0,25293.2,356.5150860396669,705.256068545794,705.256068545794,705.256068545794,705.256068545794
2023-06-01,07:00:00,1158.8173380334863,114.60433804677268,51.13348770756383,38.86651229243617,8.680808579447563,1,569.0,618.7,415.4,451.7,153.6,167.0,719.9,719.9,767.8,834.9,3.6,3.35,11.8,-0.4,43,1008.0,19.8,293,0,0,68,0,24140.0,0,0.0,0.0,0.0,0.0,0.0,0,45170.0,770.5841653304037,1267.2333376461877,1267.2333376461877,1267.2333376461877,1267.2333376461877
2023-06-01,08:00:00,499.91239340186274,131.2749682664596,44.72732256344539,45.27267743655461,9.680703479164205,1,686.0,726.4,523.3,554.1,162.7,172.3,779.9,779.9,892.7,945.3,4.55,4.45,11.8,-1.4,40,1008.3,19.8,288,0,23,0,0,24140.0,0,0.0,0.0,0.0,0.0,0.0,0,42665.7,1157.7535347724734,787.189471527705,787.189471527705,787.189471527705,787.189471527705
2023-06-01,09:00:00,654.8501535279194,150.7160910495103,39.914159173607445,50.08584082639256,10.680598186547886,1,771.0,797.9,597.5,618.3,173.5,179.6,806.2,806.2,986.1,1020.5,5.35,5.35,12.5,-1.1,39,1008.1,20.9,287,0,32,0,0,24140.0,0,0.0,0.0,0.0,0.0,0.0,0,42044.4,1440.999146070814,571.1177462801571,571.1177462801571,571.1177462801571,571.1177462801571
2023-06-01,11:00:00,851.9740522584306,195.45499098661955,38.04426392957509,51.95573607042491,12.68038702562938,1,813.0,807.3,619.6,615.3,193.4,192.0,781.2,781.2,1055.3,1047.9,5.9,5.9,12.8,-0.8,39,1008.8,21.6,280,15,48,0,0,24140.0,0,0.0,0.0,0.0,0.0,0.0,0,31995.6,1580.1585623027515,1603.0079316983083,1603.0079316983083,1603.0079316983083,1603.0079316983083
2023-06-01,16:00:00,98.4190523229271,277.68437120021207,68.71496272105156,21.28503727894844,17.679855780571884,1,371.0,317.8,231.3,198.2,139.7,119.7,545.7,545.7,564.0,483.2,2.2,2.15,11.4,-2.8,37,1009.9,20.5,294,11,44,40,18,24140.0,0,0.0,0.0,0.0,0.0,0.0,0,11099.2,151.26396356911275,167.77122915116323,167.77122915116323,167.77122915116323,167.77122915116323
2023-06-01,17:00:00,50.35898809397544,290.0361586774976,76.1088868323297,13.891113167670296,18.679748961165973,1,257.0,204.7,142.7,113.7,114.3,91.0,473.1,473.1,401.3,319.6,1.25,1.25,10.7,-3.8,36,1009.9,17.3,300,14,37,0,1,24140.0,0,0.0,0.0,0.0,0.0,0.0,0,7163.1,105.5036291557916,51.65959029359824,51.65959029359824,51.65959029359824,51.65959029359824
2023-06-01,18:00:00,30.79742565767189,302.3444624408433,82.94359210772332,7.056407892276675,19.67964195240466,1,143.0,97.3,63.7,43.3,79.3,53.9,352.2,352.2,240.6,163.7,0.6,0.6,10.3,-5.3,33,1010.3,15.8,307,0,24,0,0,24140.0,0,0.0,0.0,0.0,0.0,0.0,0,3290.8,51.56402155659914,26.30206751529572,26.30206751529572,26.30206751529572,26.30206751529572
2023-06-02,01:00:00,19.427979291125,36.73387260328781,92.06896891483396,-2.06896891483396,2.6788876181303998,0,0.0,0.0,0.0,0.0,0.0,0.0,0.0,0.0,0.0,0.0,0.0,0.0,3.8,-3.5,59,1010.4,9.0,277,0,0,0,0,24140.0,0,0.0,0.0,0.0,0.0,0.0,0,0.0,0.0,17.01336966519,17.01336966519,17.01336966519,17.01336966519
2023-06-02,02:00:00,21.284276722685966,49.60725887149905,86.84651236059031,3.1534876394096854,3.6787791065867945,1,8.0,22.8,0.6,1.9,7.4,21.0,10.2,21.3,25.6,73.1,0.05,0.05,3.8,-3.5,59,1010.8,12.2,290,17,2,0,0,24140.0,0,0.0,0.0,0.0,0.0,0.0,0,186.2,10.79598546985162,20.870822211819075,20.870822211819075,20.870822211819075,20.870822211819075
2023-06-02,04:00:00,25.683829987958863,74.32948577383833,73.45309415789367,16.54690584210632,5.678561524845005,1,177.0,225.0,84.0,106.7,93.0,118.2,374.9,374.9,298.0,378.7,0.8,0.8,7.5,-0.5,57,1011.3,15.8,307,1,29,0,0,24140.0,0,0.0,0.0,0.0,0.0,0.0,0,7575.7,144.66051516433512,25.046422178699903,25.046422178699903,25.046422178699903,25.046422178699903
2023-06-02,05:00:00,59.77561008805796,86.79129682070085,65.93150907117257,24.06849092882744,6.67845245532341,1,312.0,367.3,188.5,221.9,123.5,145.3,544.3,544.3,460.7,542.4,1.55,1.55,8.0,-0.5,55,1011.2,17.3,305,4,42,36,0,24140.0,0,0.0,0.0,0.0,0.0,0.0,0,12870.2,186.5449897448718,35.94352749677331,35.94352749677331,35.94352749677331,35.94352749677331
2023-06-03,05:00:00,242.48097832137427,86.68045281268081,65.84509033443928,24.154909665560726,6.675779983622446,1,301.0,354.1,176.5,207.6,124.5,146.5,507.4,507.4,462.5,544.1,1.55,1.55,8.9,0.8,57,1015.4,13.3,316,9,30,8,9,24140.0,0,0.0,0.0,0.0,0.0,0.0,0,14532.0,186.99440761995828,59.77561008805796,59.77561008805796,59.77561008805796,59.77561008805796
2023-06-03,06:00:00,695.4187890585349,99.83551390693871,58.23324292983485,31.766757070165152,7.675666384659165,1,448.0,503.3,306.7,344.5,141.3,158.8,654.5,654.5,623.1,700.0,2.5,2.5,9.7,0.1,51,1015.4,13.3,320,5,30,39,17,24140.0,0,0.0,0.0,0.0,0.0,0.0,0,24115.0,352.0210761825645,58.77485830121709,58.77485830121709,58.77485830121709,58.77485830121709
2023-06-03,15:00:00,307.6387647093409,264.9212311182546,60.84644903763728,29.15355096236272,16.67463608786999,1,496.0,445.0,337.2,302.6,158.8,142.5,620.8,620.8,722.2,648.0,3.2,3.05,13.9,0.8,41,1015.3,20.5,261,7,0,78,3,24140.0,0,0.0,0.0,0.0,0.0,0.0,0,30260.000000000004,460.0555936478253,26.13066510839275,26.13066510839275,26.13066510839275,26.13066510839275
2023-06-05,04:00:00,28.452949484834647,74.02587527807185,73.20480232558897,16.795197674411025,5.670255723255552,1,168.0,212.5,74.3,94.0,93.7,118.5,325.4,325.4,303.5,384.0,0.85,0.85,9.2,5.4,77,1016.2,10.8,239,5,39,84,0,24140.0,0,0.0,0.0,0.0,0.0,0.0,0,5734.0,144.64935453741484,24.186627873037363,24.186627873037363,24.186627873037363,24.186627873037363
2023-06-05,05:00:00,232.9889475146861,86.46643894163452,65.69093986057302,24.309060139426983,6.670134213534838,1,296.0,347.7,170.3,200.0,125.7,147.7,486.0,486.0,465.7,547.0,1.6,1.55,11.4,5.3,66,1016.0,13.0,248,16,43,57,6,24140.0,0,0.0,0.0,0.0,0.0,0.0,0,11400.0,185.9415918382918,61.42191751757255,61.42191751757255,61.42191751757255,61.42191751757255
2023-06-05,08:00:00,1931.532919377258,130.78525074991944,44.34015087207767,45.65984912792233,9.669768729276258,1,639.0,676.3,456.5,483.1,182.5,193.2,675.5,675.5,898.0,950.5,4.65,4.6,15.4,5.9,53,1016.2,17.6,263,8,8,0,14,24140.0,0,0.0,0.0,0.0,0.0,0.0,0,44445.2,1029.129249381827,1634.4466203520117,1634.4466203520117,1634.4466203520117,1634.4466203520117
2023-06-05,09:00:00,1036.0828535758667,150.27756403855506,39.480102004624776,50.51989799537522,10.669646584087124,1,741.0,766.8,552.4,571.6,188.6,195.2,740.5,740.5,991.3,1025.8,5.4,5.35,16.2,4.9,47,1016.2,19.8,270,0,0,0,39,24140.0,0,0.0,0.0,0.0,0.0,0.0,0,57160.0,1327.3169264148264,1051.9581599151377,1051.9581599151377,1051.9581599151377,1051.9581599151377
2023-06-05,10:00:00,2230.7464097066804,172.38360252142556,37.02534864838934,52.97465135161066,11.669524280978749,1,799.0,809.8,603.8,611.9,195.2,197.9,766.4,766.4,1046.9,1061.1,5.9,5.7,16.8,4.5,44,1016.2,21.2,268,0,0,0,4,24140.0,0,0.0,0.0,0.0,0.0,0.0,0,61190.0,1495.8699546709763,1011.0596231566352,1011.0596231566352,1011.0596231566352,1011.0596231566352
2023-06-05,11:00:00,2148.18108375336,195.3260029715434,37.53571928957946,52.46428071042054,12.669401820331272,1,812.0,806.5,614.0,609.9,198.0,196.7,769.0,769.0,1061.1,1053.9,6.05,6.0,17.6,4.8,43,1016.4,22.0,262,1,0,0,0,24140.0,0,0.0,0.0,0.0,0.0,0.0,0,60990.0,1517.885235060863,1776.6983592767958,1776.6983592767958,1776.6983592767958,1776.6983592767958
2023-06-05,12:00:00,1831.830161393671,216.6699211435268,40.88428897344182,49.11571102655818,13.669279202525304,1,786.0,764.7,593.3,577.3,192.7,187.4,763.5,763.5,1032.8,1004.8,5.8,5.8,17.7,5.0,43,1016.3,21.6,258,2,0,0,0,24140.0,0,0.0,0.0,0.0,0.0,0.0,0,57729.99999999999,1411.05647660808,767.4031938989468,767.4031938989468,767.4031938989468,767.4031938989468
2023-06-05,13:00:00,1397.9754806056487,235.172342430133,46.364329468469606,43.6356705315304,14.669156427941935,1,720.0,685.0,537.1,511.0,182.9,174.0,740.4,740.4,964.0,917.2,5.2,5.2,18.3,5.5,43,1016.3,21.2,262,19,0,0,13,24140.0,0,0.0,0.0,0.0,0.0,0.0,0,51100.0,1172.4742281195126,181.2367148383828,181.2367148383828,181.2367148383828,181.2367148383828
2023-06-05,15:00:00,208.4379567835992,264.99020887008294,60.61011143210972,29.389888567890285,16.668910409969826,1,519.0,466.1,365.1,327.9,153.9,138.3,667.9,667.9,726.3,652.3,3.3,3.3,17.4,4.4,42,1015.8,21.6,259,0,0,20,0,24140.0,0,0.0,0.0,0.0,0.0,0.0,0,32790.0,465.0655722310747,30.204674811758117,30.204674811758117,30.204674811758117,30.204674811758117
2023-06-05,16:00:00,76.20114626397941,277.8309592954208,68.22372018944098,21.776279810559014,17.668787167345705,1,390.0,335.3,250.9,215.7,139.1,119.6,581.3,581.3,573.6,493.2,2.25,2.25,16.7,6.8,52,1015.9,19.4,264,0,0,50,25,24140.0,0,0.0,0.0,0.0,0.0,0.0,0,21570.0,147.42340391901675,27.221933435326108,27.221933435326108,27.221933435326108,27.221933435326108
2023-06-05,17:00:00,48.6352910932185,290.1589098947132,75.6141546977325,14.385845302267494,18.668663769472907,1,259.0,207.8,142.6,114.4,116.4,93.4,460.3,460.3,411.6,330.3,1.35,1.3,15.8,7.3,57,1015.9,17.3,254,4,0,45,22,24140.0,0,0.0,0.0,0.0,0.0,0.0,0,11440.0,105.6171311055793,23.77067890431041,23.77067890431041,23.77067890431041,23.77067890431041
2023-06-05,18:00:00,28.893588883611223,302.4337334293241,82.4434862018162,7.556513798183804,19.66854021673647,1,138.0,95.9,57.2,39.8,80.8,56.2,302.0,302.0,251.6,174.9,0.65,0.6,14.9,7.2,60,1015.7,16.9,252,14,7,52,0,24140.0,0,0.0,0.0,0.0,0.0,0.0,0,3701.4,53.82165067504969,20.947844504663237,20.947844504663237,20.947844504663237,20.947844504663237
2023-06-06,12:00:00,954.4131611666796,216.6636648695693,40.770324761884666,49.22967523811533,13.66629022657168,1,749.0,728.8,538.4,523.9,210.6,204.9,691.7,691.7,1034.1,1006.2,5.75,5.55,20.0,10.7,55,1015.5,10.1,351,14,25,55,50,11980.0,13,0.0,0.0,0.0,0.0,0.0,0,39292.5,1278.1788571820175,1831.830161393671,1831.830161393671,1831.830161393671,1831.830161393671
2023-06-06,14:00:00,332.4398302733373,251.04982430826925,53.04793303790965,36.95206696209035,15.666037236144197,1,608.0,563.9,430.7,399.5,177.3,164.4,664.4,664.4,861.2,798.7,4.35,2.65,21.8,12.3,55,1014.9,10.8,310,5,8,7,5,24140.0,11,0.0,0.0,0.0,0.0,0.0,0,36754.0,787.8126077321115,718.6976296235065,718.6976296235065,718.6976296235065,718.6976296235065
2023-06-06,15:00:00,179.1759180178997,265.0168736316176,60.49919355924469,29.500806440755312,16.665910520681784,1,502.0,451.1,342.6,307.9,159.4,143.2,625.1,625.1,728.2,654.3,3.3,3.0,20.9,11.5,55,1014.5,8.6,278,4,13,53,61,24140.0,10,0.0,0.0,0.0,0.0,0.0,0,26787.3,437.0850380181407,208.4379567835992,208.4379567835992,208.4379567835992,208.4379567835992
2023-06-07,02:00:00,21.67436535487303,49.18520790002266,86.40451718369464,3.5954828163053665,3.6645070821426753,1,11.0,30.2,1.4,3.9,9.6,26.3,20.8,44.4,30.3,83.3,0.05,0.05,9.0,3.2,67,1016.5,7.6,329,17,0,0,0,24140.0,0,0.0,0.0,0.0,0.0,0.0,0,390.0,16.892197721489225,22.106006030076067,22.106006030076067,22.106006030076067,22.106006030076067
2023-06-07,03:00:00,24.73878280410816,61.59941023687342,80.12635788536275,9.873642114637256,4.664378637109001,1,78.0,115.4,25.6,37.8,52.4,77.6,211.2,220.7,153.9,227.7,0.3,0.3,9.6,3.3,65,1016.6,9.0,334,2,0,0,3,24140.0,0,0.0,0.0,0.0,0.0,0.0,0,3780.0,86.64074363310861,25.69697018738029,25.69697018738029,25.69697018738029,25.69697018738029
2023-06-07,04:00:00,25.43091854059902,73.83572107503169,73.07052984209751,16.929470157902482,5.664250050528305,1,181.0,228.4,86.0,108.5,95.0,119.9,372.7,372.7,306.5,386.8,0.85,0.85,10.7,3.3,60,1017.2,9.4,334,0,0,0,0,24140.0,0,0.0,0.0,0.0,0.0,0.0,0,10850.0,144.0853684451753,28.43758718764931,28.43758718764931,28.43758718764931,28.43758718764931
2023-06-07,05:00:00,208.38169286010336,86.26337378346761,65.56164411075241,24.4383558892476,6.664121322800262,1,305.0,357.9,179.5,210.6,125.5,147.3,509.0,509.0,468.3,549.5,1.65,1.65,11.7,3.5,57,1017.3,9.0,334,0,0,0,0,24140.0,0,0.0,0.0,0.0,0.0,0.0,0,21060.0,184.86604442940103,70.54343317774041,70.54343317774041,70.54343317774041,70.54343317774041
2023-06-07,06:00:00,448.0733119950432,99.3908789170516,57.94780662611646,32.05219337388354,7.663992454326021,1,437.0,490.3,292.4,328.0,144.6,162.3,618.1,618.1,628.3,704.9,2.6,2.6,12.6,2.7,51,1017.7,8.6,333,0,0,0,0,24140.0,0,0.0,0.0,0.0,0.0,0.0,0,32800.0,329.37042389323443,104.12931751627444,104.12931751627444,104.12931751627444,104.12931751627444
2023-06-07,07:00:00,1531.0541053906015,113.88651416222446,50.64216067569135,39.35783932430865,8.663863445506164,1,563.0,611.5,404.9,439.8,158.1,171.7,693.4,693.4,775.5,842.3,3.65,3.65,14.7,3.2,46,1018.1,8.3,330,0,0,0,0,24140.0,0,0.0,0.0,0.0,0.0,0.0,0,43980.0,712.6338086649505,322.0304694086345,322.0304694086345,322.0304694086345,322.0304694086345
2023-06-07,08:00:00,1760.0265235747097,130.55178284115232,44.18608952566598,45.81391047433402,9.663734296740188,1,673.0,712.2,502.3,531.6,170.7,180.6,741.3,741.3,900.0,952.5,4.65,4.65,15.8,3.5,44,1018.4,9.0,326,0,0,0,0,24140.0,0,0.0,0.0,0.0,0.0,0.0,0,53160.0,1056.4746355931754,807.007174581773,807.007174581773,807.007174581773,807.007174581773
2023-06-07,09:00:00,1531.6284936248696,150.0610822112211,39.30346613649746,50.69653386350254,10.663605008431576,1,758.0,784.3,575.1,595.1,182.9,189.3,769.0,769.0,993.3,1027.8,5.45,5.45,16.4,3.1,41,1018.5,9.4,320,0,0,0,0,24140.0,0,0.0,0.0,0.0,0.0,0.0,0,59510.0,1315.3255610214217,538.6131715458332,538.6131715458332,538.6131715458332,538.6131715458332
2023-06-07,10:00:00,2115.1321309649065,172.21913626534916,36.82510102735906,53.17489897264094,11.663475580981196,1,814.0,825.0,623.7,632.1,190.3,192.9,789.7,789.7,1049.0,1063.2,5.95,5.95,17.7,3.5,39,1018.7,9.7,310,0,7,0,0,24140.0,0,0.0,0.0,0.0,0.0,0.0,0,58785.3,1464.3462367906657,156.5738655183556,156.5738655183556,156.5738655183556,156.5738655183556
2023-06-07,11:00:00,1991.0976089555136,195.2389201395873,37.319273654214165,52.68072634578584,12.663346014790385,1,829.0,823.5,636.7,632.5,192.3,191.0,795.3,795.3,1063.3,1056.3,6.05,6.05,17.9,2.6,36,1018.6,11.5,297,0,4,0,0,24140.0,0,0.0,0.0,0.0,0.0,0.0,0,60720.0,1501.4749178319896,757.4592916273059,757.4592916273059,757.4592916273059,757.4592916273059
2023-06-07,12:00:00,1554.8337957365918,216.65242615499844,40.66223557630893,49.33776442369107,13.663216310263412,1,800.0,778.5,611.5,595.1,188.5,183.4,784.5,784.5,1035.3,1007.6,5.8,5.8,18.1,3.1,37,1018.3,13.3,283,0,0,0,0,24140.0,0,0.0,0.0,0.0,0.0,0.0,0,59510.0,1401.5006675420466,954.4131611666796,954.4131611666796,954.4131611666796,954.4131611666796
2023-06-07,13:00:00,1117.6333428246585,235.19739116344527,46.14319643563529,43.85680356436471,14.663086467803,1,733.0,697.6,553.6,526.9,179.4,170.8,760.4,760.4,966.9,920.3,5.25,5.25,18.3,3.7,38,1018.2,15.1,271,0,0,0,0,24140.0,0,0.0,0.0,0.0,0.0,0.0,0,52690.0,1175.737221505062,543.6291735153585,543.6291735153585,543.6291735153585,543.6291735153585
2023-06-07,14:00:00,619.6921727863946,251.06906597057585,52.94116817767701,37.05883182232299,15.662956487812266,1,642.0,595.6,476.2,441.7,165.8,153.9,733.0,733.0,862.8,800.4,4.35,4.35,17.9,4.4,41,1018.2,16.2,268,0,0,0,0,24140.0,0,0.0,0.0,0.0,0.0,0.0,0,44170.0,857.7201212596952,332.4398302733373,332.4398302733373,332.4398302733373,332.4398302733373
2023-06-07,15:00:00,233.31938756386555,265.0383536116666,60.39319910284211,29.60680089715789,16.662826370696305,1,526.0,472.8,372.6,334.9,153.4,137.9,677.9,677.9,730.0,656.2,3.35,3.35,17.3,4.9,44,1018.0,15.1,265,0,0,0,0,24140.0,0,0.0,0.0,0.0,0.0,0.0,0,33490.0,465.2067156883539,179.1759180178997,179.1759180178997,179.1759180178997,179.1759180178997
2023-06-07,16:00:00,92.65601593110424,277.8748485503671,68.00706645006778,21.992933549932225,17.66269611685912,1,393.0,338.4,253.3,218.2,139.7,120.3,582.5,582.5,577.6,497.4,2.3,2.3,16.9,4.8,45,1017.8,14.0,263,0,0,0,0,24140.0,0,0.0,0.0,0.0,0.0,0.0,0,21820.0,148.10569535623384,29.77556091701768,29.77556091701768,29.77556091701768,29.77556091701768
2023-06-07,17:00:00,50.12021977359135,290.19299607581934,75.39667012792324,14.603329872076753,18.66256572670564,1,263.0,211.7,145.8,117.4,117.2,94.3,465.5,465.5,416.0,334.9,1.4,1.4,16.3,4.3,45,1017.5,13.7,262,0,0,0,0,24140.0,0,0.0,0.0,0.0,0.0,0.0,0,11740.0,106.4806712257634,23.2405172271437,23.2405172271437,23.2405172271437,23.2405172271437
2023-06-07,18:00:00,29.450798445600583,302.453465390884,82.22485896707302,7.7751410329269826,19.66243520064124,1,144.0,101.0,61.6,43.2,82.4,57.8,319.4,319.4,256.2,179.7,0.65,0.65,14.8,3.6,47,1017.1,12.2,254,0,0,0,0,24140.0,0,0.0,0.0,0.0,0.0,0.0,0,4320.0,55.83212131884927,21.815267912606654,21.815267912606654,21.815267912606654,21.815267912606654
2023-06-07,19:00:00,21.823301588341465,314.98197675503286,88.1698863725051,1.8301136274949013,20.662304539071688,1,52.0,20.2,14.4,5.6,37.6,14.6,138.6,63.9,109.2,42.4,0.2,0.2,13.3,4.5,55,1017.3,10.8,245,0,0,0,0,24140.0,0,0.0,0.0,0.0,0.0,0.0,0,560.0,1.9566236683264349,19.5150392860527,19.5150392860527,19.5150392860527,19.5150392860527
2023-06-08,01:00:00,19.017365708428613,36.28490645453016,91.51011166101092,-1.5101116610109049,2.661517747728197,0,0.0,0.0,0.0,0.0,0.0,0.0,0.0,0.0,0.0,0.0,0.0,0.0,7.6,5.1,84,1016.7,5.4,229,0,0,0,0,24140.0,0,0.0,0.0,0.0,0.0,0.0,0,0.0,0.0,19.43442473079613,19.43442473079613,19.43442473079613,19.43442473079613
2023-06-08,02:00:00,21.674789683663064,49.10583554456548,86.33553610237767,3.664463897622321,3.66138614902088,1,12.0,32.8,1.8,4.9,10.2,27.9,26.4,56.5,31.0,84.8,0.05,0.05,7.6,5.2,85,1016.4,5.0,228,0,0,0,0,24140.0,0,0.0,0.0,0.0,0.0,0.0,0,490.00000000000006,19.200880757253845,21.67436535487303,21.67436535487303,21.67436535487303,21.67436535487303
2023-06-08,03:00:00,24.06845971827647,61.51400473337544,80.06386341347059,9.93613658652942,4.661254418070128,1,79.0,116.5,26.1,38.4,52.9,78.1,214.4,222.8,155.4,229.1,0.35,0.3,7.7,4.6,81,1016.3,4.7,221,0,0,0,0,24140.0,0,0.0,0.0,0.0,0.0,0.0,0,3840.0,88.26857249964625,24.73878280410816,24.73878280410816,24.73878280410816,24.73878280410816
2023-06-08,04:00:00,24.78962084222549,73.74460680572311,73.01274427579918,16.987255724200825,5.661122555285521,1,181.0,228.1,85.7,108.1,95.3,120.1,369.9,369.9,307.8,388.0,0.85,0.85,8.9,4.1,72,1016.2,3.6,238,0,0,0,0,24140.0,0,0.0,0.0,0.0,0.0,0.0,0,10810.0,145.5771934735983,25.43091854059902,25.43091854059902,25.43091854059902,25.43091854059902
2023-06-08,05:00:00,232.7826372109588,86.16621410177976,65.50628274266262,24.49371725733738,6.660990561076604,1,305.0,357.7,179.2,210.2,125.8,147.5,506.9,506.9,469.4,550.5,1.65,1.65,11.0,2.5,56,1016.1,5.0,313,0,0,0,2,24140.0,0,0.0,0.0,0.0,0.0,0.0,0,21020.0,185.4811028491309,208.38169286010336,208.38169286010336,208.38169286010336,208.38169286010336
2023-06-08,06:00:00,609.6511866112586,99.28712090328662,57.89205882883801,32.10794117116199,7.660858435855349,1,438.0,491.3,293.3,328.9,144.7,162.3,618.9,618.9,629.3,705.8,2.65,2.65,12.7,0.4,43,1015.9,4.0,344,0,0,0,0,24140.0,0,0.0,0.0,0.0,0.0,0.0,0,32890.0,325.0391486776288,448.0733119950432,448.0733119950432,448.0733119950432,448.0733119950432
2023-06-08,07:00:00,1240.9771096312018,113.77638785607311,50.58263069126325,39.41736930873675,8.660726180031077,1,559.0,607.1,399.3,433.7,159.7,173.4,683.0,683.0,776.4,843.2,3.7,3.7,14.9,0.3,37,1016.0,3.2,294,3,0,0,0,24140.0,0,0.0,0.0,0.0,0.0,0.0,0,43370.0,695.4924786932238,1531.0541053906015,1531.0541053906015,1531.0541053906015,1531.0541053906015
2023-06-08,08:00:00,1851.2276901741268,130.43847220531737,44.11893482113185,45.88106517886815,9.660593794015057,1,643.0,680.4,460.3,487.1,182.7,193.3,678.6,678.6,900.9,953.3,4.65,4.65,18.1,3.9,39,1015.6,6.5,222,12,0,0,0,24140.0,0,0.0,0.0,0.0,0.0,0.0,0,48710.0,983.8667364609148,1760.0265235747097,1760.0265235747097,1760.0265235747097,1760.0265235747097
2023-06-08,09:00:00,954.7690880667768,149.95414094386365,39.2252992535506,50.7747007464494,10.660461278220517,1,729.0,754.3,533.1,551.6,195.9,202.7,712.1,712.1,994.1,1028.7,5.45,5.45,18.4,3.1,36,1015.4,7.2,242,1,0,0,0,24140.0,0,0.0,0.0,0.0,0.0,0.0,0,55160.0,1233.165649177503,1531.6284936248696,1531.6284936248696,1531.6284936248696,1531.6284936248696
2023-06-08,10:00:00,771.294708469407,172.13491622648334,36.73510146420692,53.26489853579308,11.660328633058004,1,796.0,806.8,597.1,605.2,198.9,201.6,755.2,755.2,1049.9,1064.2,5.95,5.95,19.8,4.3,36,1014.7,9.0,237,0,0,0,0,24140.0,0,0.0,0.0,0.0,0.0,0.0,0,60520.00000000001,1404.611377737345,2115.1321309649065,2115.1321309649065,2115.1321309649065,2115.1321309649065
2023-06-08,11:00:00,673.9700980806178,195.1900634095659,37.22068762486023,52.779312375139774,12.660195858940062,1,814.0,808.7,614.3,610.3,199.7,198.3,766.4,766.4,1064.3,1057.4,6.05,6.05,20.9,4.5,34,1014.3,13.7,326,3,5,0,0,24140.0,0,0.0,0.0,0.0,0.0,0.0,0,57978.49999999999,1453.8464808366248,1991.0976089555136,1991.0976089555136,1991.0976089555136,1991.0976089555136
2023-06-08,12:00:00,1484.1928771171777,216.6362640197393,40.56007970192458,49.43992029807542,13.660062956280592,1,789.0,767.9,595.0,579.1,194.0,188.8,762.3,762.3,1036.5,1008.8,5.8,5.8,22.0,6.2,36,1013.8,11.5,309,4,27,58,0,24140.0,0,0.0,0.0,0.0,0.0,0.0,0,42274.3,1340.1988291019538,1554.8337957365918,1554.8337957365918,1554.8337957365918,1554.8337957365918
2023-06-08,13:00:00,1296.115932483935,235.2017483179821,46.040781934243306,43.95921806575669,14.659929925492955,1,726.0,691.1,543.0,516.9,183.0,174.2,744.6,744.6,968.3,921.7,5.25,5.25,22.3,6.9,37,1013.4,13.7,285,3,2,0,4,24140.0,0,0.0,0.0,0.0,0.0,0.0,0,50656.2,1131.5972162970545,1117.6333428246585,1117.6333428246585,1117.6333428246585,1117.6333428246585
2023-06-08,14:00:00,311.41233042554364,251.08289997765627,52.83953603641645,37.16046396358355,15.659796766989336,1,633.0,587.4,463.3,430.0,169.7,157.4,711.8,711.8,864.3,802.0,4.35,4.35,20.2,6.5,41,1013.2,15.5,286,3,0,0,8,24140.0,0,0.0,0.0,0.0,0.0,0.0,0,43000.0,831.1883749856704,619.6921727863946,619.6921727863946,619.6921727863946,619.6921727863946
2023-06-08,16:00:00,110.99308662235092,277.8895409019895,67.90621905670083,22.09378094329916,17.659530068495236,1,309.0,266.3,153.4,132.2,155.6,134.1,351.4,351.4,579.5,499.4,2.3,2.25,18.8,8.1,50,1013.6,15.1,275,6,0,59,0,24140.0,0,0.0,0.0,0.0,0.0,0.0,0,13219.999999999998,161.0111691666473,92.65601593110424,92.65601593110424,92.65601593110424,92.65601593110424
2023-06-08,17:00:00,55.22248577897935,290.20333876623545,75.29563468738179,14.704365312618211,18.65939652933324,1,258.0,208.0,140.1,112.9,117.9,95.0,444.9,444.9,418.0,337.0,1.4,1.4,16.6,8.6,59,1013.8,15.5,308,16,54,52,0,24140.0,0,0.0,0.0,0.0,0.0,0.0,0,5193.400000000001,107.44529879998868,50.12021977359135,50.12021977359135,50.12021977359135,50.12021977359135
2023-06-09,01:00:00,17.574541167375358,36.21396275649783,91.44007907196068,-1.4400790719606886,2.658323713905069,0,0.0,0.0,0.0,0.0,0.0,0.0,0.0,0.0,0.0,0.0,0.0,0.0,10.2,3.2,62,1017.6,15.1,357,0,0,0,0,24140.0,0,0.0,0.0,0.0,0.0,0.0,0,0.0,0.0,19.017365708428613,19.017365708428613,19.017365708428613,19.017365708428613
2023-06-09,02:00:00,21.67151029993202,49.02833478674426,86.27303263353053,3.726967366469464,3.6581890552407534,1,12.0,32.7,1.7,4.7,10.3,28.0,25.0,53.7,31.7,86.2,0.05,0.05,10.1,3.6,64,1018.1,16.9,353,0,0,0,0,24140.0,0,0.0,0.0,0.0,0.0,0.0,0,470.0,18.87217148124316,21.674789683663064,21.674789683663064,21.674789683663064,21.674789683663064
2023-06-09,03:00:00,23.466674060261298,61.43097454207105,80.0076985710882,9.992301428911809,4.658054274276626,1,79.0,116.1,25.8,38.0,53.2,78.2,211.7,218.9,156.7,230.3,0.35,0.35,10.4,3.4,62,1018.6,16.2,6,0,0,0,0,24140.0,0,0.0,0.0,0.0,0.0,0.0,0,3800.0,87.27622125006243,24.06845971827647,24.06845971827647,24.06845971827647,24.06845971827647
2023-06-09,04:00:00,24.965802405380398,73.65626129760486,72.96117426968962,17.03882573031038,5.65791937143202,1,183.0,230.4,87.4,110.1,95.6,120.4,375.6,375.6,308.9,389.0,0.85,0.85,10.3,3.1,61,1018.9,14.8,9,0,0,0,0,24140.0,0,0.0,0.0,0.0,0.0,0.0,0,11010.0,145.41881512371882,24.78962084222549,24.78962084222549,24.78962084222549,24.78962084222549
2023-06-09,05:00:00,207.235901079893,86.07211081062857,65.45708846660771,24.542911533392285,6.657784347126126,1,309.0,362.2,183.3,214.9,125.7,147.4,517.4,517.4,470.4,551.4,1.65,1.65,11.2,3.7,60,1019.3,14.8,14,0,0,0,0,24140.0,0,0.0,0.0,0.0,0.0,0.0,0,21490.0,186.1300486722997,232.7826372109588,232.7826372109588,232.7826372109588,232.7826372109588
2023-06-09,06:00:00,609.6927489918005,99.18656635671624,57.8425195765203,32.1574804234797,7.657649201780069,1,441.0,494.5,296.6,332.6,144.4,161.9,624.9,624.9,630.1,706.6,2.6,2.6,12.3,4.0,57,1020.1,15.1,11,0,1,0,0,24140.0,0,0.0,0.0,0.0,0.0,0.0,0,32927.4,327.1998240485631,609.6511866112586,609.6511866112586,609.6511866112586,609.6511866112586
2023-06-09,07:00:00,1629.980175959104,113.6693587919481,50.52945207559646,39.47054792440354,8.657513935813823,1,571.0,620.0,414.5,450.1,156.5,170.0,708.0,708.0,777.2,843.9,3.65,3.65,13.7,4.0,52,1020.7,14.8,6,0,8,0,0,24140.0,0,0.0,0.0,0.0,0.0,0.0,0,41409.2,726.2237709552132,1240.9771096312018,1240.9771096312018,1240.9771096312018,1240.9771096312018
2023-06-09,08:00:00,1952.857283433436,130.3276631386137,44.05835360380995,45.94164639619005,9.657378549647758,1,685.0,724.8,517.6,547.7,167.4,177.1,762.2,762.2,901.6,954.0,4.65,4.65,14.0,2.8,47,1021.2,15.1,1,0,0,0,0,24140.0,0,0.0,0.0,0.0,0.0,0.0,0,54770.00000000001,1093.608744222502,1851.2276901741268,1851.2276901741268,1851.2276901741268,1851.2276901741268
2023-06-09,09:00:00,1410.2571965988,149.84830202267133,39.15391134474545,50.84608865525455,10.657243043704677,1,772.0,798.8,593.5,614.1,178.5,184.7,792.0,792.0,994.9,1029.4,5.4,5.4,14.9,2.1,42,1022.1,15.5,8,0,0,0,0,24140.0,0,0.0,0.0,0.0,0.0,0.0,0,61410.0,1367.42938964183,954.7690880667768,954.7690880667768,954.7690880667768,954.7690880667768
2023-06-09,10:00:00,2261.538908873235,172.0495821878915,36.65189128778809,53.34810871221191,11.657107418404678,1,824.0,835.2,636.6,645.2,187.4,190.0,804.3,804.3,1050.7,1065.0,5.9,5.9,15.5,0.8,37,1022.4,13.3,13,0,0,0,0,24140.0,0,0.0,0.0,0.0,0.0,0.0,0,64520.00000000001,1511.4792861549422,771.294708469407,771.294708469407,771.294708469407,771.294708469407
2023-06-09,11:00:00,1685.6454279633897,195.1378089620737,37.12858955609119,52.871410443908815,12.656971674169796,1,847.0,841.5,660.7,656.5,186.3,185.1,823.4,823.4,1065.3,1058.4,6.05,6.05,16.2,-0.5,32,1022.3,12.6,22,0,1,0,0,24140.0,0,0.0,0.0,0.0,0.0,0.0,0,64993.5,1548.928501157359,673.9700980806178,673.9700980806178,673.9700980806178,673.9700980806178
2023-06-09,12:00:00,1235.2937934121398,216.61524476431603,40.4639142145122,49.5360857854878,13.656835811423976,1,824.0,802.1,643.6,626.5,180.4,175.5,823.5,823.5,1037.6,1009.9,5.8,5.8,17.1,-0.2,31,1022.3,11.2,6,0,0,0,0,24140.0,0,0.0,0.0,0.0,0.0,0.0,0,62650.0,1438.5102123447496,1484.1928771171777,1484.1928771171777,1484.1928771171777,1484.1928771171777
2023-06-09,13:00:00,1203.5173271832373,235.20071489795836,45.94388478028638,44.05611521971362,14.656699830588998,1,762.0,725.5,591.8,563.5,170.2,162.0,810.3,810.3,969.5,923.0,5.2,5.2,17.1,-0.7,30,1022.0,9.7,358,0,0,0,0,24140.0,0,0.0,0.0,0.0,0.0,0.0,0,56350.0,1210.590751696177,1296.115932483935,1296.115932483935,1296.115932483935,1296.115932483935
2023-06-09,14:00:00,679.7856980402876,251.0913600981596,52.74310098024874,37.25689901975126,15.656563732086992,1,667.0,619.1,507.6,471.2,159.4,147.9,778.4,778.4,865.7,803.6,4.35,4.35,17.2,0.3,32,1022.0,10.4,341,0,0,0,0,24140.0,0,0.0,0.0,0.0,0.0,0.0,0,47120.0,881.6217477024218,311.41233042554364,311.41233042554364,311.41233042554364,311.41233042554364
2023-06-09,15:00:00,215.83860911034907,265.06587900732745,60.19624553354404,29.803754466455963,16.656427516343566,1,545.0,490.3,395.0,355.4,150.0,134.9,715.1,715.1,733.3,659.7,3.35,3.35,17.2,2.0,36,1021.8,9.7,343,0,0,0,0,24140.0,0,0.0,0.0,0.0,0.0,0.0,0,35540.0,474.1946027861452,274.2879760814143,274.2879760814143,274.2879760814143,274.2879760814143
2023-06-09,16:00:00,88.41019619191545,277.8994457860506,67.81044650100407,22.18955349899594,17.6562911837811,1,410.0,353.5,272.0,234.5,138.0,119.0,621.1,621.1,581.3,501.2,2.3,2.3,16.7,3.0,40,1021.9,10.8,338,0,0,0,0,24140.0,0,0.0,0.0,0.0,0.0,0.0,0,23450.0,147.5576265737382,110.99308662235092,110.99308662235092,110.99308662235092,110.99308662235092
2023-06-09,17:00:00,50.82014434042451,290.20926925303525,75.19982452989403,14.800175470105977,18.656154734823925,1,274.0,221.1,156.4,126.2,117.6,94.9,494.3,494.3,420.0,339.0,1.4,1.4,16.2,3.2,42,1022.1,10.1,330,0,0,0,0,24140.0,0,0.0,0.0,0.0,0.0,0.0,0,12620.0,107.15763947894386,55.22248577897935,55.22248577897935,55.22248577897935,55.22248577897935
2023-06-09,18:00:00,32.745354926131505,302.45705522100343,82.0278794039537,7.972120596046299,19.65601816989772,1,151.0,106.7,67.1,47.4,83.9,59.3,341.9,341.9,260.5,184.0,0.7,0.7,15.0,2.5,43,1022.0,8.3,314,0,0,0,0,24140.0,0,0.0,0.0,0.0,0.0,0.0,0,4740.0,57.478430481740254,21.39673801038454,21.39673801038454,21.39673801038454,21.39673801038454
2023-06-09,19:00:00,19.6818534829808,314.9688028243494,87.97377815961671,2.0262218403832906,20.655881489427006,1,55.0,22.7,15.7,6.5,39.3,16.2,149.3,74.2,113.5,46.8,0.2,0.2,14.0,3.7,50,1022.6,7.2,317,0,0,0,0,24140.0,0,0.0,0.0,0.0,0.0,0.0,0,650.0,3.87538868721465,18.197214207170003,18.197214207170003,18.197214207170003,18.197214207170003
2023-06-10,01:00:00,18.55329819075157,36.14433974141875,91.3766723451937,-1.3766723451936993,2.655059004921107,0,0.0,0.0,0.0,0.0,0.0,0.0,0.0,0.0,0.0,0.0,0.0,0.0,6.6,2.9,77,1024.4,2.2,117,0,0,0,0,24140.0,0,0.0,0.0,0.0,0.0,0.0,0,0.0,0.0,17.574541167375358,17.574541167375358,17.574541167375358,17.574541167375358
2023-06-10,02:00:00,20.56968865187745,48.952788670929465,86.2170033398048,3.782996660195194,3.6549215275715783,1,13.0,35.3,2.1,5.8,10.9,29.4,31.0,66.9,32.3,87.5,0.05,0.05,6.3,2.9,79,1024.6,2.2,185,0,0,0,0,24140.0,0,0.0,0.0,0.0,0.0,0.0,0,580.0,21.40111819257752,21.67151029993202,21.67151029993202,21.67151029993202,21.67151029993202
2023-06-10,03:00:00,23.25253909982237,61.35040729790703,79.95785234488015,10.04214765511985,4.654783938091263,1,81.0,118.8,27.2,39.8,53.8,78.9,221.8,228.4,157.8,231.4,0.35,0.35,7.0,2.6,74,1025.2,2.5,181,0,0,0,0,24140.0,0,0.0,0.0,0.0,0.0,0.0,0,3980.0,89.66329790121125,23.466674060261298,23.466674060261298,23.466674060261298,23.466674060261298
2023-06-10,04:00:00,23.954402100009784,73.5707790388192,72.91580264074405,17.084197359255956,5.654646236908556,1,185.0,232.8,89.1,112.1,95.9,120.7,381.6,381.6,309.9,389.9,0.85,0.85,8.5,2.0,64,1025.6,1.8,182,0,0,0,0,24140.0,0,0.0,0.0,0.0,0.0,0.0,0,11210.0,146.35677885155556,24.965802405380398,24.965802405380398,24.965802405380398,24.965802405380398
2023-06-10,05:00:00,194.80638016408048,85.98116859902949,65.41403982229201,24.585960177707985,6.65450842445216,1,313.0,366.8,187.4,219.6,125.6,147.2,528.0,528.0,471.2,552.2,1.65,1.65,11.7,-0.2,44,1026.0,4.7,100,0,0,0,0,24140.0,0,0.0,0.0,0.0,0.0,0.0,0,21960.0,184.3216731280393,207.235901079893,207.235901079893,207.235901079893,207.235901079893
2023-06-10,06:00:00,405.3926211195964,99.08933484699246,57.79916583861701,32.200834161382986,7.6543705011516625,1,450.0,504.5,307.0,344.2,143.0,160.3,646.0,646.0,630.8,707.3,2.6,2.6,14.0,-0.8,36,1026.3,7.9,7,0,0,0,0,24140.0,0,0.0,0.0,0.0,0.0,0.0,0,34420.0,321.9292634570619,609.6927489918005,609.6927489918005,609.6927489918005,609.6927489918005
2023-06-10,07:00:00,1365.4249258983746,113.56556699543523,50.48260433346907,39.51739566653093,8.65423246743548,1,581.0,630.8,426.8,463.5,154.2,167.4,728.4,728.4,777.8,844.5,3.65,3.65,15.4,0.0,35,1026.7,12.6,2,1,29,0,0,24140.0,0,0.0,0.0,0.0,0.0,0.0,0,32908.5,725.5952340257559,1629.980175959104,1629.980175959104,1629.980175959104,1629.980175959104
2023-06-10,08:00:00,1918.7689757542896,130.219519341418,44.00433409293607,45.99566590706393,9.65409432373342,1,691.0,731.2,525.3,555.8,165.7,175.3,772.8,772.8,902.2,954.6,4.65,4.65,17.3,0.8,33,1027.3,14.0,4,1,31,0,0,24140.0,0,0.0,0.0,0.0,0.0,0.0,0,38350.2,1078.635796395613,1952.857283433436,1952.857283433436,1952.857283433436,1952.857283433436
2023-06-10,09:00:00,1844.7081430689627,149.74374409184412,39.0893071126839,50.9106928873161,10.653956070476662,1,777.0,804.0,600.0,620.8,177.0,183.2,799.9,799.9,995.5,1030.1,5.4,5.4,16.9,0.1,32,1027.5,15.1,354,1,22,0,0,24140.0,0,0.0,0.0,0.0,0.0,0.0,0,48422.4,1357.6857373148214,1410.2571965988,1410.2571965988,1410.2571965988,1410.2571965988
2023-06-10,10:00:00,1814.611093953884,171.9632978324224,36.57549681186407,53.42450318813593,11.653817708095197,1,832.0,843.4,647.3,656.1,184.7,187.3,817.0,817.0,1051.4,1065.8,5.9,5.9,17.1,-0.6,30,1027.6,15.8,356,0,17,0,0,24140.0,0,0.0,0.0,0.0,0.0,0.0,0,54456.3,1521.856440645076,2261.538908873235,2261.538908873235,2261.538908873235,2261.538908873235
2023-06-10,11:00:00,2137.134391384202,195.0822748802453,37.043024398743306,52.95697560125669,12.653679237019883,1,848.0,842.6,661.5,657.3,186.5,185.3,823.5,823.5,1066.1,1059.3,6.05,6.05,17.5,-1.2,28,1027.4,16.6,4,0,9,0,0,24140.0,0,0.0,0.0,0.0,0.0,0.0,0,59814.3,1554.6822333621435,1685.6454279633897,1685.6454279633897,1685.6454279633897,1685.6454279633897
2023-06-10,12:00:00,1646.4546183883544,216.58944192123928,40.373794885118365,49.62620511488164,13.653540657681948,1,824.0,802.2,643.0,626.0,181.0,176.2,821.7,821.7,1038.6,1011.0,5.8,5.8,17.8,-2.0,26,1027.2,15.1,10,0,0,0,0,24140.0,0,0.0,0.0,0.0,0.0,0.0,0,62600.0,1446.6820210181104,1235.2937934121398,1235.2937934121398,1235.2937934121398,1235.2937934121398
2023-06-10,13:00:00,1393.9034424581548,235.1943394674116,45.85256598456292,44.14743401543708,14.653401970512956,1,761.0,724.6,589.9,561.7,171.1,163.0,806.5,806.5,970.7,924.3,5.2,5.2,17.6,-4.4,22,1027.0,14.4,28,0,0,0,0,24140.0,0,0.0,0.0,0.0,0.0,0.0,0,56170.00000000001,1218.233778501222,1203.5173271832373,1203.5173271832373,1203.5173271832373,1203.5173271832373
2023-06-10,14:00:00,707.450362186739,251.0944853158184,52.65192672102649,37.34807327897351,15.653263175944312,1,670.0,622.0,510.9,474.4,159.1,147.7,782.0,782.0,867.1,805.0,4.35,4.35,17.5,-7.1,18,1026.8,13.3,41,0,0,0,0,24140.0,0,0.0,0.0,0.0,0.0,0.0,0,47440.0,887.3175598306855,679.7856980402876,679.7856980402876,679.7856980402876,679.7856980402876
2023-06-10,15:00:00,214.8202052391981,265.07199508959144,60.10541729902912,29.894582700970886,16.653124274409823,1,550.0,495.0,400.6,360.5,149.4,134.4,723.5,723.5,734.9,661.3,3.35,3.35,17.5,-3.3,24,1026.9,15.8,42,0,0,0,0,24140.0,0,0.0,0.0,0.0,0.0,0.0,0,36050.0,479.2573171228936,215.83860911034907,215.83860911034907,215.83860911034907,215.83860911034907
2023-06-10,16:00:00,80.26176224934314,277.9046032430424,67.71981405549171,22.28018594450829,17.652985266340565,1,421.0,363.3,283.9,245.0,137.1,118.3,646.3,646.3,583.0,503.0,2.3,2.3,17.6,-2.2,26,1026.8,15.1,44,0,0,0,0,24140.0,0,0.0,0.0,0.0,0.0,0.0,0,24500.0,146.75176389919244,88.41019619191545,88.41019619191545,88.41019619191545,88.41019619191545
2023-06-10,17:00:00,48.03476573877059,290.2108323856709,75.10930375670061,14.890696243299391,18.652846152169516,1,284.0,229.5,166.3,134.3,117.7,95.2,523.0,523.0,421.8,340.9,1.4,1.4,17.0,-1.6,28,1026.7,13.3,52,0,0,0,0,24140.0,0,0.0,0.0,0.0,0.0,0.0,0,13430.000000000002,106.94668655007516,50.82014434042451,50.82014434042451,50.82014434042451,50.82014434042451
2023-06-10,18:00:00,29.914294549384085,302.4529195024897,81.93766341560908,8.062336584390913,19.6527069323315,1,157.0,111.3,72.1,51.1,84.9,60.2,364.6,364.6,262.4,186.0,0.7,0.7,16.2,-0.5,32,1026.5,10.8,72,0,0,0,0,24140.0,0,0.0,0.0,0.0,0.0,0.0,0,5110.0,57.8882311698607,32.745354926131505,32.745354926131505,32.745354926131505,32.745354926131505
2023-06-10,19:00:00,20.36731815856276,314.95705181061743,87.8844622440051,2.1155377559948887,20.65256760725864,1,56.0,23.7,16.1,6.8,39.9,16.9,151.6,77.8,115.5,48.8,0.25,0.25,15.1,0.1,36,1027.1,7.9,45,0,0,0,0,24140.0,0,0.0,0.0,0.0,0.0,0.0,0,680.0,4.598894752611368,19.6818534829808,19.6818534829808,19.6818534829808,19.6818534829808
2023-06-11,01:00:00,19.56914504993085,36.076117774580936,91.31989398387708,-1.319893983877069,2.6517294721311333,0,0.0,0.0,0.0,0.0,0.0,0.0,0.0,0.0,0.0,0.0,0.0,0.0,7.3,1.8,68,1028.1,5.0,107,5,0,0,0,24140.0,0,0.0,0.0,0.0,0.0,0.0,0,0.0,0.0,18.55329819075157,18.55329819075157,18.55329819075157,18.55329819075157
2023-06-11,02:00:00,20.98102893584661,48.87928034267555,86.16744202536584,3.83255797463415,3.6515894225883625,1,13.0,35.2,2.1,5.6,10.9,29.5,29.8,64.6,32.8,88.6,0.05,0.05,6.5,1.6,71,1028.3,5.8,112,0,0,0,0,24140.0,0,0.0,0.0,0.0,0.0,0.0,0,560.0,21.508261447558837,20.56968865187745,20.56968865187745,20.56968865187745,20.56968865187745
2023-06-11,03:00:00,23.86738998190196,61.27239034309683,79.91431094905,10.08568905095,4.65144927129323,1,82.0,119.9,27.7,40.6,54.3,79.4,226.0,231.8,158.8,232.3,0.35,0.35,7.1,2.0,70,1028.6,7.2,100,0,0,0,0,24140.0,0,0.0,0.0,0.0,0.0,0.0,0,4060.0,90.36070173904729,23.25253909982237,23.25253909982237,23.25253909982237,23.25253909982237
2023-06-11,04:00:00,25.394920087888124,73.48825380443449,72.87660944173388,17.12339055826612,5.651309018682423,1,186.0,233.8,89.9,113.0,96.1,120.9,383.8,383.8,310.7,390.6,0.85,0.85,8.8,1.9,62,1028.5,6.5,149,0,0,0,0,24140.0,0,0.0,0.0,0.0,0.0,0.0,0,11300.0,146.73851483372974,23.954402100009784,23.954402100009784,23.954402100009784,23.954402100009784
2023-06-11,05:00:00,181.61658009739315,85.89349101879858,65.37711259060433,24.62288740939567,6.651168665191445,1,313.0,366.7,187.3,219.4,125.7,147.3,526.6,526.6,471.9,552.8,1.65,1.65,11.3,1.5,51,1028.6,5.0,176,0,0,0,0,24140.0,0,0.0,0.0,0.0,0.0,0.0,0,21940.0,185.0035650841696,194.80638016408048,194.80638016408048,194.80638016408048,194.80638016408048
2023-06-11,06:00:00,546.2750054680246,98.99554443630969,57.76197179426962,32.23802820573038,7.65102821125918,1,445.0,498.9,300.9,337.4,144.1,161.5,632.5,632.5,631.4,707.8,2.65,2.65,13.8,0.8,41,1028.8,4.0,170,0,0,0,0,24140.0,0,0.0,0.0,0.0,0.0,0.0,0,33740.0,317.20801300197974,405.3926211195964,405.3926211195964,405.3926211195964,405.3926211195964
2023-06-11,07:00:00,1581.9391896596865,113.4651508440768,50.44206407540366,39.55793592459634,8.650887657323297,1,570.0,618.9,412.7,448.0,157.3,170.8,703.6,703.6,778.3,845.0,3.7,3.7,15.6,0.1,35,1028.9,2.5,315,0,0,0,0,24140.0,0,0.0,0.0,0.0,0.0,0.0,0,44800.0,694.1479680473004,1365.4249258983746,1365.4249258983746,1365.4249258983746,1365.4249258983746
2023-06-11,08:00:00,1906.8625899041745,130.11420340390458,43.95686143620764,46.04313856379236,9.650747003820308,1,675.0,714.2,503.5,532.7,171.5,181.5,740.1,740.1,902.7,955.2,4.65,4.65,18.0,2.7,36,1029.3,8.6,347,0,1,0,0,24140.0,0,0.0,0.0,0.0,0.0,0.0,0,52737.3,1031.5663513216257,1918.7689757542896,1918.7689757542896,1918.7689757542896,1918.7689757542896
2023-06-11,09:00:00,2100.481689348376,149.64064661818173,39.03148807024191,50.96851192975809,10.650606251190066,1,756.0,782.3,570.3,590.1,185.7,192.2,759.7,759.7,996.1,1030.7,5.45,5.45,17.5,1.8,35,1029.2,11.2,341,0,15,0,0,24140.0,0,0.0,0.0,0.0,0.0,0.0,0,50158.5,1296.3031975183364,1844.7081430689627,1844.7081430689627,1844.7081430689627,1844.7081430689627
2023-06-11,10:00:00,2242.1212184309134,171.876230946897,36.50594141341676,53.49405858658324,11.650465399870711,1,809.0,820.1,614.1,622.6,194.9,197.5,774.6,774.6,1052.1,1066.5,5.95,5.95,18.0,2.3,35,1029.0,13.7,351,0,28,0,5,24140.0,0,0.0,0.0,0.0,0.0,0.0,0,44827.2,1456.3385585535552,1814.611093953884,1814.611093953884,1814.611093953884,1814.611093953884
2023-06-11,11:00:00,2037.1054480987184,195.02358596089087,36.96403490045486,53.03596509954514,12.650324450300753,1,826.0,820.8,629.7,625.7,196.3,195.1,783.1,783.1,1066.9,1060.1,6.05,6.05,18.6,2.0,33,1028.6,14.0,351,0,30,0,6,24140.0,0,0.0,0.0,0.0,0.0,0.0,0,43799.0,1487.052612732151,2137.134391384202,2137.134391384202,2137.134391384202,2137.134391384202
2023-06-11,12:00:00,1659.383655356064,216.55893618345317,40.28977608341226,49.71022391658774,13.650183402920488,1,804.0,782.8,614.3,598.1,189.7,184.7,784.1,784.1,1039.5,1012.0,5.8,5.8,19.3,2.6,33,1028.1,13.0,354,4,0,0,0,24140.0,0,0.0,0.0,0.0,0.0,0.0,0,59810.0,1385.4953276899885,1646.4546183883544,1646.4546183883544,1646.4546183883544,1646.4546183883544
2023-06-11,13:00:00,1236.173796667652,235.18267688496869,45.7668856509638,44.2331143490362,14.650042258169062,1,739.0,703.8,559.0,532.4,180.0,171.4,763.3,763.3,971.8,925.5,5.25,5.25,19.1,2.0,32,1027.6,12.6,352,1,0,0,0,24140.0,0,0.0,0.0,0.0,0.0,0.0,0,53240.0,1162.764002236379,1393.9034424581548,1393.9034424581548,1393.9034424581548,1393.9034424581548
2023-06-11,14:00:00,735.483885622124,251.0923198196395,52.56607622543978,37.43392377456022,15.649901016486933,1,647.0,600.8,480.2,446.0,166.8,154.9,733.8,733.8,868.4,806.4,4.4,4.4,19.1,1.1,30,1027.1,11.2,353,0,0,0,0,24140.0,0,0.0,0.0,0.0,0.0,0.0,0,44600.0,843.2068851145291,707.450362186739,707.450362186739,707.450362186739,707.450362186739
2023-06-11,15:00:00,213.81617349539587,265.0730676946985,60.01977406443548,29.98022593556452,16.649759678313345,1,533.0,479.8,379.2,341.4,153.8,138.5,683.3,683.3,736.3,662.9,3.4,3.4,19.4,-0.6,26,1026.6,9.0,341,0,0,0,0,24140.0,0,0.0,0.0,0.0,0.0,0.0,0,34140.0,457.9601062988976,214.8202052391981,214.8202052391981,214.8202052391981,214.8202052391981
2023-06-11,16:00:00,81.7429973356549,277.90505688045386,67.63438599870045,22.365614001299544,17.649618244089403,1,407.0,351.4,267.7,231.2,139.3,120.2,607.7,607.7,584.6,504.7,2.35,2.35,19.1,-0.3,27,1026.4,8.3,333,0,0,0,0,24140.0,0,0.0,0.0,0.0,0.0,0.0,0,23120.0,146.53113369958058,80.26176224934314,80.26176224934314,80.26176224934314,80.26176224934314
2023-06-11,17:00:00,47.05315625623009,290.2080760050259,75.02413522424975,14.975864775750257,18.64947671425551,1,275.0,222.5,156.7,126.8,118.3,95.7,490.8,490.8,423.6,342.7,1.4,1.4,18.5,2.3,34,1026.1,7.9,337,0,0,0,0,24140.0,0,0.0,0.0,0.0,0.0,0.0,0,12680.0,106.6097574566046,48.03476573877059,48.03476573877059,48.03476573877059,48.03476573877059
2023-06-11,18:00:00,29.478798310763725,302.4449005221816,81.85304349587032,8.146956504129681,19.6493350892544,1,153.0,108.8,68.1,48.4,84.9,60.3,342.1,342.1,264.2,187.8,0.7,0.7,17.9,1.0,32,1025.7,5.0,350,0,0,0,0,24140.0,0,0.0,0.0,0.0,0.0,0.0,0,4840.0,57.57202589717312,29.914294549384085,29.914294549384085,29.914294549384085,29.914294549384085
2023-06-11,19:00:00,19.199447538822973,314.94193714489137,87.80104549583636,2.1989545041636407,20.64919336952609,1,56.0,24.2,15.7,6.8,40.3,17.4,147.6,77.9,117.4,50.7,0.25,0.25,16.9,5.8,48,1025.8,2.9,317,0,0,0,0,24140.0,0,0.0,0.0,0.0,0.0,0.0,0,680.0,4.947663873109342,20.36731815856276,20.36731815856276,20.36731815856276,20.36731815856276
2023-06-12,01:00:00,18.489009964822923,36.00937756580371,91.26974378827416,-1.269743788274153,2.648341087563216,0,0.0,0.0,0.0,0.0,0.0,0.0,0.0,0.0,0.0,0.0,0.0,0.0,9.1,6.5,84,1025.8,1.1,48,0,0,0,13,24140.0,0,0.0,0.0,0.0,0.0,0.0,0,0.0,0.0,19.56914504993085,19.56914504993085,19.56914504993085,19.56914504993085
2023-06-12,04:00:00,24.58065496576228,73.40877850826774,72.8435720055023,17.1564279944977,5.647913703179241,1,182.0,228.7,85.9,107.9,96.1,120.7,366.0,366.0,311.4,391.2,0.9,0.9,10.8,2.4,56,1025.7,7.2,168,6,0,0,7,24140.0,0,0.0,0.0,0.0,0.0,0.0,0,10790.0,145.23837159924236,25.394920087888124,25.394920087888124,25.394920087888124,25.394920087888124
2023-06-12,05:00:00,191.2694195442365,85.80918031007299,65.3462798496322,24.65372015036781,6.647771060535941,1,310.0,363.1,183.9,215.4,126.1,147.7,516.4,516.4,472.4,553.3,1.65,1.65,13.6,1.6,44,1025.7,7.6,190,0,0,0,1,24140.0,0,0.0,0.0,0.0,0.0,0.0,0,21540.0,183.3153841959472,181.61658009739315,181.61658009739315,181.61658009739315,181.61658009739315
2023-06-12,06:00:00,494.6872278897596,98.90531146329386,57.730908897260846,32.269091102739154,7.6476283280441715,1,441.0,494.3,296.0,331.8,145.0,162.5,621.6,621.6,631.8,708.2,2.65,2.65,16.3,1.9,38,1026.0,5.0,208,17,0,0,0,24140.0,0,0.0,0.0,0.0,0.0,0.0,0,33180.0,309.8307852833795,546.2750054680246,546.2750054680246,546.2750054680246,546.2750054680246
2023-06-12,07:00:00,1514.4715581401756,113.36824678456732,50.40780508504901,39.59219491495099,8.647485506148124,1,561.0,609.1,400.8,435.2,160.2,173.9,682.9,682.9,778.7,845.4,3.7,3.7,18.5,2.7,35,1026.0,4.7,195,19,0,0,0,24140.0,0,0.0,0.0,0.0,0.0,0.0,0,43520.0,674.6960817486078,1581.9391896596865,1581.9391896596865,1581.9391896596865,1581.9391896596865
2023-06-12,08:00:00,1837.8729741967145,130.0118764283055,43.91591776497771,46.08408223502229,9.647342595292267,1,670.0,708.9,496.4,525.2,173.6,183.7,729.1,729.1,903.1,955.6,4.7,4.7,21.2,3.8,32,1025.9,5.4,200,6,0,0,0,24140.0,0,0.0,0.0,0.0,0.0,0.0,0,52520.00000000001,992.5742219339928,1906.8625899041745,1906.8625899041745,1906.8625899041745,1906.8625899041745
2023-06-12,09:00:00,1322.491535350311,149.53918942981954,38.98045255851499,51.01954744148501,10.647199595923924,1,753.0,779.2,565.7,585.3,187.3,193.9,753.0,753.0,996.5,1031.2,5.5,5.5,21.9,3.5,30,1025.8,7.6,225,5,22,0,0,24140.0,0,0.0,0.0,0.0,0.0,0.0,0,45653.4,1241.7037423872969,2100.481689348376,2100.481689348376,2100.481689348376,2100.481689348376
2023-06-12,10:00:00,1369.7347909003072,171.78855299832867,36.443245493201,53.556754506799,11.647056508489165,1,797.0,808.0,596.3,604.5,200.7,203.5,751.5,751.5,1052.6,1067.1,6.0,6.0,21.8,2.5,28,1025.4,7.2,304,2,28,0,0,24140.0,0,0.0,0.0,0.0,0.0,0.0,0,43524.0,1367.7004797389302,2242.1212184309134,2242.1212184309134,2242.1212184309134,2242.1212184309134
2023-06-12,11:00:00,1955.729973050691,194.961873466504,36.89166152200786,53.10833847799214,12.646913333432863,1,819.0,813.9,619.0,615.1,200.0,198.8,769.2,769.2,1067.5,1060.9,6.1,6.1,21.5,4.5,33,1025.3,14.8,347,0,22,0,0,24140.0,0,0.0,0.0,0.0,0.0,0.0,0,47977.8,1450.8141748246508,2037.1054480987184,2037.1054480987184,2037.1054480987184,2037.1054480987184
2023-06-12,12:00:00,1200.541062955577,216.52381530903483,40.21191067997624,49.788089320023765,13.646770071203203,1,798.0,777.0,605.1,589.2,192.9,187.8,771.6,771.6,1040.3,1013.0,5.85,5.85,22.4,3.5,29,1024.7,14.8,356,1,9,0,0,24140.0,0,0.0,0.0,0.0,0.0,0.0,0,53617.2,1355.4150734597108,1659.383655356064,1659.383655356064,1659.383655356064,1659.383655356064
2023-06-12,13:00:00,1065.019834649174,235.16578827086403,45.68690287976586,44.31309712023414,14.646626722246626,1,735.0,700.1,552.8,526.6,182.2,173.5,753.8,753.8,972.8,926.6,5.3,5.3,22.2,2.8,28,1024.3,15.1,12,0,0,0,0,24140.0,0,0.0,0.0,0.0,0.0,0.0,0,52660.0,1141.0955808320732,1236.173796667652,1236.173796667652,1236.173796667652,1236.173796667652
2023-06-12,14:00:00,782.3851066476785,251.0849129824321,52.48561162211432,37.51438837788568,15.64648328700988,1,642.0,596.3,472.9,439.3,169.1,157.0,721.5,721.5,869.6,807.7,4.45,4.45,21.8,3.0,29,1023.7,14.0,19,0,0,0,0,24140.0,0,0.0,0.0,0.0,0.0,0.0,0,43930.0,826.9123969406293,735.483885622124,735.483885622124,735.483885622124,735.483885622124
2023-06-12,15:00:00,203.1670649013072,265.0691428526203,59.93937920776577,30.06062079223424,16.646339765941526,1,528.0,475.5,372.4,335.4,155.6,140.1,669.6,669.6,737.7,664.3,3.4,3.4,21.5,2.2,28,1023.3,14.4,15,0,0,0,0,24140.0,0,0.0,0.0,0.0,0.0,0.0,0,33540.0,451.3435436467699,213.81617349539587,213.81617349539587,213.81617349539587,213.81617349539587
2023-06-12,16:00:00,79.26636009581372,277.9008538351818,67.55422553098657,22.44577446901344,17.64619615948887,1,402.0,347.3,261.5,225.9,140.5,121.3,591.9,591.9,586.1,506.3,2.35,2.35,21.2,2.5,29,1022.9,12.6,23,0,0,0,0,24140.0,0,0.0,0.0,0.0,0.0,0.0,0,22590.0,145.94003591965142,81.7429973356549,81.7429973356549,81.7429973356549,81.7429973356549
2023-06-12,17:00:00,46.53467699007066,290.2010508950344,74.94438046592838,15.05561953407162,18.646052468100027,1,271.0,219.5,152.2,123.2,118.8,96.2,474.6,474.6,425.3,344.4,1.45,1.45,20.4,2.2,30,1022.8,10.8,25,0,0,0,0,24140.0,0,0.0,0.0,0.0,0.0,0.0,0,12320.0,106.16338947523336,47.05315625623009,47.05315625623009,47.05315625623009,47.05315625623009
2023-06-12,18:00:00,31.417060692102844,302.4330542229452,81.77407783237466,8.225922167625342,19.645908692223383,1,150.0,106.9,65.1,46.4,84.9,60.5,324.5,324.5,266.0,189.6,0.7,0.7,19.7,2.5,32,1022.4,7.6,35,0,0,0,0,24140.0,0,0.0,0.0,0.0,0.0,0.0,0,4640.0,57.362045398132025,29.478798310763725,29.478798310763725,29.478798310763725,29.478798310763725
2023-06-12,19:00:00,18.848745658845832,314.9235206401404,87.72358090715929,2.2764190928407078,20.6457648323076,1,56.0,24.7,15.4,6.8,40.6,17.9,143.8,77.9,119.2,52.5,0.25,0.25,18.8,2.6,34,1022.4,6.5,47,0,0,0,0,24140.0,0,0.0,0.0,0.0,0.0,0.0,0,680.0,5.288218963642891,19.199447538822973,19.199447538822973,19.199447538822973,19.199447538822973
2023-06-13,01:00:00,18.914339560708317,35.94420006242024,91.22621886346836,-1.2262188634683555,2.64489993405648,0,0.0,0.0,0.0,0.0,0.0,0.0,0.0,0.0,0.0,0.0,0.0,0.0,10.4,2.3,57,1021.3,6.8,146,0,0,0,0,24140.0,0,0.0,0.0,0.0,0.0,0.0,0,0.0,0.0,18.489009964822923,18.489009964822923,18.489009964822923,18.489009964822923
2023-06-13,02:00:00,21.861628430828265,48.73870943344296,86.08768486998642,3.91231513001358,3.644755498452617,1,13.0,35.0,2.0,5.3,11.0,29.7,28.1,61.1,33.5,90.3,0.05,0.05,10.2,3.4,63,1021.2,7.6,155,0,0,0,0,24140.0,0,0.0,0.0,0.0,0.0,0.0,0,530.0,20.9534628857378,21.27849709628628,21.27849709628628,21.27849709628628,21.27849709628628
2023-06-13,04:00:00,25.168788650675488,73.33244505684453,72.81666499254673,17.183335007453266,5.644466386377868,1,182.0,228.6,85.8,107.7,96.2,120.8,364.8,364.8,311.9,391.7,0.9,0.9,12.7,3.9,55,1020.9,9.0,181,19,0,0,0,24140.0,0,0.0,0.0,0.0,0.0,0.0,0,10770.0,143.84136089923234,24.58065496576228,24.58065496576228,24.58065496576228,24.58065496576228
2023-06-13,05:00:00,190.21488112735688,85.7283372301233,65.32151203426498,24.67848796573501,6.644321710808546,1,306.0,358.3,179.4,210.1,126.6,148.2,503.3,503.3,472.8,553.7,1.7,1.7,15.8,4.8,48,1020.7,8.6,188,2,0,0,0,24140.0,0,0.0,0.0,0.0,0.0,0.0,0,21010.0,181.6117151724106,191.2694195442365,191.2694195442365,191.2694195442365,191.2694195442365
2023-06-13,06:00:00,597.0048428168152,98.81875033139804,57.70594594502823,32.29405405497177,7.644176956154792,1,439.0,492.0,293.5,329.0,145.5,163.1,615.8,615.8,632.1,708.5,2.65,2.65,18.1,4.6,41,1020.7,8.3,204,1,0,0,0,24140.0,0,0.0,0.0,0.0,0.0,0.0,0,32900.0,305.11860272254347,494.6872278897596,494.6872278897596,494.6872278897596,494.6872278897596
2023-06-13,07:00:00,1496.46430021081,113.27498905550772,50.379798391265965,39.62020160873404,8.644032122867024,1,565.0,613.4,405.9,440.6,159.1,172.7,691.1,691.1,779.0,845.7,3.75,3.75,21.0,5.7,37,1020.5,6.8,216,0,0,0,0,24140.0,0,0.0,0.0,0.0,0.0,0.0,0,44060.0,670.2480129404961,1514.4715581401756,1514.4715581401756,1514.4715581401756,1514.4715581401756
2023-06-13,08:00:00,1690.9710095998978,129.9126976550935,43.881482255226814,46.11851774477319,9.643887211397477,1,673.0,712.1,500.2,529.3,172.8,182.8,734.4,734.4,903.4,955.9,4.75,4.75,22.9,5.3,32,1020.3,7.6,212,0,0,0,0,24140.0,0,0.0,0.0,0.0,0.0,0.0,0,52929.99999999999,992.402572287669,1837.8729741967145,1837.8729741967145,1837.8729741967145,1837.8729741967145
2023-06-13,09:00:00,1039.0023905201313,149.4395522503553,38.93619577140801,51.06380422859199,10.643742222199648,1,753.0,779.2,565.3,585.0,187.7,194.2,752.2,752.2,996.9,1031.6,5.5,5.5,23.5,4.4,29,1020.0,7.2,252,0,0,0,0,24140.0,0,0.0,0.0,0.0,0.0,0.0,0,58500.0,1226.0788424089703,1322.491535350311,1322.491535350311,1322.491535350311,1322.491535350311
2023-06-13,10:00:00,1005.6839818760892,171.70043869019017,36.387426441875085,53.61257355812492,11.643597155726289,1,799.0,810.0,598.8,607.0,200.2,203.0,754.1,754.1,1053.1,1067.6,6.0,6.0,23.1,5.5,32,1019.8,10.4,327,0,9,0,0,24140.0,0,0.0,0.0,0.0,0.0,0.0,0,55237.0,1376.6853049010513,1369.7347909003072,1369.7347909003072,1369.7347909003072,1369.7347909003072
2023-06-13,11:00:00,1994.1329185068005,194.89727484881257,36.82594235584644,53.17405764415356,12.64345201242888,1,811.0,806.0,606.8,603.1,204.2,202.9,753.4,753.4,1068.1,1061.6,6.15,6.15,23.1,5.5,32,1019.5,14.8,330,0,14,0,0,24140.0,0,0.0,0.0,0.0,0.0,0.0,0,51866.6,1419.6431190329831,1955.729973050691,1955.729973050691,1955.729973050691,1955.729973050691
2023-06-13,12:00:00,1432.1611783641767,216.48417400169984,40.14024994788046,49.85975005211954,13.64330679276222,1,788.0,767.4,590.1,574.7,197.9,192.7,751.8,751.8,1041.1,1013.8,5.9,5.9,23.3,5.7,32,1019.1,13.7,343,0,5,0,0,24140.0,0,0.0,0.0,0.0,0.0,0.0,0,54596.50000000001,1323.525079189278,1200.541062955577,1200.541062955577,1200.541062955577,1200.541062955577
2023-06-13,13:00:00,893.2166940277652,235.1437409569648,45.61267566915158,44.38732433084842,14.643161497179856,1,729.0,694.5,543.8,518.0,185.2,176.5,740.6,740.6,973.7,927.6,5.3,5.3,22.8,4.8,31,1018.9,12.6,339,0,0,0,0,24140.0,0,0.0,0.0,0.0,0.0,0.0,0,51800.0,1118.6810954214093,1065.019834649174,1065.019834649174,1065.019834649174,1065.019834649174
2023-06-13,14:00:00,619.2046699855382,251.07231932768377,52.41059410713898,37.58940589286102,15.643016126134532,1,639.0,593.7,468.3,435.1,170.7,158.6,713.3,713.3,870.7,808.9,4.45,4.45,22.4,4.4,31,1018.6,11.2,332,0,0,0,0,24140.0,0,0.0,0.0,0.0,0.0,0.0,0,43510.0,814.6730201605042,782.3851066476785,782.3851066476785,782.3851066476785,782.3851066476785
2023-06-13,15:00:00,208.6537911261168,265.0602708160631,59.86429512183187,30.135704878168124,16.642870680080797,1,527.0,474.7,370.6,333.9,156.4,140.9,665.2,665.2,739.0,665.7,3.45,3.45,22.6,3.6,29,1018.5,9.4,331,0,0,0,0,24140.0,0,0.0,0.0,0.0,0.0,0.0,0,33390.0,445.0729168993293,203.1670649013072,203.1670649013072,203.1670649013072,203.1670649013072
2023-06-13,16:00:00,82.56606898306883,277.8920447292584,67.47939468990674,22.520605310093263,17.642725159472963,1,401.0,346.6,260.0,224.7,141.0,121.9,586.8,586.8,587.6,507.8,2.4,2.4,22.2,3.3,29,1018.2,10.4,326,0,0,0,0,24140.0,0,0.0,0.0,0.0,0.0,0.0,0,22470.0,145.49025505310885,79.26636009581372,79.26636009581372,79.26636009581372,79.26636009581372
2023-06-13,17:00:00,48.59663294876696,290.1898107288994,74.8700996139862,15.129900386013803,18.642579564765065,1,271.0,219.7,151.8,123.1,119.2,96.6,471.7,471.7,426.8,346.0,1.45,1.45,21.5,3.2,30,1018.0,7.2,324,0,0,0,0,24140.0,0,0.0,0.0,0.0,0.0,0.0,0,12310.0,105.74545245199444,46.53467699007066,46.53467699007066,46.53467699007066,46.53467699007066
2023-06-13,18:00:00,29.6266287520472,302.417438931369,81.70082295488712,8.299177045112891,19.64243389641291,1,152.0,108.6,66.6,47.6,85.4,61.1,329.9,329.9,267.6,191.2,0.7,0.7,20.8,3.5,32,1018.1,5.8,303,0,0,0,0,24140.0,0,0.0,0.0,0.0,0.0,0.0,0,4760.0,57.52390135797783,31.417060692102844,31.417060692102844,31.417060692102844,31.417060692102844
2023-06-13,19:00:00,19.240500711743906,314.90186604835066,87.65211956683267,2.3478804331673384,20.64228815487156,1,57.0,25.5,15.8,7.1,41.2,18.4,146.9,81.4,120.8,54.1,0.25,0.25,19.3,4.6,38,1018.1,5.0,269,0,0,0,0,24140.0,0,0.0,0.0,0.0,0.0,0.0,0,710.0,5.818673462294423,18.848745658845832,18.848745658845832,18.848745658845832,18.848745658845832
2023-06-14,01:00:00,16.81447719927774,35.88066634169199,91.18931363000482,-1.189313630004824,2.641412195053696,0,0.0,0.0,0.0,0.0,0.0,0.0,0.0,0.0,0.0,0.0,0.0,0.0,10.5,7.0,79,1018.4,5.4,210,0,0,0,0,24140.0,0,0.0,0.0,0.0,0.0,0.0,0,0.0,0.0,18.914339560708317,18.914339560708317,18.914339560708317,18.914339560708317
2023-06-14,02:00:00,21.27184042186301,48.67181259489716,86.05746302264836,3.942536977351641,3.6412659539460055,1,14.0,37.6,2.5,6.6,11.5,31.0,34.8,75.8,33.8,91.0,0.05,0.05,10.2,6.5,78,1018.6,5.0,210,2,0,0,0,24140.0,0,0.0,0.0,0.0,0.0,0.0,0,660.0,22.558675639825392,21.861628430828265,21.861628430828265,21.861628430828265,21.861628430828265
2023-06-14,03:00:00,22.78135031510433,61.05450751472653,79.82133697945056,10.17866302054944,4.641119643297846,1,82.0,119.3,27.3,39.8,54.7,79.5,221.4,225.3,160.9,234.2,0.35,0.35,10.3,6.0,75,1018.7,4.0,222,10,0,0,0,24140.0,0,0.0,0.0,0.0,0.0,0.0,0,3980.0,88.73937836117321,23.61394290631957,23.61394290631957,23.61394290631957,23.61394290631957
2023-06-14,04:00:00,24.03206917845,73.25934420552832,72.79586044198548,17.204139558014518,5.64097326356648,1,189.0,237.2,92.4,116.0,96.6,121.3,392.2,392.2,312.3,392.1,0.9,0.9,12.1,6.2,67,1018.6,3.6,218,0,0,0,0,24140.0,0,0.0,0.0,0.0,0.0,0.0,0,11600.0,143.9229716636729,25.168788650675488,25.168788650675488,25.168788650675488,25.168788650675488
2023-06-14,05:00:00,189.05649356507476,85.65106088582985,65.30277699930028,24.69722300069972,6.640826815209355,1,319.0,373.5,193.4,226.4,125.6,147.1,542.0,542.0,473.1,553.9,1.7,1.7,15.0,5.5,53,1018.8,5.4,285,0,0,0,0,24140.0,0,0.0,0.0,0.0,0.0,0.0,0,22640.0,180.75059093083823,190.21488112735688,190.21488112735688,190.21488112735688,190.21488112735688
2023-06-14,06:00:00,375.26395034481374,98.73597330276,57.68704915141444,32.312950848585565,7.640680298684189,1,451.0,505.5,307.7,344.8,143.3,160.6,645.2,645.2,632.4,708.7,2.7,2.7,17.3,2.1,36,1018.8,4.3,313,9,0,0,0,24140.0,0,0.0,0.0,0.0,0.0,0.0,0,34480.0,305.543546208168,597.0048428168152,597.0048428168152,597.0048428168152,597.0048428168152
2023-06-14,07:00:00,1344.202501004324,113.18550941693628,50.35801234461093,39.64198765538907,8.640533714448937,1,573.0,622.1,416.1,451.7,156.9,170.4,708.1,708.1,779.2,845.9,3.75,3.75,19.6,2.0,31,1018.9,5.4,319,5,0,0,0,24140.0,0,0.0,0.0,0.0,0.0,0.0,0,45170.0,679.5256590964865,1496.46430021081,1496.46430021081,1496.46430021081,1496.46430021081
2023-06-14,08:00:00,1783.3258606760237,129.81682409494138,43.85353119404191,46.146468805958094,9.640387062961263,1,679.0,718.5,508.3,537.8,170.7,180.7,745.9,745.9,903.6,956.1,4.75,4.75,22.4,6.6,36,1019.1,9.4,337,0,0,0,1,24140.0,0,0.0,0.0,0.0,0.0,0.0,0,53779.99999999999,1007.3491956390458,1690.9710095998978,1690.9710095998978,1690.9710095998978,1690.9710095998978
2023-06-14,09:00:00,1348.2868713339635,149.34191423076368,38.8987097868076,51.1012902131924,10.64024034468111,1,759.0,785.5,573.6,593.6,185.4,191.9,762.8,762.8,997.1,1031.9,5.5,5.5,22.6,8.3,40,1019.2,12.2,331,8,0,0,1,24140.0,0,0.0,0.0,0.0,0.0,0.0,0,59360.0,1262.1514597036164,1039.0023905201313,1039.0023905201313,1039.0023905201313,1039.0023905201313
2023-06-14,10:00:00,1592.7151114938624,171.61206550103253,36.33849861196008,53.66150138803992,11.640093560065578,1,801.0,812.1,601.3,609.7,199.7,202.5,756.9,756.9,1053.4,1068.1,6.0,6.0,23.1,8.0,38,1019.0,11.5,329,4,0,0,0,24140.0,0,0.0,0.0,0.0,0.0,0.0,0,60970.00000000001,1383.663695834519,1005.6839818760892,1005.6839818760892,1005.6839818760892,1005.6839818760892
2023-06-14,11:00:00,1924.1590695344344,194.82993344521648,36.76691304728954,53.23308695271046,12.63994670957354,1,814.0,809.1,610.7,607.0,203.3,202.1,757.8,757.8,1068.7,1062.2,6.15,6.15,22.9,7.8,38,1018.9,12.6,332,0,0,0,0,24140.0,0,0.0,0.0,0.0,0.0,0.0,0,60700.0,1415.7241471892637,1994.1329185068005,1994.1329185068005,1994.1329185068005,1994.1329185068005
2023-06-14,12:00:00,1430.3999509114262,216.4401137672499,40.07484346403653,49.92515653596347,13.639799793665622,1,789.0,768.4,591.0,575.6,198.0,192.8,752.3,752.3,1041.8,1014.6,5.9,5.9,23.9,6.7,33,1018.6,10.8,336,0,0,0,0,24140.0,0,0.0,0.0,0.0,0.0,0.0,0,57560.0,1307.2488925569962,1432.1611783641767,1432.1611783641767,1432.1611783641767,1432.1611783641767
2023-06-14,13:00:00,887.0217932495901,235.11660841953253,45.54426081531788,44.45573918468212,14.639652812799618,1,735.0,700.3,551.7,525.6,183.3,174.7,750.6,750.6,974.6,928.6,5.3,5.3,24.5,7.6,34,1018.5,13.3,338,0,0,0,0,24140.0,0,0.0,0.0,0.0,0.0,0.0,0,52560.0,1118.7657833572252,893.2166940277652,893.2166940277652,893.2166940277652,893.2166940277652
2023-06-14,14:00:00,708.3866404414447,251.0545984840192,52.34108384801554,37.65891615198446,15.639505767435054,1,645.0,599.3,475.9,442.2,169.1,157.1,723.9,723.9,871.7,810.0,4.45,4.45,22.5,6.6,36,1018.1,11.2,337,0,0,0,0,24140.0,0,0.0,0.0,0.0,0.0,0.0,0,44220.0,821.1378226439392,619.2046699855382,619.2046699855382,619.2046699855382,619.2046699855382
2023-06-14,15:00:00,234.07233505682527,265.0465060155076,59.79458312328677,30.205416876713223,16.639358658033245,1,530.0,477.6,374.0,337.0,156.0,140.6,670.0,670.0,740.2,667.0,3.45,3.45,22.7,7.6,38,1017.8,9.7,326,0,0,0,0,24140.0,0,0.0,0.0,0.0,0.0,0.0,0,33700.0,446.9186913725876,208.6537911261168,208.6537911261168,208.6537911261168,208.6537911261168
2023-06-14,16:00:00,95.79409152592156,277.8786836185088,67.40995426517398,22.590045734826013,17.63921148505263,1,407.0,351.9,266.6,230.6,140.4,121.4,600.3,600.3,588.9,509.2,2.4,2.4,22.4,6.6,36,1017.5,7.6,325,0,0,0,0,24140.0,0,0.0,0.0,0.0,0.0,0.0,0,23060.0,144.84021550673856,82.56606898306883,82.56606898306883,82.56606898306883,82.56606898306883
2023-06-14,17:00:00,49.70254550009931,290.17441200971257,74.80135132171256,15.198648678287444,18.63906424895344,1,275.0,223.1,155.7,126.3,119.3,96.8,482.1,482.1,428.2,347.5,1.45,1.45,22.1,8.2,41,1017.4,7.2,327,0,0,0,0,24140.0,0,0.0,0.0,0.0,0.0,0.0,0,12630.0,105.53079062625145,48.59663294876696,48.59663294876696,48.59663294876696,48.59663294876696
2023-06-14,18:00:00,29.46860421207269,302.398115290583,81.63333366612548,8.366666333874523,19.638916950197103,1,153.0,109.6,67.2,48.1,85.8,61.5,330.9,330.9,269.1,192.8,0.7,0.7,20.7,10.2,51,1017.6,6.5,299,0,0,0,1,24140.0,0,0.0,0.0,0.0,0.0,0.0,0,4810.0,58.14415705650982,29.6266287520472,29.6266287520472,29.6266287520472,29.6266287520472
2023-06-14,19:00:00,17.766154069045683,314.8770389867732,87.58671060139118,2.413289398608825,20.63876958924375,1,58.0,26.4,16.3,7.4,41.7,19.0,150.2,85.0,122.4,55.7,0.25,0.25,19.4,11.9,62,1017.8,4.3,299,1,0,0,2,24140.0,0,0.0,0.0,0.0,0.0,0.0,0,740.0,6.513477852743321,19.240500711743906,19.240500711743906,19.240500711743906,19.240500711743906
2023-06-15,01:00:00,15.186922990646837,35.81885750337472,91.15901983731428,-1.1590198373142926,2.637884144112612,0,0.0,0.0,0.0,0.0,0.0,0.0,0.0,0.0,0.0,0.0,0.0,0.0,12.7,8.2,74,1017.7,5.0,141,1,0,0,0,24140.0,0,0.0,0.0,0.0,0.0,0.0,0,0.0,0.0,16.81447719927774,16.81447719927774,16.81447719927774,16.81447719927774
2023-06-15,02:00:00,19.92140059011678,48.60728479584646,86.03365719301908,3.966342806980918,3.637736360696196,1,14.0,37.6,2.4,6.5,11.6,31.1,34.2,74.7,34.1,91.5,0.05,0.05,12.2,7.9,75,1017.9,5.0,130,1,0,0,0,24140.0,0,0.0,0.0,0.0,0.0,0.0,0,650.0,22.231548059059605,21.27184042186301,21.27184042186301,21.27184042186301,21.27184042186301
2023-06-15,03:00:00,23.5224075390798,60.98755474335384,79.80282276174394,10.197177238256064,4.637588518775578,1,80.0,116.3,25.7,37.4,54.3,78.9,208.1,211.4,161.4,234.5,0.35,0.35,12.5,7.1,70,1017.8,5.4,142,0,0,0,0,24140.0,0,0.0,0.0,0.0,0.0,0.0,0,3740.0,87.01678999455383,22.78135031510433,22.78135031510433,22.78135031510433,22.78135031510433
2023-06-15,04:00:00,23.57522442306778,73.18956541753019,72.78112782562053,17.21887217437947,5.637440618813798,1,182.0,228.4,85.6,107.4,96.4,120.9,363.1,363.1,312.6,392.3,0.9,0.9,14.3,5.1,54,1017.7,6.1,135,0,0,0,0,24140.0,0,0.0,0.0,0.0,0.0,0.0,0,10740.0,142.36681336150104,24.03206917845,24.03206917845,24.03206917845,24.03206917845
2023-06-15,05:00:00,202.023122434651,85.57744857044989,65.29004008580675,24.709959914193245,6.637292661272053,1,306.0,358.2,179.3,209.8,126.7,148.4,502.2,502.2,473.3,554.0,1.7,1.7,17.2,5.1,45,1017.8,5.4,119,0,0,0,10,24140.0,0,0.0,0.0,0.0,0.0,0.0,0,20980.0,179.86702179959588,189.05649356507476,189.05649356507476,189.05649356507476,189.05649356507476
2023-06-16,19:00:00,12.357490315666666,314.81813878298004,87.47423614558198,2.525763854418024,20.631632200874225,1,52.0,24.2,11.9,5.5,40.1,18.7,108.3,63.4,125.0,58.3,0.25,0.25,21.9,6.6,37,1011.3,5.4,353,10,0,0,0,24140.0,0,0.0,0.0,0.0,0.0,0.0,0,550.0,5.667966305966112,17.710287930230393,17.710287930230393,17.710287930230393,17.710287930230393
2023-06-17,04:00:00,26.59162031591159,73.06032459926173,72.76974379188077,17.23025620811923,5.630282278622531,1,176.0,220.8,79.8,100.1,96.2,120.6,338.3,338.3,312.8,392.3,0.9,0.9,17.3,5.2,45,1011.2,9.7,97,3,0,43,100,24140.0,0,0.0,0.0,0.0,0.0,0.0,0,10010.0,140.08253952827823,27.418355202839564,27.418355202839564,27.418355202839564,27.418355202839564
2023-06-18,16:00:00,123.709623340316,277.78091696926515,67.18726408855552,22.81273591144448,17.624857552116342,1,390.0,337.7,245.2,212.3,144.8,125.4,547.6,547.6,593.2,513.7,2.45,2.45,25.8,5.9,28,1014.0,24.5,52,4,0,34,18,24140.0,0,0.0,0.0,0.0,0.0,0.0,0,21230.0,146.34599429616458,27.353108538248527,27.353108538248527,27.353108538248527,27.353108538248527
2023-06-19,08:00:00,1811.647012877531,129.39232911582823,43.81001989256055,46.18998010743945,9.622437708022115,1,667.0,705.9,491.7,520.3,175.3,185.6,721.2,721.2,903.2,955.9,4.85,4.8,25.2,5.4,28,1015.2,9.4,39,15,0,0,0,24140.0,0,0.0,0.0,0.0,0.0,0.0,0,52029.99999999999,965.0915107517252,1566.1113703403491,1566.1113703403491,1566.1113703403491,1566.1113703403491
2023-06-19,09:00:00,960.7460387241824,148.889883042983,38.81235178014127,51.18764821985873,10.622286358052651,1,751.0,777.4,561.7,581.5,189.3,195.9,746.3,746.3,997.1,1032.2,5.65,5.65,24.7,4.9,28,1015.1,14.0,22,5,0,0,0,24140.0,0,0.0,0.0,0.0,0.0,0.0,0,58150.0,1231.308009925953,1258.585442935443,1258.585442935443,1258.585442935443,1258.585442935443
2023-06-19,10:00:00,2097.254976043213,171.17266121420812,36.19751520819547,53.80248479180453,11.622134998036415,1,804.0,815.4,604.7,613.3,199.3,202.1,760.0,760.0,1054.0,1069.0,6.15,6.15,24.9,4.6,27,1015.0,19.4,28,7,0,0,0,24140.0,0,0.0,0.0,0.0,0.0,0.0,0,61329.99999999999,1397.957144559988,921.904111238092,921.904111238092,921.904111238092,921.904111238092
2023-06-19,11:00:00,1633.9809830339568,194.4574697503544,36.57318141965683,53.42681858034317,12.62198362844886,1,819.0,814.3,616.5,613.0,202.5,201.3,763.4,763.4,1070.0,1063.9,6.3,6.3,25.1,4.3,26,1014.9,19.4,32,9,0,0,0,24140.0,0,0.0,0.0,0.0,0.0,0.0,0,61300.0,1427.5431097411758,572.8315764068383,572.8315764068383,572.8315764068383,572.8315764068383
2023-06-19,12:00:00,1739.4060017136885,216.15753432567695,39.84322886862314,50.15677113137686,13.621832249767031,1,796.0,775.6,599.3,583.9,196.7,191.7,760.5,760.5,1043.9,1017.2,6.05,6.05,26.1,5.1,26,1014.5,19.8,35,0,0,0,0,24140.0,0,0.0,0.0,0.0,0.0,0.0,0,58390.0,1330.1019967047782,1546.4279492754206,1546.4279492754206,1546.4279492754206,1546.4279492754206
2023-06-19,13:00:00,1376.6277809461128,234.9076569377268,45.29126283863865,44.70873716136135,14.621680862467004,1,736.0,701.7,551.0,525.3,185.0,176.4,746.7,746.7,977.6,932.0,5.45,5.45,26.0,5.0,26,1014.3,19.1,38,0,0,0,0,24140.0,0,0.0,0.0,0.0,0.0,0.0,0,52529.99999999999,1120.8676996892973,1014.3246234712268,1014.3246234712268,1014.3246234712268,1014.3246234712268
2023-06-19,14:00:00,865.6187431552429,250.8915224460776,52.07816294901079,37.92183705098921,15.621529467023366,1,645.0,599.8,473.9,440.7,171.1,159.1,717.1,717.1,875.6,814.2,4.6,4.6,25.8,3.7,24,1014.2,19.1,40,0,0,0,0,24140.0,0,0.0,0.0,0.0,0.0,0.0,0,44070.0,815.2499158247243,644.9153061761573,644.9153061761573,644.9153061761573,644.9153061761573
2023-06-19,15:00:00,243.50565700642872,264.90648048881667,59.528663618233466,30.47133638176653,16.621378063914342,1,531.0,479.0,373.6,337.0,157.4,142.0,664.5,664.5,744.7,671.9,3.55,3.55,25.8,3.7,24,1014.2,16.2,35,0,0,0,0,24140.0,0,0.0,0.0,0.0,0.0,0.0,0,33700.0,444.52721003497,297.20141530811946,297.20141530811946,297.20141530811946,297.20141530811946
2023-06-19,16:00:00,72.61063485648774,277.7457223839201,67.14563797035544,22.85436202964457,17.62122665361513,1,404.0,350.0,261.7,226.7,142.3,123.3,583.5,583.5,594.0,514.6,2.5,2.5,25.4,3.3,24,1013.8,15.1,35,0,0,0,0,24140.0,0,0.0,0.0,0.0,0.0,0.0,0,22670.0,144.68173079279111,123.709623340316,123.709623340316,123.709623340316,123.709623340316
2023-06-19,17:00:00,44.184124064305415,290.0372071782604,74.54253790903802,15.45746209096198,18.621075236600998,1,274.0,223.1,153.4,124.9,120.6,98.2,468.5,468.5,433.8,353.1,1.5,1.5,25.0,3.0,24,1013.9,12.6,39,0,0,0,0,24140.0,0,0.0,0.0,0.0,0.0,0.0,0,12490.0,105.6248514532417,53.232353689671584,53.232353689671584,53.232353689671584,53.232353689671584
2023-06-19,18:00:00,25.2606449646883,302.24814713069816,81.38415977140113,8.61584022859887,19.62092381334977,1,155.0,112.0,67.8,49.0,87.2,63.0,327.0,327.0,274.8,198.5,0.75,0.75,24.4,3.1,25,1013.6,9.4,55,0,0,0,0,24140.0,0,0.0,0.0,0.0,0.0,0.0,0,4900.0,58.57573048654413,34.575749567790766,34.575749567790766,34.575749567790766,34.575749567790766
2023-06-19,19:00:00,17.144219360680566,314.7077337835094,87.35202633837578,2.647973661624222,20.620772384337325,1,61.0,29.2,17.4,8.3,43.6,20.8,157.8,95.7,128.0,61.2,0.25,0.25,23.2,4.6,30,1013.7,8.3,56,0,0,0,0,24140.0,0,0.0,0.0,0.0,0.0,0.0,0,830.0000000000001,8.083679134319796,14.773118284303573,14.773118284303573,14.773118284303573,14.773118284303573
2023-06-20,01:00:00,14.601951519636696,35.53851311501919,91.10624902817976,-1.106249028179754,2.619863716860948,0,0.0,0.0,0.0,0.0,0.0,0.0,0.0,0.0,0.0,0.0,0.0,0.0,16.6,3.3,41,1013.8,7.6,137,0,0,0,0,24140.0,0,0.0,0.0,0.0,0.0,0.0,0,0.0,0.0,15.816923665646012,15.816923665646012,15.816923665646012,15.816923665646012
2023-06-20,02:00:00,18.119714081932155,48.32302465232873,86.01008990488758,3.9899100951124176,3.6197122608615246,1,14.0,37.6,2.4,6.4,11.6,31.2,33.8,74.0,34.2,91.9,0.05,0.05,16.4,3.7,43,1013.8,7.9,137,0,0,0,0,24140.0,0,0.0,0.0,0.0,0.0,0.0,0,640.0,21.403958161069948,18.39282183097743,18.39282183097743,18.39282183097743,18.39282183097743
2023-06-20,03:00:00,25.62496125833366,60.69910167917213,79.80255445610591,10.197445543894094,4.619560802913198,1,80.0,116.1,25.7,37.3,54.3,78.8,207.9,210.9,161.4,234.2,0.35,0.35,17.3,4.9,44,1013.7,7.6,142,0,0,0,0,24140.0,0,0.0,0.0,0.0,0.0,0.0,0,3730.0,84.11724836434641,25.913786534835296,25.913786534835296,25.913786534835296,25.913786534835296
2023-06-20,04:00:00,25.73809217683104,72.89352610723897,72.79730299703047,17.202697002969536,5.619409343493199,1,181.0,227.1,84.7,106.3,96.3,120.8,359.7,359.7,312.0,391.5,0.9,0.9,19.0,6.1,43,1013.7,4.7,156,5,0,0,0,24140.0,0,0.0,0.0,0.0,0.0,0.0,0,10630.0,137.8768751779964,27.728448512183878,27.728448512183878,27.728448512183878,27.728448512183878
2023-06-20,05:00:00,175.70798143738162,85.26760620031962,65.31494731091597,24.685052689084028,6.619257883076719,1,303.0,354.7,176.1,206.2,126.9,148.6,493.9,493.9,472.3,552.9,1.75,1.75,19.9,5.9,40,1014.2,5.0,150,0,0,0,0,24140.0,0,0.0,0.0,0.0,0.0,0.0,0,20620.0,176.9336122035382,190.829185607648,190.829185607648,190.829185607648,190.829185607648
2023-06-20,06:00:00,407.8434709475103,98.32474519744568,57.69886006337844,32.30113993662156,7.619106422142542,1,431.0,483.1,283.8,318.2,147.2,165.0,595.6,595.6,631.3,707.6,2.75,2.75,22.5,5.0,32,1014.1,2.9,110,0,0,0,0,24140.0,0,0.0,0.0,0.0,0.0,0.0,0,31820.0,282.16827477139617,449.14866227443713,449.14866227443713,449.14866227443713,449.14866227443713
2023-06-20,07:00:00,1379.627122378003,112.73497343665008,50.35584092304292,39.64415907695708,8.618954961165935,1,552.0,599.4,388.9,422.3,163.1,177.2,662.0,662.0,778.1,844.9,3.85,3.85,25.4,5.5,28,1014.3,5.4,49,0,0,0,0,24140.0,0,0.0,0.0,0.0,0.0,0.0,0,42230.0,626.3160495345702,1487.6779594950422,1487.6779594950422,1487.6779594950422,1487.6779594950422
2023-06-20,08:00:00,1702.9919144998291,129.3194149672579,43.82032541883213,46.179674581167866,9.618803500623704,1,657.0,695.4,477.9,505.8,179.1,189.6,701.2,701.2,902.8,955.6,4.85,4.85,26.6,5.5,26,1014.3,6.1,8,0,0,0,0,24140.0,0,0.0,0.0,0.0,0.0,0.0,0,50580.0,932.10756809058,1811.647012877531,1811.647012877531,1811.647012877531,1811.647012877531
2023-06-20,09:00:00,973.438204134707,148.80791160966692,38.81515528091672,51.18484471908328,10.618652040993702,1,741.0,767.1,547.5,566.7,193.5,200.4,727.4,727.4,996.9,1032.0,5.65,5.65,26.6,5.5,26,1014.0,12.6,4,0,0,0,0,24140.0,0,0.0,0.0,0.0,0.0,0.0,0,56670.00000000001,1195.2062341209817,960.7460387241824,960.7460387241824,960.7460387241824,960.7460387241824
2023-06-20,10:00:00,1638.7879776387897,171.08655563060802,36.19006399720331,53.80993600279669,11.618500582752771,1,797.0,808.4,594.5,603.0,202.5,205.4,747.2,747.2,1053.9,1069.0,6.15,6.15,27.6,5.8,25,1014.1,15.5,359,9,0,0,0,24140.0,0,0.0,0.0,0.0,0.0,0.0,0,60300.0,1350.5986581337136,2097.254976043213,2097.254976043213,2097.254976043213,2097.254976043213
2023-06-20,11:00:00,1942.4314424323268,194.37696662439137,36.5548936983115,53.4451063016885,12.618349126376282,1,812.0,807.4,606.2,602.8,205.8,204.7,750.4,750.4,1070.0,1064.0,6.3,6.2,28.2,6.3,25,1014.2,15.8,353,10,0,0,0,24140.0,0,0.0,0.0,0.0,0.0,0.0,0,60279.99999999999,1377.1177450589312,1633.9809830339568,1633.9809830339568,1633.9809830339568,1633.9809830339568
2023-06-20,12:00:00,1455.3363672440655,216.0894488510201,39.81628168687482,50.18371831312518,13.618197672342644,1,788.0,767.9,587.4,572.4,200.6,195.4,745.3,745.3,1044.1,1017.5,6.05,6.05,28.9,6.3,24,1014.0,14.4,0,5,0,0,0,24140.0,0,0.0,0.0,0.0,0.0,0.0,0,57240.0,1277.938523589939,1739.4060017136885,1739.4060017136885,1739.4060017136885,1739.4060017136885
2023-06-20,13:00:00,1169.011183689012,234.85188717081897,45.25883473084589,44.74116526915412,14.618046221128273,1,729.0,695.1,540.8,515.7,188.2,179.4,732.5,732.5,978.0,932.4,5.5,5.45,28.5,5.4,23,1013.9,13.7,9,17,0,12,0,24140.0,0,0.0,0.0,0.0,0.0,0.0,0,51570.00000000001,1081.2674701822334,1376.6277809461128,1376.6277809461128,1376.6277809461128,1376.6277809461128
2023-06-21,01:00:00,13.69050912045495,35.48874445409425,91.11530344319472,-1.1153034431947175,2.616229200977195,0,0.0,0.0,0.0,0.0,0.0,0.0,0.0,0.0,0.0,0.0,0.0,0.0,16.7,8.9,60,1013.9,3.2,26,0,0,17,0,24140.0,2,0.0,0.0,0.0,0.0,0.0,0,0.0,0.0,14.601951519636696,14.601951519636696,14.601951519636696,14.601951519636696
2023-06-21,04:00:00,25.59567604846176,72.84546914407538,72.81822467841474,17.181775321585267,5.615775116467145,1,176.0,220.9,80.0,100.4,96.0,120.4,340.3,340.3,311.5,390.9,0.9,0.9,18.0,7.1,49,1014.0,4.0,132,0,0,0,0,24140.0,0,0.0,0.0,0.0,0.0,0.0,0,10040.0,138.6302797639647,25.73809217683104,25.73809217683104,25.73809217683104,25.73809217683104
2023-06-21,05:00:00,238.06006877963816,85.2179003478658,65.337339627992,24.66266037200801,6.615623775230217,1,298.0,348.9,170.7,199.9,127.3,149.1,479.2,479.2,471.8,552.4,1.7,1.7,19.9,7.6,45,1014.1,2.5,46,6,0,44,0,24140.0,0,0.0,0.0,0.0,0.0,0.0,0,19990.0,177.12419303856382,175.70798143738162,175.70798143738162,175.70798143738162,175.70798143738162
2023-06-21,06:00:00,460.7387145135647,98.27138011614429,57.72128015877218,32.27871984122782,7.615472444921936,1,426.0,477.6,277.9,311.5,148.1,166.1,583.5,583.5,630.7,707.0,2.7,2.7,21.6,7.7,41,1014.0,2.2,344,0,0,48,0,24140.0,0,0.0,0.0,0.0,0.0,0.0,0,31150.0,281.5658930395714,407.8434709475103,407.8434709475103,407.8434709475103,407.8434709475103
2023-06-21,07:00:00,972.657635584253,112.67536867391556,50.37650609652467,39.62349390347533,8.615321126018266,1,546.0,592.9,381.1,413.9,164.9,179.1,649.1,649.1,777.6,844.4,3.8,3.75,24.2,8.2,36,1013.9,3.6,347,0,0,8,0,24140.0,3,0.0,0.0,0.0,0.0,0.0,0,41390.0,620.9240783468591,1379.627122378003,1379.627122378003,1379.627122378003,1379.627122378003
2023-06-21,08:00:00,1505.424324226468,129.2508136597487,43.83687513189061,46.16312486810939,9.615169818996174,1,651.0,689.1,469.7,497.2,181.3,191.9,689.4,689.4,902.4,955.2,4.8,4.8,26.9,9.7,34,1013.9,5.8,339,1,0,30,0,24140.0,7,0.0,0.0,0.0,0.0,0.0,0,49720.0,920.0768665734762,1702.9919144998291,1702.9919144998291,1702.9919144998291,1702.9919144998291
2023-06-21,09:00:00,899.6601144121519,148.72913863605575,38.82459082150365,51.17540917849635,10.615018524334168,1,724.0,749.6,523.0,541.4,201.0,208.1,695.0,695.0,996.5,1031.7,5.6,5.6,28.1,7.8,28,1013.6,5.0,312,3,0,5,0,24140.0,10,0.0,0.0,0.0,0.0,0.0,0,54140.0,1123.2352760308072,973.438204134707,973.438204134707,973.438204134707,973.438204134707
2023-06-21,16:00:00,110.8237161959116,277.6629313348353,67.07960802827262,22.920391971727383,17.61395984781161,1,379.0,328.5,231.2,200.3,147.8,128.1,514.2,514.2,595.3,515.9,2.5,2.5,29.3,9.4,29,1011.9,9.4,352,8,0,0,0,24140.0,3,0.0,0.0,0.0,0.0,0.0,0,20030.0,144.6604988345348,147.30051052143122,147.30051052143122,147.30051052143122,147.30051052143122
2023-06-21,18:00:00,27.610062647521527,302.1645614464055,81.32655497550567,8.673445024494324,19.61365750722027,1,127.0,91.9,42.9,31.0,84.1,60.9,205.5,205.5,276.2,199.8,0.75,0.75,27.6,11.6,37,1011.5,8.3,276,12,0,29,0,24140.0,3,0.0,0.0,0.0,0.0,0.0,0,3100.0,56.02953103241545,32.8363736332456,32.8363736332456,32.8363736332456,32.8363736332456
2023-06-21,19:00:00,16.085212853162503,314.6202866895346,87.3020030190885,2.697996980911495,20.61350636237785,1,59.0,28.5,15.8,7.6,43.2,20.8,142.5,87.6,129.3,62.4,0.25,0.25,26.2,11.9,41,1011.4,5.0,264,0,0,4,0,24140.0,2,0.0,0.0,0.0,0.0,0.0,0,760.0,7.568047541116065,13.376275693302,13.376275693302,13.376275693302,13.376275693302
2023-06-23,01:00:00,14.971948470001369,35.39613738881614,91.15282532266028,-1.1528253226602745,2.6089823466184594,0,0.0,0.0,0.0,0.0,0.0,0.0,0.0,0.0,0.0,0.0,0.0,0.0,15.4,14.2,93,1005.8,10.8,224,2,49,0,0,24140.0,0,0.0,0.0,0.0,0.0,0.0,0,0.0,0.0,0.0,0.0,0.0,0.0
2023-06-23,02:00:00,20.84661548050688,48.1860226165864,86.07129084945079,3.928709150549209,3.608831969002877,1,13.0,35.1,2.0,5.3,11.0,29.7,27.9,60.9,33.5,90.5,0.05,0.05,15.5,14.5,94,1006.0,10.8,227,0,50,0,0,24140.0,0,0.0,0.0,0.0,0.0,0.0,0,265.0,19.84688575283554,0.0,0.0,0.0,0.0
2023-06-23,03:00:00,25.904065128675835,60.56594398820163,79.87495032264873,10.125049677351276,4.60868162374958,1,77.0,112.0,23.7,34.5,53.3,77.6,192.6,196.3,159.8,232.5,0.35,0.35,15.6,14.1,91,1006.3,9.0,241,0,53,0,0,24140.0,0,0.0,0.0,0.0,0.0,0.0,0,1621.5,83.83775101606076,0.0,0.0,0.0,0.0
2023-06-23,04:00:00,25.498922327411183,72.76113273662689,72.87739375661732,17.122606243382673,5.60853131133313,1,175.0,219.8,79.3,99.6,95.7,120.1,338.7,338.7,310.2,389.6,0.9,0.9,16.6,14.0,85,1006.5,9.7,281,1,57,0,0,24140.0,0,0.0,0.0,0.0,0.0,0.0,0,4282.8,139.95175238373497,0.0,0.0,0.0,0.0
2023-06-23,05:00:00,191.5345331510216,85.13141119810325,65.39914613350466,24.600853866495346,6.608381032228539,1,296.0,346.7,168.8,197.7,127.2,149.0,475.2,475.2,470.3,551.0,1.7,1.7,18.2,11.7,66,1006.9,11.5,299,0,59,0,0,24140.0,0,0.0,0.0,0.0,0.0,0.0,0,8105.7,179.9974291714212,0.0,0.0,0.0,0.0
2023-06-23,06:00:00,423.6065397732417,98.1784827043865,57.783205054401655,32.216794945598345,7.608230786910751,1,427.0,478.8,279.4,313.4,147.6,165.5,588.0,588.0,629.3,705.7,2.7,2.7,18.9,10.7,59,1006.7,11.5,305,0,0,0,0,24140.0,0,0.0,0.0,0.0,0.0,0.0,0,31340.0,286.71270966135813,0.0,0.0,0.0,0.0
2023-06-23,07:00:00,1441.095488402742,112.5703982441172,50.43542906910616,39.56457093089384,8.608080575854588,1,548.0,595.2,384.2,417.3,163.8,178.0,655.3,655.3,776.3,843.2,3.8,3.8,20.5,10.6,53,1007.2,11.5,305,0,0,0,0,24140.0,0,0.0,0.0,0.0,0.0,0.0,0,41730.0,645.2049305178173,0.0,0.0,0.0,0.0
2023-06-23,08:00:00,1527.4400268454133,129.12705292767242,43.888529580611056,46.111470419388944,9.607930399534329,1,654.0,692.4,474.3,502.2,179.7,190.2,696.9,696.9,901.2,954.1,4.8,4.8,22.2,10.0,46,1007.4,11.9,300,4,0,0,3,24140.0,0,0.0,0.0,0.0,0.0,0.0,0,50220.0,965.192931823686,0.0,0.0,0.0,0.0
2023-06-23,12:00:00,1216.3133368744234,215.8645779964453,39.7748416513855,50.2251583486145,13.607330051112346,1,778.0,758.3,572.5,558.1,205.5,200.3,726.0,726.0,1044.1,1017.7,6.05,6.05,25.7,9.5,36,1008.0,15.8,270,3,0,0,6,24140.0,0,0.0,0.0,0.0,0.0,0.0,0,55810.0,1287.8775141202798,33.71376425461433,33.71376425461433,33.71376425461433,33.71376425461433
2023-06-23,15:00:00,169.32929226340156,264.71341206218784,59.41838528350617,30.581614716493828,16.60688017777888,1,520.0,469.4,358.5,323.6,161.5,145.7,635.9,635.9,746.5,673.8,3.55,3.55,25.5,12.0,43,1008.3,14.8,278,10,0,25,3,24140.0,0,0.0,0.0,0.0,0.0,0.0,0,32360.000000000004,441.6337383687094,33.02057657338703,33.02057657338703,33.02057657338703,33.02057657338703
2023-06-23,16:00:00,24.39941495794592,277.5641253026551,67.03686276239127,22.96313723760873,17.606730296431884,1,402.0,348.5,258.7,224.2,143.3,124.3,574.5,574.5,596.1,516.7,2.5,2.45,24.2,12.5,48,1008.6,13.7,268,8,1,64,85,24140.0,0,0.0,0.0,0.0,0.0,0.0,0,22195.8,146.84123269385688,27.956747966369356,27.956747966369356,27.956747966369356,27.956747966369356
2023-06-23,18:00:00,21.191446504738703,302.06838007423585,81.29348364328152,8.706516356718481,19.606430651228152,1,105.0,76.0,26.3,19.0,78.7,57.0,125.6,125.6,276.9,200.6,0.75,0.75,22.6,14.1,59,1009.2,11.5,255,0,0,41,0,24140.0,0,0.0,0.0,0.0,0.0,0.0,0,1900.0,54.4100176421554,21.176797174111,21.176797174111,21.176797174111,21.176797174111
2023-06-23,19:00:00,18.973562587299064,314.52247920844366,87.27745003226933,2.7225499677306733,20.606280888319084,1,60.0,29.1,16.4,8.0,43.6,21.1,147.3,91.2,129.9,63.0,0.25,0.25,21.0,14.8,68,1009.2,11.5,248,2,0,44,19,24140.0,6,0.0,0.0,0.0,0.0,0.0,0,800.0,8.740765946515344,18.66089341297644,18.66089341297644,18.66089341297644,18.66089341297644
2023-06-24,01:00:00,14.611500017826268,35.35345301656972,91.18123276079272,-1.181232760792724,2.605383177303175,0,0.0,0.0,0.0,0.0,0.0,0.0,0.0,0.0,0.0,0.0,0.0,0.0,15.8,9.5,66,1011.1,10.4,315,2,5,32,0,24140.0,2,0.0,0.0,0.0,0.0,0.0,0,0.0,0.0,14.971948470001369,14.971948470001369,14.971948470001369,14.971948470001369
2023-06-24,02:00:00,20.193775342110893,48.14640697670154,86.10404018098238,3.895959819017618,3.6052337073236,1,13.0,35.1,2.0,5.4,11.0,29.7,28.7,62.4,33.2,89.7,0.05,0.05,15.4,9.3,67,1011.4,8.3,311,0,0,0,0,24140.0,1,0.0,0.0,0.0,0.0,0.0,0,540.0,19.823667048071982,20.84661548050688,20.84661548050688,20.84661548050688,20.84661548050688
2023-06-24,03:00:00,25.117781498833008,60.528665002766,79.91092621878012,10.089073781219884,4.6050842810838,1,78.0,113.6,24.6,35.8,53.4,77.8,200.3,204.6,159.0,231.7,0.35,0.35,15.4,9.0,66,1011.5,9.0,299,0,0,0,0,24140.0,0,0.0,0.0,0.0,0.0,0.0,0,3579.9999999999995,84.03428472931397,25.904065128675835,25.904065128675835,25.904065128675835,25.904065128675835
2023-06-24,04:00:00,26.41601173688016,72.72499988204359,72.91554162360187,17.084458376398132,5.604934899056604,1,179.0,224.9,83.3,104.7,95.7,120.2,356.6,356.6,309.4,388.7,0.9,0.9,16.5,9.0,61,1011.7,11.2,308,0,0,0,0,24140.0,0,0.0,0.0,0.0,0.0,0.0,0,10470.0,139.82200971410438,25.498922327411183,25.498922327411183,25.498922327411183,25.498922327411183
2023-06-24,05:00:00,159.89083925668143,85.09477997011604,65.43845442933994,24.561545570660066,6.604785561714262,1,296.0,346.8,169.0,198.0,127.0,148.8,476.5,476.5,469.5,550.1,1.7,1.7,17.2,8.6,57,1012.1,10.4,302,6,0,0,0,24140.0,0,0.0,0.0,0.0,0.0,0.0,0,19800.0,180.7327369189993,191.5345331510216,191.5345331510216,191.5345331510216,191.5345331510216
2023-06-24,06:00:00,442.9330029130765,98.13911636091808,57.822601637911696,32.177398362088304,7.604636269530435,1,409.0,458.7,257.5,288.8,151.5,169.9,542.5,542.5,628.5,704.9,2.65,2.65,18.2,6.7,47,1011.8,10.4,293,5,0,0,0,24140.0,0,0.0,0.0,0.0,0.0,0.0,0,28880.0,284.9337450675993,423.6065397732417,423.6065397732417,423.6065397732417,423.6065397732417
2023-06-24,07:00:00,432.3074539778781,112.52522560250388,50.47358168644563,39.52641831355437,8.604487022977604,1,543.0,589.9,377.8,410.4,165.2,179.4,645.0,645.0,775.5,842.4,3.75,3.75,19.1,7.5,47,1012.2,14.8,282,2,0,0,0,24140.0,0,0.0,0.0,0.0,0.0,0.0,0,41040.0,647.5073487689401,1441.095488402742,1441.095488402742,1441.095488402742,1441.095488402742
2023-06-24,08:00:00,502.239086548315,129.07213233118196,43.9235404237692,46.0764595762308,9.604337822526666,1,644.0,681.9,460.6,487.7,183.4,194.2,677.2,677.2,900.5,953.5,4.75,4.75,21.0,10.1,50,1012.3,16.2,278,2,54,0,0,24140.0,0,0.0,0.0,0.0,0.0,0.0,0,22434.2,964.250815490602,1527.4400268454133,1527.4400268454133,1527.4400268454133,1527.4400268454133
2023-06-24,09:00:00,161.24122296984115,148.51356963503727,38.89236706923875,51.10763293076125,10.604188668651426,1,734.0,760.1,538.1,557.3,195.9,202.8,716.0,716.0,995.0,1030.4,5.55,5.55,21.0,9.3,47,1012.9,17.3,273,0,42,0,0,24140.0,0,0.0,0.0,0.0,0.0,0.0,0,32323.4,1233.0598838806554,832.8014178232378,832.8014178232378,832.8014178232378,832.8014178232378
2023-06-24,10:00:00,796.4881460212137,170.75413868099886,36.22919779692189,53.77080220307811,11.604039561823535,1,786.0,797.5,578.9,587.3,207.1,210.2,728.1,728.1,1052.6,1067.9,6.05,6.05,21.0,9.5,48,1013.2,18.0,275,0,56,0,0,24140.0,0,0.0,0.0,0.0,0.0,0.0,0,25841.2,1387.055613773787,944.0955662049008,944.0955662049008,944.0955662049008,944.0955662049008
2023-06-24,11:00:00,1684.7598572066304,194.0406764761029,36.5505145562428,53.4494854437572,12.60389050251454,1,802.0,797.7,591.6,588.4,210.4,209.3,732.5,732.5,1069.3,1063.6,6.25,6.25,20.7,9.3,48,1013.2,18.7,272,0,47,0,0,24140.0,0,0.0,0.0,0.0,0.0,0.0,0,31185.2,1425.4211853386134,1258.9519735449535,1258.9519735449535,1258.9519735449535,1258.9519735449535
2023-06-24,12:00:00,1377.0103145780836,215.78325698073417,39.77426216112903,50.22573783887097,13.603741491197354,1,781.0,761.3,577.0,562.4,204.0,198.9,731.7,731.7,1044.0,1017.6,6.0,6.0,20.7,9.3,48,1013.2,19.4,266,0,38,0,0,24140.0,0,0.0,0.0,0.0,0.0,0.0,0,34868.8,1340.488862379502,1216.3133368744234,1216.3133368744234,1216.3133368744234,1216.3133368744234
2023-06-24,13:00:00,1280.68902728966,234.58592958435736,45.19122416547332,44.808775834526685,14.603592528343816,1,723.0,689.6,531.7,507.1,191.3,182.4,719.5,719.5,978.4,933.1,5.4,5.4,20.4,9.3,49,1013.0,19.1,267,0,27,0,0,24140.0,0,0.0,0.0,0.0,0.0,0.0,0,37018.3,1135.2514187423803,1111.4003616157702,1111.4003616157702,1111.4003616157702,1111.4003616157702
2023-06-24,14:00:00,703.9191618933756,250.61200905751,51.96118556373516,38.03881443626484,15.603443614424554,1,636.0,591.7,460.7,428.6,175.3,163.1,695.5,695.5,877.0,815.9,4.55,4.55,20.3,9.2,49,1012.6,19.4,267,13,23,0,0,24140.0,0,0.0,0.0,0.0,0.0,0.0,0,33002.200000000004,832.5328176779368,688.442265879725,688.442265879725,688.442265879725,688.442265879725
2023-06-24,15:00:00,202.00033352702448,264.6545818488652,59.40546409903582,30.594535900964186,16.603294749912152,1,523.0,472.1,362.4,327.1,160.6,145.0,642.5,642.5,746.6,674.0,3.55,3.55,20.0,9.2,50,1012.7,19.4,268,7,1,0,0,24140.0,0,0.0,0.0,0.0,0.0,0.0,0,32382.9,461.23233046513343,169.32929226340156,169.32929226340156,169.32929226340156,169.32929226340156
2023-06-24,16:00:00,73.51509810529174,277.5089219477213,67.02433501510095,22.975664984899048,17.603145935277006,1,401.0,347.6,257.4,223.1,143.6,124.5,571.5,571.5,596.3,516.9,2.45,2.45,19.2,9.1,52,1012.6,19.1,264,19,11,0,0,24140.0,0,0.0,0.0,0.0,0.0,0.0,0,19855.9,152.21745078822158,24.39941495794592,24.39941495794592,24.39941495794592,24.39941495794592
2023-06-24,17:00:00,44.44728971283972,289.8060120695748,74.42985314342424,15.570146856575766,18.602997170990413,1,271.0,220.9,149.6,121.9,121.4,99.0,454.0,454.0,436.1,355.5,1.5,1.5,18.5,9.3,55,1012.8,18.7,261,15,0,0,0,24140.0,0,0.0,0.0,0.0,0.0,0.0,0,12190.0,111.84354232674148,22.8802850279285,22.8802850279285,22.8802850279285,22.8802850279285
2023-06-24,18:00:00,22.550547954435597,302.01576125226705,81.28623744749518,8.713762552504818,19.60284845752456,1,155.0,112.3,67.3,48.8,87.7,63.5,321.7,321.7,277.1,200.7,0.75,0.75,17.8,9.4,58,1012.8,17.6,261,14,0,0,0,24140.0,0,0.0,0.0,0.0,0.0,0.0,0,4880.0,62.599952800511005,21.191446504738703,21.191446504738703,21.191446504738703,21.191446504738703
2023-06-24,19:00:00,16.5063498982,314.46988720760527,87.27479607827944,2.72520392172056,20.60269979534998,1,61.0,29.6,17.1,8.3,43.9,21.3,153.4,95.0,130.0,63.1,0.25,0.25,16.4,9.1,62,1013.0,16.9,254,12,0,0,0,24140.0,1,0.0,0.0,0.0,0.0,0.0,0,830.0000000000001,9.711362921813578,18.973562587299064,18.973562587299064,18.973562587299064,18.973562587299064
2023-06-25,18:00:00,26.101132095943196,301.96023054537494,81.28522720500715,8.714772794992859,19.59929580392808,1,102.0,73.9,24.3,17.6,77.7,56.3,116.0,116.0,277.1,200.7,0.75,0.7,19.0,12.3,65,1011.9,7.9,346,19,0,0,0,24140.0,32,0.0,0.0,0.0,0.0,0.0,0,1760.0000000000002,55.136861253047,22.550547954435597,22.550547954435597,22.550547954435597,22.550547954435597
2023-06-25,19:00:00,17.262981674583813,314.4149431866333,87.27859016836959,2.7214098316304143,20.5991485136875,1,59.0,28.6,15.7,7.6,43.3,21.0,140.9,87.2,130.0,63.0,0.25,0.25,17.9,13.4,75,1012.1,9.4,4,19,0,0,0,24140.0,22,0.0,0.0,0.0,0.0,0.0,0,760.0,9.065972883193732,16.5063498982,16.5063498982,16.5063498982,16.5063498982
2023-06-26,01:00:00,15.874559774932916,35.27570025837871,91.25717261426855,-1.2571726142685675,2.598266112915541,0,0.0,0.0,0.0,0.0,0.0,0.0,0.0,0.0,0.0,0.0,0.0,0.0,13.4,11.8,90,1011.9,6.1,32,10,62,0,0,24140.0,0,0.0,0.0,0.0,0.0,0.0,0,0.0,0.0,14.47664938193972,14.47664938193972,14.47664938193972,14.47664938193972
2023-06-26,06:00:00,509.69369340165,98.07493429449433,57.91798036189758,32.08201963810242,7.597532583961621,1,417.0,467.9,268.0,300.7,149.0,167.2,566.2,566.2,626.5,703.0,2.6,2.6,18.7,13.1,70,1011.8,7.9,91,9,3,0,28,24140.0,0,0.0,0.0,0.0,0.0,0.0,0,29167.9,282.36093599402204,539.7135678493839,539.7135678493839,539.7135678493839,539.7135678493839
2023-06-26,07:00:00,1499.4028666872591,112.44995245044262,50.56699384956628,39.43300615043372,8.597386080755628,1,518.0,562.9,345.1,375.0,172.9,187.9,590.4,590.4,773.6,840.7,3.7,3.7,20.6,12.1,58,1011.6,8.3,97,19,62,46,0,24140.0,2,0.0,0.0,0.0,0.0,0.0,0,14250.0,610.1256732906359,832.4342175845776,832.4342175845776,832.4342175845776,832.4342175845776
2023-06-26,15:00:00,341.6455523105757,264.52489796781146,59.39751093720527,30.60248906279473,16.59621656425002,1,464.0,418.9,284.4,256.7,179.6,162.1,504.2,504.2,746.6,674.0,3.5,1.4,22.7,9.4,43,1009.4,15.5,33,9,26,0,100,24140.0,52,0.0,0.0,0.0,0.0,0.0,0,18995.8,415.8624387742402,307.37159760964045,307.37159760964045,307.37159760964045,307.37159760964045
2023-06-26,17:00:00,106.93955503087906,289.6893629851884,74.42691181174118,15.573088188258827,18.59592489913149,1,271.0,220.9,149.6,121.9,121.4,99.0,453.9,453.9,436.1,355.5,1.5,0.5,23.4,11.7,48,1008.8,9.7,33,3,35,0,83,24140.0,24,0.0,0.0,0.0,0.0,0.0,0,7923.5,107.81556293383012,50.89411118964961,50.89411118964961,50.89411118964961,50.89411118964961
2023-06-26,18:00:00,30.099444883476423,301.9018696251044,81.29048211097577,8.709517889024228,19.595779176224703,1,151.0,109.3,63.7,46.1,87.3,63.2,304.3,304.3,277.0,200.5,0.75,0.3,23.3,13.2,53,1008.5,6.8,49,1,25,0,4,24140.0,10,0.0,0.0,0.0,0.0,0.0,0,3457.5,59.65355982895496,26.101132095943196,26.101132095943196,26.101132095943196,26.101132095943196
2023-06-26,19:00:00,16.60801453074214,314.357728207562,87.28885391834781,2.711146081652193,20.59563352703532,1,60.0,29.0,16.4,7.9,43.6,21.1,147.5,91.0,129.8,62.7,0.25,0.2,21.9,13.0,57,1008.7,5.0,65,0,16,0,0,24140.0,7,0.0,0.0,0.0,0.0,0.0,0,663.6,8.563883190454208,17.262981674583813,17.262981674583813,17.262981674583813,17.262981674583813
2023-06-28,15:00:00,342.14577965210304,264.37984776304785,59.41367408437869,30.58632591562132,16.589304936940472,1,508.0,458.6,342.8,309.5,165.2,149.1,608.1,608.1,746.1,673.5,3.5,3.25,25.2,11.7,43,1005.8,14.0,354,7,0,0,100,24140.0,52,0.0,0.0,0.0,0.0,0.0,0,30950.0,442.110482026678,187.36052475271907,187.36052475271907,187.36052475271907,187.36052475271907
2023-06-29,01:00:00,14.216443602342858,35.17920940215971,91.418321286868,-1.4183212868680126,2.5878906960600414,0,0.0,0.0,0.0,0.0,0.0,0.0,0.0,0.0,0.0,0.0,0.0,0.0,15.9,13.9,88,1005.7,4.3,295,2,0,0,31,24140.0,0,0.0,0.0,0.0,0.0,0.0,0,0.0,0.0,0.0,0.0,0.0,0.0
2023-06-29,02:00:00,19.76028989792618,47.996948330716,86.35848538582748,3.641514614172528,3.5877498080605164,1,11.0,30.2,1.4,3.8,9.6,26.5,20.1,43.0,30.6,84.1,0.05,0.05,15.9,14.0,89,1005.6,2.2,251,4,0,1,7,24140.0,0,0.0,0.0,0.0,0.0,0.0,0,380.0,15.767653719233843,0.0,0.0,0.0,0.0
2023-06-29,09:00:00,1869.61089665156,148.23204864573688,39.13459345962439,50.86540654037561,10.586766397289272,1,720.0,745.9,520.0,538.8,200.0,207.2,694.5,694.5,990.8,1026.6,5.5,5.5,24.3,13.5,51,1005.1,11.2,334,18,11,0,10,24140.0,13,0.0,0.0,0.0,0.0,0.0,0,47953.2,1173.1582734225804,1954.3956439179767,1954.3956439179767,1954.3956439179767,1954.3956439179767
2023-06-29,10:00:00,1090.6173243023072,170.37880464535067,36.43190789356782,53.56809210643218,11.586626316165017,1,780.0,791.7,572.0,580.5,208.0,211.1,721.5,721.5,1049.1,1064.8,6.05,6.05,24.6,13.2,49,1005.0,12.6,336,4,10,20,5,24140.0,14,0.0,0.0,0.0,0.0,0.0,0,52245.0,1336.3840621965826,1281.0012854511924,1281.0012854511924,1281.0012854511924,1281.0012854511924
2023-06-29,11:00:00,1924.3693617321612,193.60171071803424,36.70023936130905,53.29976063869095,12.586486337916028,1,799.0,795.0,588.7,585.7,210.3,209.2,730.5,730.5,1066.4,1061.1,6.2,6.2,25.2,12.4,45,1004.4,10.4,338,1,4,8,5,24140.0,15,0.0,0.0,0.0,0.0,0.0,0,56227.2,1360.5255212731815,1660.7231466871349,1660.7231466871349,1660.7231466871349,1660.7231466871349
2023-06-29,13:00:00,1175.873934194071,234.16668481501492,45.24928570440265,44.75071429559735,14.586206691835702,1,715.0,682.1,520.9,496.9,194.1,185.1,705.8,705.8,976.7,931.7,5.4,5.4,25.5,12.0,43,1003.8,15.1,316,5,0,0,0,24140.0,11,0.0,0.0,0.0,0.0,0.0,0,49690.0,1091.3328286550668,1392.4793855458736,1392.4793855458736,1392.4793855458736,1392.4793855458736
2023-06-29,14:00:00,686.7168729284226,250.22867348714703,51.99592791790978,38.00407208209022,15.586067024895724,1,631.0,587.1,454.2,422.7,176.8,164.5,686.4,686.4,875.7,814.8,4.55,4.55,25.0,11.9,44,1003.5,13.7,311,7,0,0,0,24140.0,5,0.0,0.0,0.0,0.0,0.0,0,42270.0,807.1810067771225,809.5271530759911,809.5271530759911,809.5271530759911,809.5271530759911
